{
"type": "FeatureCollection",
"name": "BumpingLakeBasin",
"bbox": [ -121.458405120051, 46.7114428851342, -121.270695732286, 46.8760963149371 ],                                              
"features": [
{ "type": "Feature", "id": "globalwatershedpoint", "properties": { }, "geometry": { "type": "Point", "coordinates": [ -121.29873923655893, 46.868538663111543 ] } },
{ "type": "Feature", "id": "globalwatershed", "properties": { "id": "BUMPING", "area": 44415, "acres": 44415 }, "geometry": { "type": "Polygon", "coordinates": [ [ [ -121.455387061948556, 46.780598857515102 ], [ -121.455009693204929, 46.780670558339011 ], [ -121.455423974107617, 46.781715566957217 ], [ -121.455046598998834, 46.781787268133947 ], [ -121.455357314155663, 46.782571027058189 ], [ -121.454979934067225, 46.782642728244312 ], [ -121.455601378276455, 46.784210251831922 ], [ -121.455223989050978, 46.78428195405813 ], [ -121.455741874918587, 46.785588229179488 ], [ -121.45536447794143, 46.785659932102362 ], [ -121.455675215176427, 46.786443699841605 ], [ -121.455297813219062, 46.786515402773958 ], [ -121.455401392556865, 46.786776659303314 ], [ -121.455023988390948, 46.786848361557915 ], [ -121.455127567165562, 46.78710961856725 ], [ -121.454750160791036, 46.787181320144079 ], [ -121.454853739002445, 46.78744257763335 ], [ -121.454476330419325, 46.787514278532448 ], [ -121.454579908067487, 46.787775536501712 ], [ -121.45420249727573, 46.787847236723046 ], [ -121.45430607436063, 46.788108495172331 ], [ -121.453928661360251, 46.788180194715835 ], [ -121.454032237881876, 46.788441453645149 ], [ -121.45365482267286, 46.78851315251098 ], [ -121.45375839863118, 46.788774411920272 ], [ -121.453380981213471, 46.788846110108281 ], [ -121.453484556608487, 46.789107369997645 ], [ -121.452729716533, 46.78925076399662 ], [ -121.452833289978628, 46.789512024709673 ], [ -121.450568741691896, 46.789942184253974 ], [ -121.450672307643799, 46.790203447165212 ], [ -121.450294878663968, 46.790275137191117 ], [ -121.450398444052382, 46.790536400582468 ], [ -121.449643580852609, 46.790679778257086 ], [ -121.449747144291379, 46.790941042472141 ], [ -121.449369710071409, 46.791012730120833 ], [ -121.449473272946605, 46.791273994816038 ], [ -121.448718399266482, 46.791417367736244 ], [ -121.44882196019195, 46.791678633255174 ], [ -121.448444520731741, 46.791750318526667 ], [ -121.44854808109362, 46.792011584525731 ], [ -121.446660864522443, 46.79236999727857 ], [ -121.44655731109178, 46.79210872956147 ], [ -121.446179866696042, 46.792180408703885 ], [ -121.446076315474215, 46.791919140779818 ], [ -121.442679291375583, 46.792564204000527 ], [ -121.443093451290778, 46.793609288885051 ], [ -121.443470907248241, 46.79353761790577 ], [ -121.443781539980037, 46.794321431973245 ], [ -121.444158999274151, 46.794249758941689 ], [ -121.444366094647521, 46.794772301649424 ], [ -121.444743555891876, 46.794700626909083 ], [ -121.44495065732832, 46.795223169476351 ], [ -121.44532812052293, 46.79515149302722 ], [ -121.445431673861449, 46.795412764172227 ], [ -121.445809137619847, 46.795341086357901 ], [ -121.445912693167415, 46.795602357295962 ], [ -121.446290157489614, 46.795530678116442 ], [ -121.446393715246231, 46.795791948847594 ], [ -121.446771180132174, 46.79572026830288 ], [ -121.446978300886215, 46.79624280948795 ], [ -121.447355767722343, 46.79617112723426 ], [ -121.447562894539971, 46.796693668278877 ], [ -121.447940363326239, 46.796621984316289 ], [ -121.448043929355535, 46.796883254700006 ], [ -121.44842139870552, 46.796811569372188 ], [ -121.448628536005216, 46.797334109862376 ], [ -121.449006007305314, 46.797262422825568 ], [ -121.449213150668925, 46.797784963175289 ], [ -121.449590623919136, 46.797713274429533 ], [ -121.450729986501543, 46.800587252349921 ], [ -121.451107474180347, 46.800515558801493 ], [ -121.451211058920677, 46.800776829998512 ], [ -121.451588547163112, 46.800705135084691 ], [ -121.451692134112903, 46.800966406074743 ], [ -121.452824598062236, 46.80075131417216 ], [ -121.452928189994552, 46.801012584267674 ], [ -121.45368316461898, 46.800869183870297 ], [ -121.45378676014731, 46.80113045341502 ], [ -121.454164247611558, 46.801058751340122 ], [ -121.454371443910276, 46.801581290152349 ], [ -121.454748933324538, 46.801509586368205 ], [ -121.454852534094982, 46.801770855635766 ], [ -121.455230024072705, 46.801699150486165 ], [ -121.45543723085575, 46.802221688743948 ], [ -121.455814722783458, 46.802149981885087 ], [ -121.456539982157537, 46.803978867691185 ], [ -121.456162480523915, 46.804050576957103 ], [ -121.457302240066326, 46.806924557701784 ], [ -121.456924722356391, 46.806996269729019 ], [ -121.457131959292525, 46.807518814150789 ], [ -121.457509479775908, 46.807447101435692 ], [ -121.457613100865601, 46.807708373508113 ], [ -121.45799062191243, 46.807636659427367 ], [ -121.458405120050983, 46.808681747711177 ], [ -121.458027593457189, 46.808753463167747 ], [ -121.458131218663382, 46.809014735925182 ], [ -121.4573761602323, 46.80915816446111 ], [ -121.457583407567455, 46.809680711763008 ], [ -121.457205874343359, 46.809752425186332 ], [ -121.457309497859086, 46.810013699386822 ], [ -121.456931962424832, 46.810085412132374 ], [ -121.457242833751508, 46.81086923658826 ], [ -121.457620373346316, 46.810797522810766 ], [ -121.458138515625564, 46.812103897925823 ], [ -121.457760969096356, 46.812175613423335 ], [ -121.457864598635453, 46.812436889201713 ], [ -121.45635439873702, 46.812723742350045 ], [ -121.456458023551747, 46.812985019641687 ], [ -121.455702915888352, 46.813128440773156 ], [ -121.455806538752483, 46.813389718889937 ], [ -121.455051425021665, 46.813533136622176 ], [ -121.455258667671998, 46.814055694643322 ], [ -121.454503545099612, 46.814199109664358 ], [ -121.454607164885729, 46.814460389568715 ], [ -121.45422960097747, 46.814532095890534 ], [ -121.454333220199857, 46.81479337627615 ], [ -121.453578087139078, 46.814936786542191 ], [ -121.453681704410656, 46.815198067753045 ], [ -121.452926565282297, 46.815341474619778 ], [ -121.453030180602966, 46.815602756655899 ], [ -121.450764735135238, 46.816032954795141 ], [ -121.450868342956241, 46.816294239032572 ], [ -121.449735604946255, 46.816509325338771 ], [ -121.449839209428845, 46.816770610745451 ], [ -121.448706459847671, 46.816985688886462 ], [ -121.448810060991775, 46.817246975462396 ], [ -121.44843247476426, 46.81731866647619 ], [ -121.448536075344322, 46.817579953533539 ], [ -121.447025716652632, 46.817866708745342 ], [ -121.447129312506647, 46.818127997315905 ], [ -121.44637412544671, 46.818271369478133 ], [ -121.446477719349247, 46.818532658874091 ], [ -121.446100123197084, 46.818604343766175 ], [ -121.446203716535436, 46.81886563364349 ], [ -121.445826118172661, 46.818937317857667 ], [ -121.445929710946857, 46.819198608216325 ], [ -121.44555211037347, 46.819270291752474 ], [ -121.445655702583437, 46.819531582592518 ], [ -121.445278099799395, 46.819603265450681 ], [ -121.445381691445164, 46.819864556772217 ], [ -121.445004086450453, 46.819936238952309 ], [ -121.445107677531979, 46.820197530755323 ], [ -121.4447300703266, 46.820269212257394 ], [ -121.444833660843869, 46.820530504541793 ], [ -121.444456051427778, 46.820602185365914 ], [ -121.444559641380778, 46.820863478131741 ], [ -121.444182029753932, 46.820935158277841 ], [ -121.444285619142676, 46.821196451525211 ], [ -121.443908005305104, 46.821268130993182 ], [ -121.444218774248014, 46.822052012592373 ], [ -121.443841155424579, 46.822123692070342 ], [ -121.443944745331109, 46.82238498655579 ], [ -121.44356712429682, 46.822456665355652 ], [ -121.443670713639023, 46.822717960322677 ], [ -121.443293090393936, 46.822789638444483 ], [ -121.443396679171755, 46.823050933893072 ], [ -121.443019053715787, 46.823122611336849 ], [ -121.44312264192925, 46.823383907267001 ], [ -121.442745014262414, 46.8234555840327 ], [ -121.442848601911436, 46.823716880444493 ], [ -121.442470972033718, 46.823788556532058 ], [ -121.442781735757364, 46.824572447625066 ], [ -121.442404100893313, 46.824644123722614 ], [ -121.443647213231429, 46.827779704612112 ], [ -121.444024864748499, 46.827708024386162 ], [ -121.444335665521749, 46.828491921674754 ], [ -121.443958009841182, 46.828563602932981 ], [ -121.444061610357892, 46.828824902648769 ], [ -121.444439267426276, 46.828753221046462 ], [ -121.44464647370566, 46.829275820203158 ], [ -121.444268813861555, 46.829347502493647 ], [ -121.444579625292775, 46.830131403294295 ], [ -121.444201960461555, 46.830203085594938 ], [ -121.44430556453095, 46.830464386481466 ], [ -121.443927897488365, 46.830536068104081 ], [ -121.444031500993333, 46.830797369472585 ], [ -121.444409169423835, 46.830725687505854 ], [ -121.444719989043264, 46.831509591406018 ], [ -121.444342316448925, 46.83158127440506 ], [ -121.44444592324777, 46.831842576324895 ], [ -121.444068248441965, 46.831914258645938 ], [ -121.444482678320341, 46.832959469080549 ], [ -121.44410499713905, 46.833031151755868 ], [ -121.445348349178289, 46.836166800429282 ], [ -121.444970650516396, 46.836238486212565 ], [ -121.445074267151568, 46.836499791509631 ], [ -121.444696566277884, 46.836571476614807 ], [ -121.444800182348501, 46.83683278239409 ], [ -121.44404477535393, 46.836976150226043 ], [ -121.44414838947182, 46.83723745683173 ], [ -121.443770683350877, 46.837309139558513 ], [ -121.44387429690417, 46.837570446646467 ], [ -121.44311887941501, 46.837713809721535 ], [ -121.443222491015476, 46.837975117635992 ], [ -121.442844779647231, 46.838046797984191 ], [ -121.442948390683014, 46.838308106380886 ], [ -121.442570677102907, 46.838379786051057 ], [ -121.442674287574022, 46.838641094930018 ], [ -121.440785700377958, 46.838999479667194 ], [ -121.440889304731115, 46.839260790405206 ], [ -121.44013386131094, 46.839404137832091 ], [ -121.440237463710957, 46.839665449396698 ], [ -121.439859739377141, 46.83973712192082 ], [ -121.439963341212334, 46.839998433967729 ], [ -121.439585614666555, 46.840070105813638 ], [ -121.440000024689425, 46.84111535675958 ], [ -121.439622291766383, 46.841187028959993 ], [ -121.439829498942487, 46.841709655950496 ], [ -121.439074025071761, 46.841852998660947 ], [ -121.439177627118241, 46.842114313051923 ], [ -121.438799887559014, 46.842185983217782 ], [ -121.438903489040584, 46.842447298091194 ], [ -121.43852574726921, 46.84251896757884 ], [ -121.438629348185884, 46.842780282934719 ], [ -121.438251604202392, 46.842851951744187 ], [ -121.438355204554099, 46.843113267582524 ], [ -121.437977458358475, 46.843184935713801 ], [ -121.438081058145215, 46.843446252034632 ], [ -121.436570059572531, 46.843732915712245 ], [ -121.436673654628478, 46.843994233548209 ], [ -121.435540392885599, 46.844209221603371 ], [ -121.435643984599224, 46.844470540610274 ], [ -121.432999668654631, 46.844972146028603 ], [ -121.433103251470953, 46.84523346758322 ], [ -121.432725487367506, 46.845305121754393 ], [ -121.432829069618563, 46.845566443791519 ], [ -121.432451303302884, 46.845638097284365 ], [ -121.432554884988676, 46.845899419804098 ], [ -121.43179934710929, 46.846042724410616 ], [ -121.431902926841033, 46.84630404775708 ], [ -121.43076960967943, 46.84651899803049 ], [ -121.430873186068169, 46.846780322547893 ], [ -121.430117634398741, 46.846923618305894 ], [ -121.430221208833274, 46.847184943650149 ], [ -121.429087870986606, 46.847399880650521 ], [ -121.429191442077922, 46.847661207165693 ], [ -121.428813659759911, 46.847732851131539 ], [ -121.428917230285762, 46.847994178129454 ], [ -121.428161660401585, 46.848137463681759 ], [ -121.428265228973004, 46.848398791506398 ], [ -121.427887441406781, 46.848470433092849 ], [ -121.427991009412708, 46.848731761400288 ], [ -121.427613219634125, 46.848803402308299 ], [ -121.427716787074488, 46.849064731098409 ], [ -121.426961202268998, 46.849208010534994 ], [ -121.4270647677548, 46.84946934015197 ], [ -121.426686972727921, 46.849540978680551 ], [ -121.426790537648117, 46.849802308780184 ], [ -121.42641274040875, 46.849873946630339 ], [ -121.426516304763339, 46.850135277212814 ], [ -121.426138505311513, 46.850206914384437 ], [ -121.426967038679791, 46.852297566786433 ], [ -121.426589227291657, 46.852369205689037 ], [ -121.426796366090215, 46.852891870864198 ], [ -121.426418551100298, 46.852963509432549 ], [ -121.426522120345638, 46.853224842572288 ], [ -121.426144303143047, 46.853296480462177 ], [ -121.42624787182271, 46.85355781408488 ], [ -121.425870052407376, 46.853629451296257 ], [ -121.425973620521347, 46.853890785401873 ], [ -121.425595798893298, 46.853962421934803 ], [ -121.425699366441549, 46.854223756523332 ], [ -121.425321542600742, 46.854295392377807 ], [ -121.425425109583273, 46.854556727449214 ], [ -121.425047283529693, 46.854628362625256 ], [ -121.425150849946434, 46.854889698179598 ], [ -121.424395192590254, 46.855032966151953 ], [ -121.424498757051907, 46.85529430253353 ], [ -121.424120925749278, 46.855365935329829 ], [ -121.424224489645141, 46.855627272194326 ], [ -121.420823958360998, 46.856271924435795 ], [ -121.420720406969451, 46.85601058447336 ], [ -121.420342567432314, 46.856082207042206 ], [ -121.420446117434437, 46.856343547348786 ], [ -121.419690433111086, 46.856486790106544 ], [ -121.419793981157767, 46.856748131240373 ], [ -121.419038290761918, 46.856891370595378 ], [ -121.419245383767588, 46.857414054656203 ], [ -121.418867534555631, 46.857485673487929 ], [ -121.41907462807589, 46.858008358792596 ], [ -121.418696775261509, 46.858079977289911 ], [ -121.418800321867209, 46.858341320494723 ], [ -121.418422466839885, 46.858412938313364 ], [ -121.418629559742456, 46.858935625828167 ], [ -121.418251701112624, 46.859007243312426 ], [ -121.418355247409465, 46.859268587622346 ], [ -121.417221662410725, 46.859483434970663 ], [ -121.417325205362175, 46.859744780452132 ], [ -121.41694734065949, 46.859816394533453 ], [ -121.417050883044723, 46.860077740498099 ], [ -121.415917279827411, 46.860292577637296 ], [ -121.415161540232333, 46.860435797282484 ], [ -121.415058004795398, 46.860174449596883 ], [ -121.414680135152494, 46.860246057540934 ], [ -121.414576601928601, 46.859984709650107 ], [ -121.413820862952193, 46.860127921781277 ], [ -121.413717333330979, 46.859866573341101 ], [ -121.413339463997517, 46.859938177528178 ], [ -121.413235936589302, 46.859676828882833 ], [ -121.412480198231876, 46.859820033500071 ], [ -121.412376674426355, 46.85955868430532 ], [ -121.411998805402433, 46.859630284735495 ], [ -121.411895283809869, 46.859368935335652 ], [ -121.411517415352421, 46.859440534398821 ], [ -121.411413895972785, 46.859179184793774 ], [ -121.411036028081838, 46.859250782489887 ], [ -121.410932510915089, 46.858989432679707 ], [ -121.410554643590643, 46.859061029008849 ], [ -121.410451128636808, 46.858799678993506 ], [ -121.408561786615564, 46.859157643575102 ], [ -121.408458279433503, 46.858896291978297 ], [ -121.406191050183381, 46.859325813655886 ], [ -121.406087552163029, 46.859064460133631 ], [ -121.405331805274599, 46.859207625154696 ], [ -121.405435300515364, 46.859468979365055 ], [ -121.405057424446781, 46.85954056068524 ], [ -121.405160919120746, 46.859801915378675 ], [ -121.404783040839277, 46.859873496019986 ], [ -121.404886534946456, 46.86013485119652 ], [ -121.404130773134696, 46.860278010098384 ], [ -121.404234265285183, 46.860539366102081 ], [ -121.403478497401551, 46.860682521600211 ], [ -121.403581987595274, 46.860943878431115 ], [ -121.402826213639699, 46.861087030525489 ], [ -121.40292970187663, 46.861348388183465 ], [ -121.401796030600863, 46.86156310968483 ], [ -121.401899515490925, 46.861824468514165 ], [ -121.399632142378749, 46.862253885960008 ], [ -121.399735619751766, 46.86251524699265 ], [ -121.399357719962651, 46.86258681333041 ], [ -121.39946119676857, 46.862848174846206 ], [ -121.399083294766442, 46.862919740504985 ], [ -121.399186771005247, 46.863181102504008 ], [ -121.398808866790077, 46.863252667483764 ], [ -121.398912342461756, 46.863514029966041 ], [ -121.398534436033543, 46.863585594266773 ], [ -121.398637911138067, 46.86384695723229 ], [ -121.398260002496812, 46.863918520854007 ], [ -121.398363477034167, 46.864179884302722 ], [ -121.397607654502465, 46.864323009165069 ], [ -121.397711127082488, 46.86458437344109 ], [ -121.395821549401049, 46.864942169413219 ], [ -121.395925015853024, 46.865203535548616 ], [ -121.393657487138071, 46.865632859017104 ], [ -121.393760946071424, 46.865894227355881 ], [ -121.393005093802884, 46.866037327681809 ], [ -121.393315467198335, 46.866821435597885 ], [ -121.392937535658803, 46.866892985258168 ], [ -121.393351372811637, 46.867938465806624 ], [ -121.39297343488775, 46.868010015819763 ], [ -121.393180355620785, 46.868532757618297 ], [ -121.392802414093168, 46.86860430729638 ], [ -121.393009335337027, 46.869127050340637 ], [ -121.392631390205636, 46.869198599683585 ], [ -121.392734850671516, 46.869459971758786 ], [ -121.390845105718668, 46.869817704845907 ], [ -121.390948560055008, 46.870079078780776 ], [ -121.390192653532594, 46.87022216554125 ], [ -121.390296105910778, 46.87048354030361 ], [ -121.389918150024712, 46.870555082493027 ], [ -121.39002160183523, 46.870816457738904 ], [ -121.389265684813353, 46.870959539736106 ], [ -121.389369134665586, 46.871220915809573 ], [ -121.388991173529746, 46.871292455617315 ], [ -121.38909462281427, 46.871553832174378 ], [ -121.388338695292816, 46.871696909408136 ], [ -121.388545590767933, 46.872219664316823 ], [ -121.388167622991645, 46.872291202086899 ], [ -121.388271070572856, 46.872552580094549 ], [ -121.387893100583, 46.872624117185417 ], [ -121.38799654759643, 46.872885495676719 ], [ -121.387618575393034, 46.872957032088294 ], [ -121.387722021838641, 46.873218411063228 ], [ -121.387344047421678, 46.873289946795573 ], [ -121.387447493299419, 46.873551326254088 ], [ -121.387069516668859, 46.873622861307098 ], [ -121.387172961978763, 46.873884241249279 ], [ -121.386794983134621, 46.873955775623045 ], [ -121.387001873441534, 46.87447853661434 ], [ -121.386623890992965, 46.874550070652894 ], [ -121.386727335989974, 46.874811451702037 ], [ -121.386349351327752, 46.874882985061305 ], [ -121.386452795756838, 46.875144366594142 ], [ -121.386074808880934, 46.875215899274117 ], [ -121.386178252742098, 46.875477281290678 ], [ -121.38580026365247, 46.875548813291367 ], [ -121.385903706945697, 46.875810195791587 ], [ -121.384391736795124, 46.876096314937101 ], [ -121.384288299065361, 46.875834931060687 ], [ -121.383154316985156, 46.876049508642417 ], [ -121.383050884250892, 46.875788123873647 ], [ -121.382672889969413, 46.875859647343482 ], [ -121.382466029751043, 46.875336877536995 ], [ -121.382088037428588, 46.875408399295431 ], [ -121.381984609944453, 46.875147014257713 ], [ -121.381606618190105, 46.875218534648766 ], [ -121.381503192919624, 46.874957149406825 ], [ -121.381125201733454, 46.875028668430538 ], [ -121.381021778676555, 46.874767282984223 ], [ -121.380643788058563, 46.874838800640617 ], [ -121.380540367215275, 46.8745774149901 ], [ -121.380162377165448, 46.87464893127914 ], [ -121.380058958535784, 46.87438754542427 ], [ -121.379680969054164, 46.874459060346013 ], [ -121.379474137044568, 46.873936288367418 ], [ -121.37909614952207, 46.874007801577896 ], [ -121.378992736142152, 46.8737464154542 ], [ -121.378614749187903, 46.873817927297331 ], [ -121.378511338021454, 46.873556540969368 ], [ -121.377755364426875, 46.873699560897713 ], [ -121.377651956864824, 46.873438174021551 ], [ -121.375762015437672, 46.873795704213862 ], [ -121.375865416045116, 46.874057092809629 ], [ -121.375109430934501, 46.874200098410661 ], [ -121.37521282958258, 46.874461487833827 ], [ -121.374456838399908, 46.874604490029135 ], [ -121.374353442533774, 46.874343099918114 ], [ -121.369439437737427, 46.875272509933154 ], [ -121.369336060777343, 46.87501111549166 ], [ -121.366690010363953, 46.87551149299 ], [ -121.366586643964155, 46.87525009628159 ], [ -121.365452614197025, 46.875464527397327 ], [ -121.365349252793024, 46.875203129797342 ], [ -121.361569114034751, 46.875917830218128 ], [ -121.361465767365203, 46.875656429320244 ], [ -121.361087750358507, 46.875727893389261 ], [ -121.360881062268447, 46.875205091325427 ], [ -121.360503047222139, 46.875276553683427 ], [ -121.360399705801584, 46.875015152517605 ], [ -121.360021691324391, 46.875086613508394 ], [ -121.359918352117191, 46.874825212138667 ], [ -121.359540338209158, 46.874896671762137 ], [ -121.359437001215355, 46.874635270188563 ], [ -121.359058987876494, 46.874706728444856 ], [ -121.35885231913754, 46.874183925029776 ], [ -121.358474307759153, 46.874255381575146 ], [ -121.358267645090891, 46.873732578031969 ], [ -121.357889635672947, 46.873804032866495 ], [ -121.357786306963106, 46.87354263096092 ], [ -121.357408298114365, 46.873614084428219 ], [ -121.357201645943164, 46.873091280349293 ], [ -121.356823639054923, 46.873162732105698 ], [ -121.356720315593535, 46.872901329932326 ], [ -121.356342309274567, 46.872972780321575 ], [ -121.356238988026348, 46.872711377944285 ], [ -121.355860982276653, 46.872782826966429 ], [ -121.355757663241604, 46.872521424385326 ], [ -121.355379658061253, 46.872592872040286 ], [ -121.355173025239338, 46.87207006661027 ], [ -121.354417017977809, 46.872212957475178 ], [ -121.354313705582157, 46.871951554282553 ], [ -121.353935702109837, 46.87202299783614 ], [ -121.353832391927256, 46.871761594439747 ], [ -121.353454389024307, 46.871833036626228 ], [ -121.353351081054811, 46.871571633025987 ], [ -121.351839066789722, 46.87185739016234 ], [ -121.351735765207053, 46.87159598532763 ], [ -121.351357760977535, 46.871667421709333 ], [ -121.351254461607894, 46.87140601667079 ], [ -121.350876457947905, 46.871477451685394 ], [ -121.350773160791277, 46.871216046443145 ], [ -121.350395157700774, 46.87128748009065 ], [ -121.350291862757146, 46.871026074644611 ], [ -121.3499138602362, 46.871097506925047 ], [ -121.349810567505557, 46.870836101275223 ], [ -121.349432565554153, 46.87090753218866 ], [ -121.349329275036482, 46.870646126335117 ], [ -121.348951273654649, 46.870717555881455 ], [ -121.348847985349934, 46.870456149824157 ], [ -121.347713980448248, 46.870670431291394 ], [ -121.347610697139018, 46.870409024343395 ], [ -121.347232695253126, 46.870480449108555 ], [ -121.347129414156768, 46.870219041956823 ], [ -121.346751412840561, 46.870290465354948 ], [ -121.346648133957117, 46.870029057999481 ], [ -121.346270133210581, 46.870100480030615 ], [ -121.346166856540009, 46.869839072471443 ], [ -121.345410855364761, 46.869981912776161 ], [ -121.345307582298346, 46.869720504669822 ], [ -121.344551580619481, 46.869863340193369 ], [ -121.344448311157194, 46.869601931539925 ], [ -121.344070310476781, 46.86967334742296 ], [ -121.336510124364139, 46.871101450133068 ], [ -121.336613364606933, 46.871362865998314 ], [ -121.336235345285274, 46.871434260729409 ], [ -121.336338584957858, 46.871695677077916 ], [ -121.33596056342337, 46.871767071128694 ], [ -121.336063802525771, 46.872028487960577 ], [ -121.33568577877837, 46.872099881331174 ], [ -121.335789017310532, 46.87236129864629 ], [ -121.335032964568683, 46.872504083003271 ], [ -121.335136201139022, 46.872765501145054 ], [ -121.334758172144518, 46.872836892131467 ], [ -121.334861408144576, 46.873098310756603 ], [ -121.334483376937158, 46.873169701062686 ], [ -121.334586612366905, 46.87343112017129 ], [ -121.33420857894653, 46.873502509797049 ], [ -121.334415049486722, 46.874025349120828 ], [ -121.334037012461707, 46.874096738409769 ], [ -121.334140247572151, 46.874358158625029 ], [ -121.33376220833415, 46.874429547233653 ], [ -121.333968678235621, 46.874952388771064 ], [ -121.333590635392881, 46.875023777042713 ], [ -121.333693870183922, 46.875285198364899 ], [ -121.332181685032737, 46.875570742588067 ], [ -121.332078455808656, 46.875309319892345 ], [ -121.331322361088723, 46.875452085174771 ], [ -121.331219135469482, 46.875190661932358 ], [ -121.330463040247992, 46.875333422433087 ], [ -121.330359818233546, 46.875071998643989 ], [ -121.329981770782709, 46.875143377015348 ], [ -121.329878550981292, 46.874881953022971 ], [ -121.328744407876783, 46.87509608096471 ], [ -121.328641193071945, 46.874834656082335 ], [ -121.328263145119848, 46.874906029672118 ], [ -121.328159932527981, 46.874644604586486 ], [ -121.327025787920107, 46.874858718183255 ], [ -121.326922580324819, 46.874597292207696 ], [ -121.326544531871733, 46.874668661015825 ], [ -121.326441326489388, 46.874407234837044 ], [ -121.325685229903513, 46.874549968695426 ], [ -121.32558202812595, 46.874288541970088 ], [ -121.324825931039371, 46.874431271046838 ], [ -121.324722732866519, 46.874169843775036 ], [ -121.323588585254271, 46.874383928682036 ], [ -121.323485392078013, 46.874122500520492 ], [ -121.322729292348455, 46.874265217986434 ], [ -121.322626102776937, 46.874003789278511 ], [ -121.321870002547115, 46.874146501962898 ], [ -121.321766816580336, 46.873885072708525 ], [ -121.321010715850406, 46.874027780611272 ], [ -121.320907533488338, 46.873766350810513 ], [ -121.320151432258442, 46.873909053931698 ], [ -121.320048253501071, 46.87364762358461 ], [ -121.31967020304667, 46.873718973266264 ], [ -121.319567026502085, 46.87345754271611 ], [ -121.318432874389231, 46.873671584588735 ], [ -121.318329702841282, 46.873410153149081 ], [ -121.317195547516491, 46.873624184778024 ], [ -121.317092380965121, 46.87336275244887 ], [ -121.315958222428847, 46.873576773834003 ], [ -121.316061384804357, 46.873838207192662 ], [ -121.314927214705079, 46.874052220392954 ], [ -121.3148240565055, 46.873790786004854 ], [ -121.314445999556213, 46.873862121347479 ], [ -121.314342843569364, 46.873600686756326 ], [ -121.313964787191338, 46.873672020731995 ], [ -121.313861633417247, 46.873410585937862 ], [ -121.313483577610455, 46.873481918546545 ], [ -121.313380426049051, 46.873220483549375 ], [ -121.313002370813592, 46.873291814791095 ], [ -121.312899221464875, 46.873030379590986 ], [ -121.312521166800707, 46.87310170946575 ], [ -121.31241801966469, 46.872840274062611 ], [ -121.312039965571827, 46.872911602570426 ], [ -121.311936820648455, 46.872650166964334 ], [ -121.311558767126954, 46.872721494105221 ], [ -121.311455624416226, 46.872460058296156 ], [ -121.311077571466086, 46.872531384070129 ], [ -121.31097443096796, 46.872269948058062 ], [ -121.31059637858921, 46.872341272465128 ], [ -121.310493240303686, 46.872079836250101 ], [ -121.31011518849634, 46.872151159290262 ], [ -121.310012052423389, 46.87188972287224 ], [ -121.309634001187476, 46.871961044545479 ], [ -121.309530867327098, 46.871699607924583 ], [ -121.309152816662618, 46.871770928230958 ], [ -121.309049685014756, 46.871509491407025 ], [ -121.308671634921765, 46.871580810346593 ], [ -121.30856850548642, 46.8713193733197 ], [ -121.308190455964905, 46.871390690892319 ], [ -121.308087328742062, 46.871129253662566 ], [ -121.307709279792064, 46.871200569868257 ], [ -121.307606154781709, 46.87093913243563 ], [ -121.307228106403215, 46.871010447274521 ], [ -121.30712498360532, 46.87074900963885 ], [ -121.306746935798387, 46.870820323110941 ], [ -121.306643815212922, 46.870558885272352 ], [ -121.30626576797755, 46.870630197377587 ], [ -121.306162649604531, 46.870368759336124 ], [ -121.305784602940733, 46.870440070074515 ], [ -121.305681486780117, 46.870178631830122 ], [ -121.305303440687894, 46.870249941201706 ], [ -121.304994101304388, 46.869465626280146 ], [ -121.304616058567774, 46.869536933598937 ], [ -121.304512948472649, 46.869275495228955 ], [ -121.303000774890762, 46.869560712893914 ], [ -121.302897671183942, 46.869299273292199 ], [ -121.299495245166398, 46.869940950056936 ], [ -121.29939215480826, 46.869679507509012 ], [ -121.299014104763884, 46.869750799465088 ], [ -121.297674022839104, 46.866352054631925 ], [ -121.296917956482872, 46.866494626558008 ], [ -121.296814881782566, 46.866233184942416 ], [ -121.296436848766348, 46.866304469026907 ], [ -121.295921494525075, 46.864997261335297 ], [ -121.296299520581471, 46.864925978964905 ], [ -121.296196450801247, 46.864664538189288 ], [ -121.296574474645723, 46.864593255137876 ], [ -121.296471404293584, 46.864331814845059 ], [ -121.296849425926169, 46.864260531112649 ], [ -121.296746355002114, 46.863999091302631 ], [ -121.297502393023535, 46.863856521451908 ], [ -121.29739932013571, 46.863595082467427 ], [ -121.297777336524589, 46.86352379634917 ], [ -121.297158908066137, 46.861955167437301 ], [ -121.296780900028224, 46.862026451498878 ], [ -121.296162509438304, 46.86045782556625 ], [ -121.295784508931149, 46.860529106547602 ], [ -121.295681448094186, 46.860267669038933 ], [ -121.295303448158919, 46.860338948653812 ], [ -121.295200389533562, 46.860077510942254 ], [ -121.294822390170211, 46.860148789190653 ], [ -121.294719333756433, 46.859887351276264 ], [ -121.294341334964997, 46.859958628158168 ], [ -121.294238280762826, 46.859697190040897 ], [ -121.293860282543335, 46.859768465556428 ], [ -121.293757230552686, 46.859507027236269 ], [ -121.293379232905167, 46.859578301385334 ], [ -121.293276183126054, 46.859316862862379 ], [ -121.292898186050508, 46.859388135645041 ], [ -121.292795138482902, 46.859126696919169 ], [ -121.292417141979385, 46.859197968335401 ], [ -121.292314096623272, 46.858936529406684 ], [ -121.292692091735034, 46.858865258333118 ], [ -121.292486000698503, 46.858342381580499 ], [ -121.292863992207089, 46.858271110168474 ], [ -121.292760946526698, 46.858009672344551 ], [ -121.293138935823848, 46.857938400251463 ], [ -121.293035889571485, 46.85767696290997 ], [ -121.293413876657226, 46.857605690135792 ], [ -121.29331082983289, 46.857344253276693 ], [ -121.293688814707266, 46.857272979821545 ], [ -121.293585767310972, 46.857011543444877 ], [ -121.293963749973983, 46.856940269308645 ], [ -121.293860702005773, 46.856678833414342 ], [ -121.294238682457419, 46.856607558597069 ], [ -121.294135633917321, 46.85634612318519 ], [ -121.294513612157644, 46.856274847686912 ], [ -121.294410563045645, 46.856013412757392 ], [ -121.294788539074673, 46.855942136577987 ], [ -121.294685489390787, 46.855680702130854 ], [ -121.295063463208535, 46.855609425270494 ], [ -121.294960412952818, 46.855347991305713 ], [ -121.295338384559258, 46.855276713764376 ], [ -121.294720091889531, 46.853708114964313 ], [ -121.295098054327198, 46.85363683845511 ], [ -121.294995007026316, 46.853375406153177 ], [ -121.295372967252845, 46.853304128962897 ], [ -121.295269919380175, 46.853042697143259 ], [ -121.296025834591305, 46.852900140377095 ], [ -121.295922784755419, 46.852638709382177 ], [ -121.296678693905008, 46.852496149206843 ], [ -121.296575642106006, 46.852234719036822 ], [ -121.297331545194041, 46.852092155452318 ], [ -121.297228491431952, 46.85183072610711 ], [ -121.297606440355054, 46.851759443122063 ], [ -121.29750338602129, 46.851498014259064 ], [ -121.297881332733382, 46.851426730593062 ], [ -121.297778277827973, 46.851165302212209 ], [ -121.298156222329013, 46.851094017865258 ], [ -121.297950112194656, 46.850571162207352 ], [ -121.298328053093371, 46.850499877522047 ], [ -121.298224997864438, 46.850238450244994 ], [ -121.298602936552214, 46.850167164878798 ], [ -121.298499880751677, 46.849905738083784 ], [ -121.300011621740765, 46.849620587753961 ], [ -121.299908561194954, 46.849359162468943 ], [ -121.300286493001749, 46.849287872670239 ], [ -121.300183431884463, 46.849026447867317 ], [ -121.299805501468882, 46.849097737323412 ], [ -121.299702442562506, 46.848836312317296 ], [ -121.299324512718428, 46.848907600407173 ], [ -121.299221456022934, 46.848646175197892 ], [ -121.298843526750375, 46.84871746192173 ], [ -121.29874047226572, 46.848456036509312 ], [ -121.298362543564707, 46.84852732186696 ], [ -121.298259491290921, 46.848265896251405 ], [ -121.297881563161482, 46.848337180242957 ], [ -121.297675463855171, 46.84781432874496 ], [ -121.297297537688479, 46.847885611027884 ], [ -121.29719449065594, 46.847624185145442 ], [ -121.296816565060851, 46.847695466062255 ], [ -121.296713520239066, 46.847434039976712 ], [ -121.296335595215623, 46.847505319527464 ], [ -121.296232552604579, 46.847243893238769 ], [ -121.295854628152767, 46.847315171423489 ], [ -121.295648548171684, 46.846792318579276 ], [ -121.295270625682704, 46.846863595055325 ], [ -121.295167588312637, 46.846602168499878 ], [ -121.294789666395332, 46.846673443609895 ], [ -121.294583596896018, 46.846150590232043 ], [ -121.294205676941601, 46.846221863633538 ], [ -121.294102644812327, 46.845960436811232 ], [ -121.293724725429612, 46.846031708846766 ], [ -121.29362169551095, 46.845770281821338 ], [ -121.293243776699995, 46.845841552490796 ], [ -121.293140748991931, 46.845580125262309 ], [ -121.292762830752707, 46.845651394565778 ], [ -121.292659805255269, 46.845389967134189 ], [ -121.292281887587805, 46.845461235071674 ], [ -121.292178864300922, 46.845199807436984 ], [ -121.291800947205246, 46.845271074008494 ], [ -121.291697926128904, 46.84500964617073 ], [ -121.291320009605059, 46.845080911376257 ], [ -121.29121699073923, 46.844819483335399 ], [ -121.290839074787229, 46.844890747175008 ], [ -121.290736058131913, 46.844629318931069 ], [ -121.290358142751742, 46.844700581404673 ], [ -121.290255128306939, 46.84443915295769 ], [ -121.289877213498642, 46.844510414065383 ], [ -121.289774201264294, 46.844248985415348 ], [ -121.28939628702787, 46.844320245157078 ], [ -121.289293277003992, 46.844058816304042 ], [ -121.288915363339484, 46.844130074679825 ], [ -121.288812355526034, 46.843868645623679 ], [ -121.288434442433456, 46.843939902633558 ], [ -121.288331436830404, 46.843678473374418 ], [ -121.287953524309771, 46.843749729018334 ], [ -121.287747518343707, 46.843226870233401 ], [ -121.287369607786204, 46.843298124169038 ], [ -121.287266607423135, 46.84303669464316 ], [ -121.286888697437632, 46.843107947212943 ], [ -121.285961743552178, 46.840755084668942 ], [ -121.285583845267695, 46.840826333134103 ], [ -121.285274879556326, 46.840042047099907 ], [ -121.284896984626045, 46.840113293514655 ], [ -121.284279083663606, 46.838544723152523 ], [ -121.283901196260629, 46.838615966490075 ], [ -121.282253626751171, 46.834433131214787 ], [ -121.281875760784658, 46.834504368053167 ], [ -121.281566869011783, 46.833720089378097 ], [ -121.281189006399103, 46.833791324166569 ], [ -121.281086045503258, 46.833529897877561 ], [ -121.280708183462679, 46.833601131300476 ], [ -121.280399309860258, 46.832816852241479 ], [ -121.280021451173539, 46.832888083614606 ], [ -121.279197835383442, 46.830796676172341 ], [ -121.27881998700461, 46.830867903785034 ], [ -121.278511148763471, 46.830083627261871 ], [ -121.278133303738358, 46.830154852824997 ], [ -121.27803036068596, 46.829893427253197 ], [ -121.277652516233019, 46.829964651450837 ], [ -121.277446635365479, 46.829441800040108 ], [ -121.278202317889722, 46.829299351989746 ], [ -121.2780993759023, 46.829037927176955 ], [ -121.27885505237083, 46.82889547571726 ], [ -121.27875210842052, 46.828634051727597 ], [ -121.279129944036214, 46.828562824804813 ], [ -121.278924055809995, 46.828039977926394 ], [ -121.279301887825724, 46.827968750664454 ], [ -121.279198943549787, 46.827707327775741 ], [ -121.279576773356311, 46.827636099832446 ], [ -121.279370884478865, 46.827113255155844 ], [ -121.279748710685539, 46.827042026873393 ], [ -121.279131055354569, 46.825473498228966 ], [ -121.279508872399205, 46.825402270975474 ], [ -121.279405931318323, 46.8251408503628 ], [ -121.279097112986619, 46.82435658935767 ], [ -121.278719301504125, 46.82442781524307 ], [ -121.278410494710258, 46.823643554461214 ], [ -121.278788302021226, 46.82357232960176 ], [ -121.278479498421831, 46.822788071095033 ], [ -121.278101695282288, 46.822859294928548 ], [ -121.277381191927631, 46.821029360875457 ], [ -121.277758985334188, 46.82095813943566 ], [ -121.277656058166571, 46.820696721182038 ], [ -121.278411639743837, 46.820554275916713 ], [ -121.278308710613814, 46.820292858485693 ], [ -121.278686498784538, 46.820221634660115 ], [ -121.278480640198893, 46.819698800898067 ], [ -121.278858424770604, 46.819627576733211 ], [ -121.278755495314982, 46.819366160402119 ], [ -121.279133277678042, 46.819294935556009 ], [ -121.278927418441199, 46.818772103993552 ], [ -121.279305197205346, 46.81870087880813 ], [ -121.279099338461307, 46.81817804848415 ], [ -121.279477113626598, 46.818106822959336 ], [ -121.279168327477237, 46.817322579538626 ], [ -121.279546097653508, 46.817251354016527 ], [ -121.279237314698321, 46.816467112868821 ], [ -121.278859548692637, 46.81653833736523 ], [ -121.278550777272514, 46.815754096438909 ], [ -121.278173014619071, 46.815825318886553 ], [ -121.277967173877201, 46.81530249161127 ], [ -121.277589413185851, 46.815373712352077 ], [ -121.277383578497165, 46.814850884947248 ], [ -121.277005819767922, 46.814922103981253 ], [ -121.276902905041013, 46.814660690144748 ], [ -121.277280662380093, 46.814589471452585 ], [ -121.277177747081197, 46.814328058096443 ], [ -121.277555502211996, 46.81425683872304 ], [ -121.277349671288491, 46.813734013109915 ], [ -121.277727422820917, 46.813662793397128 ], [ -121.277212852879487, 46.812355733496808 ], [ -121.276835108297419, 46.812426951500527 ], [ -121.276732198153582, 46.812165539594055 ], [ -121.277109941345614, 46.81209432193215 ], [ -121.277007030629846, 46.811832910505821 ], [ -121.276629288827849, 46.811904127825962 ], [ -121.275600240564074, 46.809290017757704 ], [ -121.275977968466321, 46.809218803855345 ], [ -121.275566366505657, 46.808173165069341 ], [ -121.27518864416308, 46.808244377604744 ], [ -121.274879955450928, 46.807460148942468 ], [ -121.274502236460066, 46.80753135942971 ], [ -121.27429645085472, 46.807008540329633 ], [ -121.273918733825681, 46.807079749110429 ], [ -121.273507177989174, 46.806034111202983 ], [ -121.273884889458813, 46.805962903788902 ], [ -121.273679113668067, 46.80544008634817 ], [ -121.274056821540228, 46.80536887859445 ], [ -121.273748159818595, 46.80458465449518 ], [ -121.274125862703571, 46.804513446743513 ], [ -121.273714319631949, 46.803467817912697 ], [ -121.274092016140131, 46.803396610504656 ], [ -121.273783363254239, 46.802612391357435 ], [ -121.274161054775519, 46.802541183951348 ], [ -121.273338005277566, 46.800449941703228 ], [ -121.272960324873452, 46.800521146376433 ], [ -121.272857448755587, 46.800259741375264 ], [ -121.272479768923361, 46.800330944683914 ], [ -121.27237689501284, 46.800069539479281 ], [ -121.27199921575253, 46.800140741423476 ], [ -121.27169060309572, 46.799356525613362 ], [ -121.271312927186557, 46.799427725509908 ], [ -121.270695732286214, 46.79785929556806 ], [ -121.271073399858025, 46.797788097720755 ], [ -121.270970535513328, 46.797526693555142 ], [ -121.271348200878009, 46.797455495026412 ], [ -121.271245335961382, 46.797194091340337 ], [ -121.271622999119003, 46.797122892130346 ], [ -121.271520133630432, 46.796861488923767 ], [ -121.271897794580994, 46.796790289032423 ], [ -121.271794928520563, 46.796528886305367 ], [ -121.272172587264052, 46.796457685732683 ], [ -121.271966854816952, 46.795934881375501 ], [ -121.272722164293469, 46.795792478527702 ], [ -121.272619296517433, 46.795531077239026 ], [ -121.272996948639928, 46.795459874622438 ], [ -121.272894080292048, 46.795198473813251 ], [ -121.273271730207568, 46.795127270515316 ], [ -121.2731688612879, 46.794865870185525 ], [ -121.273924155887471, 46.794723461204235 ], [ -121.273821285006662, 46.794462061695434 ], [ -121.274198929690741, 46.794390856012114 ], [ -121.274096058238143, 46.794129456982731 ], [ -121.274473700715319, 46.794058250618136 ], [ -121.274370828690991, 46.79379685206812 ], [ -121.274748468961278, 46.793725645022242 ], [ -121.274645596365261, 46.793464246951594 ], [ -121.275023234428645, 46.793393039224441 ], [ -121.274920361260911, 46.793131641633138 ], [ -121.27567563215645, 46.792989223793583 ], [ -121.275572757027803, 46.792727827023164 ], [ -121.275950389859929, 46.792656616910733 ], [ -121.275847514159651, 46.792395220619674 ], [ -121.276602774592675, 46.792252798009535 ], [ -121.27649989693154, 46.791991402539324 ], [ -121.27687752453248, 46.791920190041701 ], [ -121.276774646299785, 46.791658795050793 ], [ -121.277907520029444, 46.791445152445917 ], [ -121.277804638446867, 46.791183758617315 ], [ -121.27818225999907, 46.791112542711808 ], [ -121.277976496508529, 46.790589756150901 ], [ -121.278354114464847, 46.790518539905683 ], [ -121.277428206726157, 46.788166010272697 ], [ -121.277805811363422, 46.788094796078205 ], [ -121.27718856799288, 46.78652645123374 ], [ -121.277566163478809, 46.786455238065322 ], [ -121.277154678692469, 46.785409678953869 ], [ -121.277532267805242, 46.785338466128522 ], [ -121.277223658632082, 46.784554299263846 ], [ -121.277601242760795, 46.784483086440211 ], [ -121.277292636777986, 46.783698921837789 ], [ -121.277670215922754, 46.783627709015754 ], [ -121.277464479910321, 46.783104933984546 ], [ -121.277842055460056, 46.783033720822765 ], [ -121.277636319939688, 46.782510947024406 ], [ -121.278013891894446, 46.782439733522764 ], [ -121.277705290578041, 46.781655574880546 ], [ -121.277327722789522, 46.781726787357975 ], [ -121.276710550557837, 46.780158471736442 ], [ -121.27633299028426, 46.780229681143176 ], [ -121.276230132494973, 46.779968295345924 ], [ -121.275852572792814, 46.780039503388771 ], [ -121.275646862443423, 46.779516731523898 ], [ -121.275269304701396, 46.779587937861429 ], [ -121.275166452141278, 46.779326551793794 ], [ -121.274788894970655, 46.779397756767573 ], [ -121.274686044616459, 46.779136370496019 ], [ -121.274308488017311, 46.779207574105882 ], [ -121.273999946024006, 46.77842341509163 ], [ -121.274377498457156, 46.778352212505624 ], [ -121.274274651371783, 46.778090826783668 ], [ -121.27465220159911, 46.778019623516414 ], [ -121.274549353942291, 46.777758238273023 ], [ -121.274926901963809, 46.777687034324543 ], [ -121.2747212063245, 46.777164264932431 ], [ -121.27509875075161, 46.777093060644027 ], [ -121.274995902769149, 46.776831676495334 ], [ -121.275373444990478, 46.776760471525641 ], [ -121.275270596436613, 46.77649908785552 ], [ -121.275648136452233, 46.77642788220458 ], [ -121.275442439018946, 46.775905115958786 ], [ -121.275819975440285, 46.775833909967993 ], [ -121.275614278498622, 46.775311144953911 ], [ -121.275991811325795, 46.775239938623123 ], [ -121.275786114875771, 46.774717174840639 ], [ -121.27616364410882, 46.774645968169978 ], [ -121.275855101396985, 46.773861824549343 ], [ -121.276610149080966, 46.773719410188164 ], [ -121.276404452471738, 46.773196649825529 ], [ -121.276781972311198, 46.773125441793788 ], [ -121.276679123843891, 46.772864062159542 ], [ -121.277056641477856, 46.772792853446518 ], [ -121.276850944217827, 46.772270095272084 ], [ -121.277228458257952, 46.772198886219165 ], [ -121.277022761489746, 46.771676129275797 ], [ -121.27740027193606, 46.771604919882968 ], [ -121.277194575659678, 46.771082164170672 ], [ -121.277949588547798, 46.77093974368281 ], [ -121.277846738858671, 46.770678366714769 ], [ -121.278601745701835, 46.770535942819826 ], [ -121.278190344010383, 46.769490439048525 ], [ -121.278567840653366, 46.769419226932371 ], [ -121.278464990885041, 46.769157851673477 ], [ -121.278087495630245, 46.769229063448321 ], [ -121.277676110280424, 46.768183562418386 ], [ -121.277298619761297, 46.76825477180612 ], [ -121.277195776854626, 46.767993396550033 ], [ -121.276818286906646, 46.768064604574334 ], [ -121.276509767253145, 46.767280478604725 ], [ -121.276132280652661, 46.76735168458309 ], [ -121.275515271732658, 46.765783434296068 ], [ -121.275137792643989, 46.76585463720528 ], [ -121.274932132315598, 46.76533188752321 ], [ -121.275309608628078, 46.765260685296248 ], [ -121.27520677830114, 46.764999311001773 ], [ -121.276339198172948, 46.764785699210279 ], [ -121.276236364498729, 46.764524326076078 ], [ -121.276991304219322, 46.764381913785861 ], [ -121.276888468585952, 46.764120541470838 ], [ -121.277265935832858, 46.764049334133382 ], [ -121.277163099628424, 46.763787962296426 ], [ -121.277540564670417, 46.76371675427783 ], [ -121.277437727894906, 46.763455382918892 ], [ -121.278192652752196, 46.763312964497224 ], [ -121.27808981401769, 46.763051593957364 ], [ -121.28148692294512, 46.762410663528875 ], [ -121.281384072536511, 46.762149296196093 ], [ -121.282138973868967, 46.762006856649819 ], [ -121.28203612150169, 46.761745490136143 ], [ -121.282791016790483, 46.761603047183314 ], [ -121.282688162464567, 46.761341681488702 ], [ -121.283443051709696, 46.761199235129453 ], [ -121.283340195425282, 46.760937870253969 ], [ -121.284095078626748, 46.760795420488272 ], [ -121.283889362957979, 46.760272692512125 ], [ -121.284266800557688, 46.760201466778376 ], [ -121.284163942561136, 46.759940103336554 ], [ -121.284541377956103, 46.759868876921786 ], [ -121.284438519388885, 46.75960751395781 ], [ -121.284815952579152, 46.759536286862023 ], [ -121.284713093441255, 46.759274924375966 ], [ -121.28509052442682, 46.759203696599144 ], [ -121.284987664718301, 46.758942334590898 ], [ -121.28536509349918, 46.758871106133164 ], [ -121.2850565151128, 46.758087021951944 ], [ -121.285433938913783, 46.758015793495503 ], [ -121.285331079698082, 46.757754432716183 ], [ -121.288727844652371, 46.757113333683563 ], [ -121.288624973765735, 46.756851976111207 ], [ -121.289379798659539, 46.75670949909891 ], [ -121.289276925815045, 46.756448142345505 ], [ -121.289654335648834, 46.756376902647446 ], [ -121.289551462233945, 46.756115546371753 ], [ -121.289928869863189, 46.756044305992752 ], [ -121.289825995877962, 46.755782950194799 ], [ -121.290958209700847, 46.755569223949038 ], [ -121.290855332370413, 46.755307869311189 ], [ -121.295006704873984, 46.754524131467143 ], [ -121.295109597465199, 46.75478548235197 ], [ -121.296241776967221, 46.754571713181583 ], [ -121.296344674537536, 46.75483306317922 ], [ -121.297476850846195, 46.754619283787342 ], [ -121.297579753395581, 46.754880632897759 ], [ -121.298711926510421, 46.754666843284397 ], [ -121.298814834038836, 46.754928191507524 ], [ -121.299192224829739, 46.754856925917842 ], [ -121.299295134562726, 46.75511827393624 ], [ -121.299672525923526, 46.755047006983368 ], [ -121.299878350616041, 46.755569702746882 ], [ -121.30025574393396, 46.755498434089475 ], [ -121.300358658893529, 46.755759781834698 ], [ -121.300736052781303, 46.755688511814 ], [ -121.300941887927152, 46.756211207031235 ], [ -121.301319283772003, 46.756139935306031 ], [ -121.301628046783222, 46.756923978131546 ], [ -121.302005445972441, 46.756852704360391 ], [ -121.302520074276927, 46.758159443426486 ], [ -121.302897479585098, 46.758088166926647 ], [ -121.303000409085811, 46.758349514808081 ], [ -121.303377814963767, 46.758278236944889 ], [ -121.303583679192442, 46.758800932434703 ], [ -121.303961087027488, 46.758729652866769 ], [ -121.30406402175548, 46.758991000475106 ], [ -121.304441430160267, 46.75891971954389 ], [ -121.30464730484367, 46.759442414487339 ], [ -121.305024715205491, 46.759371131851346 ], [ -121.305127655160931, 46.759632479186529 ], [ -121.305505066092465, 46.759561195187132 ], [ -121.305608008252875, 46.759822542317451 ], [ -121.305985419754094, 46.759751256954651 ], [ -121.30619130930252, 46.760273950942221 ], [ -121.30656872276073, 46.760202663874544 ], [ -121.306774618354538, 46.760725357725569 ], [ -121.307152033769725, 46.760654068952995 ], [ -121.307666794001065, 46.761960804263644 ], [ -121.308044215535332, 46.761889512761861 ], [ -121.308147171422235, 46.762150859892365 ], [ -121.30852459352613, 46.762079567027051 ], [ -121.308627551618187, 46.762340913952656 ], [ -121.309004974291668, 46.762269619723838 ], [ -121.309107934588909, 46.762530966444608 ], [ -121.309862780257191, 46.762388374237972 ], [ -121.309965744146993, 46.762649720412377 ], [ -121.310343167141781, 46.762578422434537 ], [ -121.310446133236809, 46.762839768404064 ], [ -121.310823556801097, 46.762768469062657 ], [ -121.310926525101337, 46.763029814827348 ], [ -121.311303949235125, 46.762958514122396 ], [ -121.311509891064077, 46.763481205378497 ], [ -121.315284115162882, 46.762768135288582 ], [ -121.315387101177635, 46.763029477706048 ], [ -121.31614193895625, 46.762886850740962 ], [ -121.316244928563592, 46.763148192611879 ], [ -121.316622347613119, 46.763076877254797 ], [ -121.316725339425801, 46.763338218920715 ], [ -121.317480177845297, 46.763195584457442 ], [ -121.317583173250583, 46.76345692557674 ], [ -121.322489561245234, 46.762529697483643 ], [ -121.322283535185306, 46.762007024263902 ], [ -121.32266094114496, 46.761935692555674 ], [ -121.322454915583521, 46.761413020565314 ], [ -121.322832317950784, 46.761341688518492 ], [ -121.322626292887847, 46.760819017757335 ], [ -121.323003691662734, 46.760747685371854 ], [ -121.321664590490542, 46.757350343168795 ], [ -121.321287209746885, 46.75742167111347 ], [ -121.321081209227145, 46.756899004445124 ], [ -121.321458587196929, 46.756827677183558 ], [ -121.321046590425979, 46.755782346849273 ], [ -121.320669218003886, 46.755853672744607 ], [ -121.320360233175322, 46.755069675400705 ], [ -121.319982864095934, 46.755140999249612 ], [ -121.319776881073793, 46.754618334352216 ], [ -121.319399513950202, 46.754689656496382 ], [ -121.319193536973501, 46.754166991461112 ], [ -121.318816171805764, 46.754238311900401 ], [ -121.318610200874375, 46.753715646727372 ], [ -121.31823283766245, 46.753786965461856 ], [ -121.318026872776258, 46.75326430015096 ], [ -121.318781592834853, 46.753121663026064 ], [ -121.318678608844877, 46.75286033125797 ], [ -121.319055966260592, 46.752789011504333 ], [ -121.318952981701671, 46.752527680213973 ], [ -121.319330336912699, 46.752456359779963 ], [ -121.319227351784846, 46.752195028967364 ], [ -121.319604704791246, 46.752123707853087 ], [ -121.319501719094475, 46.751862377518052 ], [ -121.319879069896274, 46.751791055723508 ], [ -121.319776083630586, 46.751529725866149 ], [ -121.320153432227769, 46.751458403391268 ], [ -121.31994745937655, 46.750935744768171 ], [ -121.320324804382423, 46.750864421954518 ], [ -121.320221817796892, 46.750603093188658 ], [ -121.320599160598235, 46.750531769694653 ], [ -121.320496173443857, 46.750270441406478 ], [ -121.32087351404067, 46.75019911723215 ], [ -121.320770526317474, 46.749937789421601 ], [ -121.321525202284249, 46.749795138690743 ], [ -121.321422212605583, 46.749533811699258 ], [ -121.321799547975573, 46.749462485142708 ], [ -121.321696557728174, 46.74920115862875 ], [ -121.322073890893662, 46.749129831391954 ], [ -121.32186791007922, 46.748607179455306 ], [ -121.322245239653711, 46.748535851879694 ], [ -121.322142249086667, 46.748274526456903 ], [ -121.322519576456727, 46.748203198201068 ], [ -121.322416585321008, 46.747941873255826 ], [ -121.322793910486666, 46.747870544319788 ], [ -121.322484937826886, 46.747086571324786 ], [ -121.322862258015178, 46.747015242391406 ], [ -121.322759267377734, 46.746753918673257 ], [ -121.323136585361723, 46.746682589059589 ], [ -121.323033594155618, 46.746421265818896 ], [ -121.324165539041104, 46.746207271872287 ], [ -121.324062544493529, 46.745945949791953 ], [ -121.325194477859114, 46.745731947674948 ], [ -121.325091479970112, 46.745470626754894 ], [ -121.325468788069884, 46.745399291014053 ], [ -121.32557178734524, 46.745660611592669 ], [ -121.32708101711097, 46.74537525704735 ], [ -121.326978012290112, 46.745113937834589 ], [ -121.327732619492849, 46.744971255115217 ], [ -121.327629612717217, 46.744709936721279 ], [ -121.332534461762876, 46.743782403880466 ], [ -121.332431437783939, 46.743521090061783 ], [ -121.33356330223468, 46.74330702052881 ], [ -121.333460274915268, 46.743045707870458 ], [ -121.334969410518937, 46.74276026889121 ], [ -121.334866378473095, 46.742498957734782 ], [ -121.335243658942744, 46.742427595777706 ], [ -121.335140626328851, 46.742166285098584 ], [ -121.335517904594354, 46.742094922461526 ], [ -121.335414871412468, 46.741833612259711 ], [ -121.335792147473811, 46.741762248942671 ], [ -121.335689113723944, 46.741500939218184 ], [ -121.336066387581198, 46.741429575221225 ], [ -121.335963353263367, 46.74116826597399 ], [ -121.336717895751548, 46.741025535598638 ], [ -121.336614859479766, 46.740764227170168 ], [ -121.336992128110751, 46.740692860791818 ], [ -121.336889091271047, 46.740431552840619 ], [ -121.33726635769797, 46.740360185782272 ], [ -121.337060283700879, 46.739837570970138 ], [ -121.337437546537814, 46.73976620357336 ], [ -121.33712843751988, 46.738982283397391 ], [ -121.337505695380941, 46.738910916003739 ], [ -121.337299624020801, 46.738388303914476 ], [ -121.337676878292044, 46.738316936182372 ], [ -121.337264739844656, 46.737271714997533 ], [ -121.33688749111684, 46.737343081363683 ], [ -121.336681429572906, 46.736820470902146 ], [ -121.336304182798798, 46.736891835563917 ], [ -121.335892075069864, 46.73584661490225 ], [ -121.335514833021065, 46.735917977176904 ], [ -121.335411809519485, 46.735656672009071 ], [ -121.335034568038566, 46.735728032920839 ], [ -121.334931546740719, 46.735466727547163 ], [ -121.334554305827695, 46.735538087096124 ], [ -121.334348268457262, 46.735015476072675 ], [ -121.333593789720808, 46.735158190740812 ], [ -121.333490775033994, 46.734896884749617 ], [ -121.332736295797787, 46.735039594649443 ], [ -121.332633284700421, 46.734778288111066 ], [ -121.332256045241408, 46.734849641187523 ], [ -121.332153036347663, 46.734588334443309 ], [ -121.331775797456658, 46.734659686156995 ], [ -121.331672790766532, 46.734398379206965 ], [ -121.331295552443564, 46.734469729557887 ], [ -121.331192547957016, 46.734208422402091 ], [ -121.331569784894157, 46.734137072392571 ], [ -121.331363775602711, 46.733614459170411 ], [ -121.331741008950544, 46.733543108822175 ], [ -121.33163800414566, 46.733281802755727 ], [ -121.332015235289973, 46.73321045172753 ], [ -121.331809225361951, 46.732687840683958 ], [ -121.332186452917, 46.732616489317067 ], [ -121.331774437330878, 46.731571270221444 ], [ -121.332151658525362, 46.731499919198519 ], [ -121.331739650479889, 46.730454703635893 ], [ -121.331362434828065, 46.730526053293531 ], [ -121.33105344153654, 46.729742142019873 ], [ -121.330676229223982, 46.729813489632313 ], [ -121.330470240555741, 46.729290882111123 ], [ -121.330093030196849, 46.729362228019653 ], [ -121.32978405748338, 46.728578316729632 ], [ -121.330161263685468, 46.728506971844887 ], [ -121.330058273030573, 46.728245668693624 ], [ -121.330435477029482, 46.728174323128805 ], [ -121.330332485806593, 46.727913020454217 ], [ -121.330709687602379, 46.727841674209436 ], [ -121.330606695811483, 46.727580372011424 ], [ -121.330983895404131, 46.727509025086512 ], [ -121.330880903045298, 46.727247723365167 ], [ -121.331258100434837, 46.727176375760294 ], [ -121.331155107508039, 46.726915074515524 ], [ -121.331532302694498, 46.726843726230598 ], [ -121.331429309199791, 46.726582425462468 ], [ -121.331806502183198, 46.726511076497509 ], [ -121.331703508120583, 46.726249776205918 ], [ -121.332457888863672, 46.726107075894788 ], [ -121.332354892847704, 46.725845776421011 ], [ -121.332732080607443, 46.725774425074817 ], [ -121.332629084023637, 46.725513126077544 ], [ -121.333006269580338, 46.725441774051426 ], [ -121.332903272428723, 46.725180475530678 ], [ -121.333280455782443, 46.725109122824541 ], [ -121.333177458062977, 46.724847824780369 ], [ -121.335440532703387, 46.72441968914535 ], [ -121.335337527489415, 46.724158393283943 ], [ -121.336091876391251, 46.72401567391848 ], [ -121.335988869224323, 46.723754378874837 ], [ -121.336743212085011, 46.723611656107202 ], [ -121.336640202965143, 46.723350361881295 ], [ -121.337017371783759, 46.723278999306991 ], [ -121.33660533793973, 46.722233825120121 ], [ -121.337359662042175, 46.722091099638106 ], [ -121.337462672047153, 46.722352392299527 ], [ -121.33859415622409, 46.722138295394032 ], [ -121.338697171202313, 46.722399587166798 ], [ -121.339828652175711, 46.722185480047195 ], [ -121.339931672127122, 46.722446770931249 ], [ -121.340308832201345, 46.722375399507847 ], [ -121.340411854355665, 46.722636690185723 ], [ -121.344183423972424, 46.721922916376563 ], [ -121.344080387966969, 46.721661629111857 ], [ -121.344457539045678, 46.721590246456145 ], [ -121.34435450247301, 46.721328959667879 ], [ -121.344731651348837, 46.721257576332484 ], [ -121.344628614208943, 46.720996290020594 ], [ -121.345005760881918, 46.720924906005415 ], [ -121.344902723174812, 46.72066362016988 ], [ -121.345279867644948, 46.720592235474996 ], [ -121.345176829370686, 46.720330950115851 ], [ -121.345931113087502, 46.720188178345488 ], [ -121.34582807286111, 46.719926893804029 ], [ -121.346582350536679, 46.719784118632091 ], [ -121.346479308358212, 46.719522834908346 ], [ -121.346856444584319, 46.719451446132197 ], [ -121.346650359911052, 46.718928879772307 ], [ -121.347404624370057, 46.718786100522152 ], [ -121.347301580490381, 46.718524818227323 ], [ -121.347678710108255, 46.718453427412065 ], [ -121.347781755372822, 46.718714709365514 ], [ -121.349290271205135, 46.718429134528961 ], [ -121.349393322826984, 46.718690415252006 ], [ -121.349770451125181, 46.718619018648937 ], [ -121.349976559592278, 46.719141579817205 ], [ -121.350353689842265, 46.719070181510475 ], [ -121.350250633814909, 46.718808901200212 ], [ -121.350627761862128, 46.718737502213848 ], [ -121.35042164949158, 46.718214942680952 ], [ -121.350798773951226, 46.718143543356334 ], [ -121.350695717608033, 46.717882264133621 ], [ -121.351072839864955, 46.717810864129326 ], [ -121.350969782954905, 46.717549585382912 ], [ -121.35134690300913, 46.717478184699047 ], [ -121.351243845532238, 46.717216906428874 ], [ -121.35162096338378, 46.717145505065361 ], [ -121.35151790534006, 46.716884227271507 ], [ -121.351895020988962, 46.716812825228395 ], [ -121.351791962378442, 46.716551547910676 ], [ -121.352169075824662, 46.716480145187965 ], [ -121.35206601664737, 46.716218868346502 ], [ -121.352443127890993, 46.716147464944235 ], [ -121.352340068146901, 46.715886188578928 ], [ -121.352717177187927, 46.715814784497063 ], [ -121.352614116877078, 46.715553508608025 ], [ -121.352991223715534, 46.715482103846604 ], [ -121.352888162837971, 46.715220828433644 ], [ -121.35326526747383, 46.715149422992624 ], [ -121.353162206029552, 46.714888148055863 ], [ -121.353539308462871, 46.714816741935316 ], [ -121.353436246451906, 46.714555467474696 ], [ -121.353813346682699, 46.714484060674536 ], [ -121.353401101279545, 46.713438965545301 ], [ -121.353778195154135, 46.713367559089619 ], [ -121.353469015536007, 46.712583740181564 ], [ -121.353091925815036, 46.712655145613255 ], [ -121.352885812927994, 46.712132599665601 ], [ -121.353262899879937, 46.712061194916458 ], [ -121.353159843278689, 46.711799922486037 ], [ -121.355045258848151, 46.711442885134204 ], [ -121.355148322371775, 46.711704155858079 ], [ -121.355902485643313, 46.711561333088774 ], [ -121.356005552753729, 46.711822603264693 ], [ -121.356382634547046, 46.711751190007398 ], [ -121.356485703859803, 46.712012459976663 ], [ -121.356862786219651, 46.711941045357165 ], [ -121.356965857734806, 46.712202315119725 ], [ -121.357342940661113, 46.712130899138081 ], [ -121.357446014378695, 46.712392168693945 ], [ -121.357823097871474, 46.712320751350106 ], [ -121.357926173791441, 46.712582020699287 ], [ -121.358303257850665, 46.712510601993237 ], [ -121.358509414913527, 46.713033140412975 ], [ -121.358886500923632, 46.712961720003221 ], [ -121.359092664027514, 46.713484258279003 ], [ -121.359469751988442, 46.713412836165659 ], [ -121.359572836151912, 46.713674105164216 ], [ -121.359949924679256, 46.713602681688634 ], [ -121.360053011045267, 46.713863950480452 ], [ -121.360430100138984, 46.713792525642575 ], [ -121.360533188707535, 46.714053794227745 ], [ -121.360910278367584, 46.713982368027615 ], [ -121.361013369138703, 46.71424363640601 ], [ -121.361390459365097, 46.714172208843571 ], [ -121.3614935523388, 46.714433477015298 ], [ -121.361870643131482, 46.714362048090578 ], [ -121.361973738307825, 46.714623316055579 ], [ -121.362350829666809, 46.7145518857686 ], [ -121.362453927045749, 46.714813153526798 ], [ -121.362831018970994, 46.714741721877481 ], [ -121.362934118552587, 46.71500298942901 ], [ -121.363311211044092, 46.714931556417369 ], [ -121.363414312828368, 46.715192823762166 ], [ -121.36379140588609, 46.715121389388202 ], [ -121.36389450987302, 46.715382656526238 ], [ -121.364648696302723, 46.715239784032818 ], [ -121.364751803876786, 46.715501050622628 ], [ -121.365128897248681, 46.715429612503208 ], [ -121.365232007025469, 46.715690878886178 ], [ -121.365609100963525, 46.715619439404364 ], [ -121.365712212943052, 46.715880705580581 ], [ -121.36608930744724, 46.715809264736436 ], [ -121.366192421629506, 46.716070530705885 ], [ -121.3669466109518, 46.715927645272046 ], [ -121.367049728721298, 46.716188910693106 ], [ -121.367426823539347, 46.716117466103384 ], [ -121.367529943511627, 46.716378731317725 ], [ -121.367907038895765, 46.716307285365623 ], [ -121.368010161070842, 46.716568550373125 ], [ -121.368387257021027, 46.716497103058664 ], [ -121.368490381398928, 46.716758367859377 ], [ -121.368867477915146, 46.716686919182493 ], [ -121.369486249676299, 46.718254508767181 ], [ -121.369863353680785, 46.718183057019935 ], [ -121.370069620251186, 46.718705587276482 ], [ -121.370446726206112, 46.718634133825226 ], [ -121.370549862103559, 46.718895398814126 ], [ -121.370926968624474, 46.718823944000363 ], [ -121.371133245643946, 46.719346473699233 ], [ -121.371510354115273, 46.719275017181374 ], [ -121.3721292131263, 46.720842607463901 ], [ -121.372506329086164, 46.720771147875276 ], [ -121.372609476504309, 46.721032413052583 ], [ -121.372986593030078, 46.720960952101436 ], [ -121.373399196427386, 46.72200601279269 ], [ -121.373776317672707, 46.721934549453856 ], [ -121.37449841482983, 46.723763408464684 ], [ -121.374875544948608, 46.723691941712957 ], [ -121.375185031593901, 46.724475739430389 ], [ -121.37631642949907, 46.724261329973999 ], [ -121.376935449821318, 46.725828922900625 ], [ -121.377312589126575, 46.725757448989341 ], [ -121.377415763430974, 46.726018714607669 ], [ -121.378170042354114, 46.72587576303868 ], [ -121.378376398958324, 46.726398293313046 ], [ -121.37875353996084, 46.726326815313527 ], [ -121.379063085163239, 46.727110610711961 ], [ -121.379440229500815, 46.727039130666114 ], [ -121.379646599833336, 46.72756166092293 ], [ -121.380400891590256, 46.727418696400974 ], [ -121.380710461539792, 46.728202490747769 ], [ -121.381087610343798, 46.728131005929768 ], [ -121.381190803349753, 46.728392270640221 ], [ -121.381567952719394, 46.728320784459335 ], [ -121.381671147929154, 46.728582048962885 ], [ -121.382048297864401, 46.728510561419291 ], [ -121.381945101269949, 46.728249297257612 ], [ -121.384962260186484, 46.727677362890439 ], [ -121.385065467858155, 46.727938624316835 ], [ -121.38619689308976, 46.727724131058437 ], [ -121.386300105734449, 46.727985391594075 ], [ -121.386677247224512, 46.72791389145754 ], [ -121.386780462072991, 46.728175151786132 ], [ -121.389420439256867, 46.727674619852003 ], [ -121.389317214716456, 46.727413361917073 ], [ -121.390825749545002, 46.727127322577751 ], [ -121.390928979623467, 46.727388579144765 ], [ -121.391306112666797, 46.727317066415822 ], [ -121.391409344949096, 46.727578322775749 ], [ -121.391786478557606, 46.727506808683984 ], [ -121.391889713043739, 46.727768064836852 ], [ -121.39377537571805, 46.727410477355164 ], [ -121.393878617945944, 46.727671731932929 ], [ -121.398027018948028, 46.726884945878339 ], [ -121.397923761491754, 46.726623695063033 ], [ -121.398300882554281, 46.726552163275336 ], [ -121.398404141394892, 46.72681341374853 ], [ -121.399158383830056, 46.726670346426559 ], [ -121.399261646258907, 46.726931596350497 ], [ -121.399638767631473, 46.726860060816207 ], [ -121.399742032264214, 46.727121310532887 ], [ -121.400873395617438, 46.726906696779274 ], [ -121.401183206892128, 46.727690443659419 ], [ -121.401560330523608, 46.72761890267364 ], [ -121.401663603972082, 46.727880151561315 ], [ -121.402040728168259, 46.72780860921263 ], [ -121.402144003820752, 46.728069857893054 ], [ -121.401766878240238, 46.72814140058383 ], [ -121.401973429235525, 46.728663899033464 ], [ -121.402350557584683, 46.728592355658392 ], [ -121.402453835696193, 46.72885360474335 ], [ -121.405847966410519, 46.728209665353297 ], [ -121.405951257800623, 46.728470911493709 ], [ -121.406328380721035, 46.728399357226579 ], [ -121.406431674315215, 46.728660603159661 ], [ -121.407563042310372, 46.728445933207098 ], [ -121.407666340877185, 46.728707178248385 ], [ -121.40804346328683, 46.728635619213797 ], [ -121.408146764057733, 46.728896864047748 ], [ -121.408523887031777, 46.728825303650204 ], [ -121.408627190006811, 46.729086548276747 ], [ -121.409004313545225, 46.729014986516248 ], [ -121.409107618724434, 46.729276230935383 ], [ -121.409484742827203, 46.729204667811942 ], [ -121.409794667437041, 46.729988400851845 ], [ -121.410171794872696, 46.729916835680889 ], [ -121.410275106100116, 46.730178079954975 ], [ -121.410652234100084, 46.730106513420999 ], [ -121.410962176855065, 46.730890246025709 ], [ -121.411339308187891, 46.730818677444205 ], [ -121.411442625463849, 46.731079921573254 ], [ -121.411819757360959, 46.73100835162861 ], [ -121.412026397141517, 46.731530839606883 ], [ -121.412403530987177, 46.731459267956922 ], [ -121.41250685349182, 46.731720511806039 ], [ -121.412883987901736, 46.731648938793015 ], [ -121.412987312610753, 46.731910182434774 ], [ -121.413364447584883, 46.731838608058652 ], [ -121.41367443078542, 46.732622338766355 ], [ -121.414051569092365, 46.732550762342477 ], [ -121.414154899850431, 46.732812005839222 ], [ -121.414532038721561, 46.732740428052182 ], [ -121.414635371684085, 46.733001671341498 ], [ -121.415012511119414, 46.732930092191424 ], [ -121.415115846286412, 46.73319133527329 ], [ -121.415492986285869, 46.733119754760061 ], [ -121.415596323657383, 46.733380997634448 ], [ -121.416350603964332, 46.733237832860887 ], [ -121.416453944924683, 46.733499075185534 ], [ -121.416831085232147, 46.733427490925223 ], [ -121.416934428397013, 46.733688733042371 ], [ -121.417688709319819, 46.733545560774651 ], [ -121.417792056073566, 46.733806802341945 ], [ -121.418169196688879, 46.733735214334573 ], [ -121.418272545647199, 46.733996455694395 ], [ -121.418649686826512, 46.733924866323818 ], [ -121.418753037989418, 46.734186107476191 ], [ -121.419130179732733, 46.734114516742444 ], [ -121.419233533100254, 46.734375757687324 ], [ -121.41961067540754, 46.734304165590345 ], [ -121.419714030979691, 46.73456540632769 ], [ -121.420091173850935, 46.734493812867555 ], [ -121.420194531627715, 46.734755053397492 ], [ -121.420571675062902, 46.734683458574104 ], [ -121.42067503504434, 46.734944698896477 ], [ -121.421052179043471, 46.734873102709848 ], [ -121.421465632710436, 46.735918063979064 ], [ -121.421842781426363, 46.735846465401799 ], [ -121.422152884444074, 46.736630186743405 ], [ -121.422530036492574, 46.736558586117908 ], [ -121.423046898186726, 46.737864789341224 ], [ -121.423424056336515, 46.737793185982412 ], [ -121.423630809526543, 46.738315667531793 ], [ -121.424007969624526, 46.738244062467132 ], [ -121.424111348834771, 46.738505303101824 ], [ -121.424865669337834, 46.738362089224964 ], [ -121.424969052137413, 46.738623329309583 ], [ -121.425723372126868, 46.738480110664526 ], [ -121.425826758515797, 46.73874135019895 ], [ -121.4265810779915, 46.738598126785618 ], [ -121.426684467969793, 46.73885936576999 ], [ -121.427438786931575, 46.738716137588305 ], [ -121.427542180499231, 46.738977376022554 ], [ -121.427919340133471, 46.738905760057939 ], [ -121.428022735906183, 46.739166998284603 ], [ -121.428777055481248, 46.73902376260785 ], [ -121.428880454843309, 46.739285000284347 ], [ -121.42925761478412, 46.739213380572217 ], [ -121.429464418739187, 46.739735855644938 ], [ -121.429841580627908, 46.739664234226787 ], [ -121.430979076295401, 46.742537853014305 ], [ -121.430601899178342, 46.742609478201771 ], [ -121.430705311415991, 46.742870717426563 ], [ -121.430328132093578, 46.742942341935901 ], [ -121.43053495626252, 46.743464821476287 ], [ -121.430157773350302, 46.743536445650172 ], [ -121.43026118528158, 46.743797685965781 ], [ -121.429884000163966, 46.743869309461502 ], [ -121.430090823720178, 46.74439179118361 ], [ -121.429713635012646, 46.744463414343919 ], [ -121.429817046637538, 46.74472465575041 ], [ -121.429439855724553, 46.744796278232563 ], [ -121.429543266785743, 46.745057520117001 ], [ -121.429166073667304, 46.745129141920991 ], [ -121.429269484164834, 46.74539038428334 ], [ -121.428892288840927, 46.745462005409117 ], [ -121.428995698774727, 46.745723248249405 ], [ -121.428618501245325, 46.745794868697018 ], [ -121.428721910615408, 46.746056112015218 ], [ -121.428344710880481, 46.746127731784696 ], [ -121.428448119686848, 46.746388975580857 ], [ -121.428070917746382, 46.746460594672151 ], [ -121.428174325988977, 46.74672183894625 ], [ -121.427797121842943, 46.746793457359381 ], [ -121.427900529521764, 46.747054702111456 ], [ -121.427146115997701, 46.747197936560397 ], [ -121.427249521728001, 46.747459182133206 ], [ -121.426872312349943, 46.74753079816896 ], [ -121.426975717516427, 46.747792044219786 ], [ -121.426598505932731, 46.747863659577419 ], [ -121.426908722203251, 46.748647399569982 ], [ -121.426531505644405, 46.748719014934764 ], [ -121.426738317826377, 46.749241509625286 ], [ -121.426361097677059, 46.749313124654527 ], [ -121.426464503614596, 46.749574372545602 ], [ -121.426087281259555, 46.749645986896638 ], [ -121.426190686633191, 46.749907235265795 ], [ -121.425813462072398, 46.749978848938611 ], [ -121.425916866882105, 46.750240097785863 ], [ -121.425539640115559, 46.750311710780487 ], [ -121.425643044361308, 46.750572960105842 ], [ -121.425265815388997, 46.750644572422189 ], [ -121.425369219070788, 46.750905822225704 ], [ -121.424991987892668, 46.750977433863838 ], [ -121.425095391010473, 46.751238684145534 ], [ -121.424340923421681, 46.751381905044234 ], [ -121.424444324590567, 46.751643156146791 ], [ -121.424067088179868, 46.751714765407378 ], [ -121.424273890210472, 46.752237268704427 ], [ -121.423896650208945, 46.75230887762946 ], [ -121.424000051070649, 46.752570129823937 ], [ -121.423622808863229, 46.752641738070707 ], [ -121.423726209160861, 46.752902990743401 ], [ -121.424103452753258, 46.752831382153886 ], [ -121.424206855256799, 46.753092634619357 ], [ -121.424584099413266, 46.753021024666118 ], [ -121.424790909653183, 46.753543529317959 ], [ -121.425168155758683, 46.753471917658132 ], [ -121.425478381430906, 46.75425567462387 ], [ -121.425101131170322, 46.754327287312087 ], [ -121.425204539984705, 46.754588540247902 ], [ -121.424827287518085, 46.754660152257777 ], [ -121.424930695768381, 46.754921405671858 ], [ -121.424553441095682, 46.754993017003557 ], [ -121.424656848781922, 46.75525427089601 ], [ -121.424279591903158, 46.755325881549361 ], [ -121.425106871868977, 46.757415920312305 ], [ -121.425484139828768, 46.757344306916394 ], [ -121.425587554904411, 46.757605562029163 ], [ -121.426342091131048, 46.757462331488455 ], [ -121.4264455097981, 46.757723586051107 ], [ -121.426822778064903, 46.757651968906266 ], [ -121.426926198938233, 46.757913223261752 ], [ -121.427303467769065, 46.757841604752933 ], [ -121.427406890848687, 46.758102858901225 ], [ -121.427784160243519, 46.758031239028412 ], [ -121.428197866314349, 46.759076255606288 ], [ -121.428575140428677, 46.759004633340908 ], [ -121.428678570384534, 46.759265887481611 ], [ -121.429055845062834, 46.759194263852152 ], [ -121.429159277225125, 46.759455517785639 ], [ -121.429536552467368, 46.759383892792208 ], [ -121.429639986836065, 46.759645146518423 ], [ -121.430017262642238, 46.759573520160977 ], [ -121.430120699217383, 46.759834773679941 ], [ -121.431252525863698, 46.759619887452203 ], [ -121.431355967415669, 46.759881140078058 ], [ -121.432865063653011, 46.759594609440661 ], [ -121.432968511566884, 46.759855860830378 ], [ -121.43447760020301, 46.759569312483848 ], [ -121.434581054478755, 46.759830562637283 ], [ -121.438730995696474, 46.759042466673968 ], [ -121.439351830016264, 46.760609947804191 ], [ -121.438974558429976, 46.760681600055207 ], [ -121.439078032306981, 46.760942847727961 ], [ -121.438700758514074, 46.76101449930092 ], [ -121.438804231827532, 46.761275747452345 ], [ -121.438426955827964, 46.76134739834734 ], [ -121.441014021068796, 46.767878654817274 ], [ -121.440636709617067, 46.767950313268962 ], [ -121.44074020152371, 46.768211565636086 ], [ -121.43885362501149, 46.768569844292735 ], [ -121.439164084881398, 46.769353607356962 ], [ -121.439541405983633, 46.769281952638536 ], [ -121.439955369523588, 46.770326970587604 ], [ -121.440332695345759, 46.770255313475161 ], [ -121.440436189670748, 46.770516567959092 ], [ -121.44119084162044, 46.770373249984232 ], [ -121.441294339538189, 46.770634503917599 ], [ -121.441671665665666, 46.770562843055188 ], [ -121.44177516579073, 46.770824096781283 ], [ -121.442152492481782, 46.770752434554439 ], [ -121.44225599481419, 46.771013688073225 ], [ -121.442633322068772, 46.770942024481904 ], [ -121.443461381401434, 46.773032054780543 ], [ -121.443084043063038, 46.773103721117906 ], [ -121.443394574718894, 46.773887485753363 ], [ -121.443771917213851, 46.773815818386154 ], [ -121.443875430795401, 46.774077073193439 ], [ -121.44425277385389, 46.774005404461697 ], [ -121.444149258886839, 46.773744149997754 ], [ -121.446413291661543, 46.773314118221435 ], [ -121.446309769203552, 46.773052865953332 ], [ -121.44781910240323, 46.772766159051493 ], [ -121.448026159224909, 46.773288660977094 ], [ -121.448403493240392, 46.773216981011963 ], [ -121.448610556121537, 46.773739482794674 ], [ -121.448987892085754, 46.773667801121675 ], [ -121.449091426145017, 46.773929051873672 ], [ -121.449846098377819, 46.773785684777373 ], [ -121.450156713801434, 46.774569435789012 ], [ -121.450534052840879, 46.774497749678922 ], [ -121.450844679820975, 46.775281500884304 ], [ -121.451222022194543, 46.775209812722849 ], [ -121.451532660731544, 46.775993564122061 ], [ -121.451910006439249, 46.775921873909141 ], [ -121.452220656533513, 46.776705625502323 ], [ -121.452598005575382, 46.77663393323796 ], [ -121.452908667227291, 46.777417685025185 ], [ -121.453286019603354, 46.777345990709208 ], [ -121.454010935273942, 46.779174747237683 ], [ -121.454388296526474, 46.779103049496079 ], [ -121.454802557688765, 46.780148054846876 ], [ -121.455179923661191, 46.780076354709983 ], [ -121.455387061948556, 46.780598857515102 ] ] ] } }
]
}
