{
"type": "FeatureCollection",
"name": "KachessBasin",
"bbox": [ -121.344100427987, 47.2621561467861, -121.173703597358, 47.4595820198499 ],                                              
"features": [
{ "type": "Feature", "id": "globalwatershedpoint", "properties": { }, "geometry": { "type": "Point", "coordinates": [ -121.207574418271278, 47.264198016252664 ] } },
{ "type": "Feature", "id": "globalwatershed", "properties": { "id": "KACHESS", "Area": 40473, "acres": 40473 }, "geometry": { "type": "Polygon", "coordinates": [ [ [ -121.341518234675988, 47.379882518374103 ], [ -121.341137275361461, 47.379954046619041 ], [ -121.341345403646514, 47.380477750913215 ], [ -121.340964440671229, 47.380549278827715 ], [ -121.341068504652029, 47.380811131560421 ], [ -121.340687539429183, 47.380882658793652 ], [ -121.340999732137874, 47.381668218983314 ], [ -121.340618761840872, 47.381739746236967 ], [ -121.340722826332524, 47.382001600297485 ], [ -121.340341853787876, 47.382073126869862 ], [ -121.340445917700563, 47.382334981437779 ], [ -121.34006494290827, 47.38240650732881 ], [ -121.340169006241993, 47.382668362404168 ], [ -121.339788029202012, 47.382739887613944 ], [ -121.339892091956742, 47.383001743196694 ], [ -121.339511112669044, 47.383073267725109 ], [ -121.339615174844795, 47.383335123815407 ], [ -121.338472227735494, 47.383549692259912 ], [ -121.338576286505415, 47.383811549559482 ], [ -121.33514738740368, 47.384455202308914 ], [ -121.335251434286761, 47.384717062923002 ], [ -121.334489444704516, 47.384860086213976 ], [ -121.334593489594823, 47.385121947686457 ], [ -121.334212492138775, 47.38519345813436 ], [ -121.334316536449762, 47.385455320114417 ], [ -121.333935536745926, 47.385526829880881 ], [ -121.334039580477594, 47.385788692368465 ], [ -121.333658578525942, 47.385860201453468 ], [ -121.334282849953993, 47.387431381775386 ], [ -121.333901838686359, 47.387502891933295 ], [ -121.33556668671828, 47.391692739335092 ], [ -121.335185651996539, 47.39176425407549 ], [ -121.335705953744153, 47.393073591378915 ], [ -121.335324911118732, 47.393145106841871 ], [ -121.335428972557821, 47.39340697512435 ], [ -121.335047927684059, 47.393478489905881 ], [ -121.335151988543743, 47.393740358696242 ], [ -121.334008844673804, 47.393954897899057 ], [ -121.334216960413073, 47.39447863805681 ], [ -121.33459801203206, 47.394407125319674 ], [ -121.335014259180369, 47.395454606115145 ], [ -121.335395315620687, 47.3953830909415 ], [ -121.335707513986392, 47.3961687021337 ], [ -121.336088573834132, 47.396097184874527 ], [ -121.33640078395301, 47.396882796426986 ], [ -121.336019719863259, 47.396954314739368 ], [ -121.336540079683473, 47.398263672223521 ], [ -121.336159007688835, 47.39833519125871 ], [ -121.336471229354402, 47.399120808687726 ], [ -121.336090152282821, 47.399192327743684 ], [ -121.336402377217965, 47.399977947640167 ], [ -121.336021295069301, 47.400049466716908 ], [ -121.336749839233221, 47.401882587767737 ], [ -121.336368746350459, 47.401954108269734 ], [ -121.336472826012852, 47.402215983685529 ], [ -121.336853920309835, 47.402144462832396 ], [ -121.337166168548279, 47.402930088969867 ], [ -121.337547266253267, 47.402858566030659 ], [ -121.337859526247598, 47.403644192529939 ], [ -121.338240627360591, 47.403572667504655 ], [ -121.33834471710928, 47.403834542967779 ], [ -121.339488019682008, 47.403619960642807 ], [ -121.339592114508363, 47.40388183520956 ], [ -121.33997321511049, 47.403810305351548 ], [ -121.340077312186011, 47.404072179724437 ], [ -121.340458413367443, 47.404000648482572 ], [ -121.340562512692145, 47.404262522661476 ], [ -121.340943614452939, 47.404190990035879 ], [ -121.341047716026821, 47.404452864020847 ], [ -121.34142881836695, 47.40438133001139 ], [ -121.341532922190012, 47.404643203802372 ], [ -121.34191402510946, 47.404571668409098 ], [ -121.342642785150503, 47.406404786891834 ], [ -121.342261672331034, 47.406476324743878 ], [ -121.342678119353451, 47.407523825885974 ], [ -121.34229700004154, 47.407595364110612 ], [ -121.342609339833359, 47.408380992673479 ], [ -121.342990463388446, 47.408309453394914 ], [ -121.343511053482175, 47.409618835724416 ], [ -121.343892183274249, 47.409547293656637 ], [ -121.344100427986589, 47.410071046987724 ], [ -121.343719295365631, 47.410142589758244 ], [ -121.343823417560102, 47.410404467011318 ], [ -121.341536595809131, 47.410833704056323 ], [ -121.341432482101652, 47.410571824695154 ], [ -121.341051343634703, 47.410643360236946 ], [ -121.340947232176873, 47.410381480681991 ], [ -121.340566094289358, 47.410453014839781 ], [ -121.34046198508112, 47.410191135090976 ], [ -121.339699709629954, 47.410334199605821 ], [ -121.339595604085872, 47.410072319311851 ], [ -121.338833328123584, 47.410215378993293 ], [ -121.338729226243586, 47.409953498154223 ], [ -121.338348088424482, 47.410025026094701 ], [ -121.338452188889903, 47.410286907284991 ], [ -121.33807104882122, 47.410358434543916 ], [ -121.33879976555798, 47.412191609745491 ], [ -121.33841861475203, 47.412263138430802 ], [ -121.33852271906855, 47.412525021583939 ], [ -121.338141566012865, 47.412596549587846 ], [ -121.338245669749796, 47.412858433249902 ], [ -121.337864514444377, 47.412929960572356 ], [ -121.338385038581762, 47.414239383002979 ], [ -121.338003875367704, 47.41431091104937 ], [ -121.338107981285731, 47.414572796359636 ], [ -121.337726815821796, 47.41464432372458 ], [ -121.33783092116019, 47.414906209543858 ], [ -121.337449753446379, 47.414977736227364 ], [ -121.337657963798918, 47.415501509041626 ], [ -121.337276792420397, 47.415573035394999 ], [ -121.337485003283803, 47.416096809542694 ], [ -121.337103828240515, 47.416168335565992 ], [ -121.337207933510058, 47.416430223227671 ], [ -121.33606439912495, 47.416644796154735 ], [ -121.336168500985039, 47.416906685028209 ], [ -121.335787319771541, 47.416978207622975 ], [ -121.335891421051826, 47.417240097005561 ], [ -121.335510237588338, 47.417311618918809 ], [ -121.335614338288806, 47.41757350881047 ], [ -121.335233152575299, 47.417645030042173 ], [ -121.335441353651731, 47.418168811001642 ], [ -121.335060164273173, 47.418240331903178 ], [ -121.335268365860145, 47.418764114196442 ], [ -121.334887172816522, 47.418835634767873 ], [ -121.335095374914076, 47.419359418395075 ], [ -121.334714178205303, 47.419430938636374 ], [ -121.335026483370072, 47.420216616314988 ], [ -121.334645281581047, 47.420288136577597 ], [ -121.335061694499473, 47.421335710431308 ], [ -121.33468048621495, 47.421407231066517 ], [ -121.334992800427912, 47.422192914168853 ], [ -121.33461158706281, 47.422264434825415 ], [ -121.334819797883853, 47.422788225052678 ], [ -121.334438580853231, 47.422859745379121 ], [ -121.3345426861014, 47.423121641081131 ], [ -121.334161466820362, 47.423193160726001 ], [ -121.334369676992011, 47.423716953306673 ], [ -121.333988454045326, 47.42378847262151 ], [ -121.334196664727443, 47.424312266536937 ], [ -121.33343421066742, 47.424455303473401 ], [ -121.333538314430839, 47.424717201370981 ], [ -121.333157084732704, 47.424788718641175 ], [ -121.333365291934655, 47.425312515613243 ], [ -121.332602824371492, 47.42545554846037 ], [ -121.332706926394721, 47.425717447886399 ], [ -121.332325689944952, 47.425788963111863 ], [ -121.33253389366638, 47.426312763140913 ], [ -121.332152653550708, 47.426384278036281 ], [ -121.332360857782376, 47.426908079400455 ], [ -121.331979614000659, 47.426979593965712 ], [ -121.33218781874254, 47.427503396665195 ], [ -121.331806571294763, 47.427574910900319 ], [ -121.332327090689574, 47.428884422173532 ], [ -121.33194583532925, 47.428955937132969 ], [ -121.332049940298589, 47.429217840213575 ], [ -121.331668682687479, 47.42928935449136 ], [ -121.331876892301096, 47.429813161830062 ], [ -121.331495631023643, 47.429884675777735 ], [ -121.331703841147458, 47.430408484452229 ], [ -121.331322576203604, 47.430479998069806 ], [ -121.331530786837575, 47.431003808080135 ], [ -121.331149518227235, 47.431075321367672 ], [ -121.331253623381627, 47.431337226961659 ], [ -121.330872352520359, 47.431408739567573 ], [ -121.331080562503956, 47.431932551933393 ], [ -121.330699287976117, 47.432004064209124 ], [ -121.330907498469799, 47.432527877911092 ], [ -121.330526220275303, 47.432599389856797 ], [ -121.330838538033987, 47.43338511265145 ], [ -121.330457254757093, 47.433456624618557 ], [ -121.330665467941643, 47.433980441309643 ], [ -121.331046754049979, 47.433908928639433 ], [ -121.331254973407539, 47.434432745260843 ], [ -121.330873684467761, 47.434504258634171 ], [ -121.330977793983934, 47.434766167533922 ], [ -121.331359084339439, 47.434694653809082 ], [ -121.331671422147778, 47.435480380403888 ], [ -121.331290127544946, 47.435551895183401 ], [ -121.331602468624993, 47.436337624258449 ], [ -121.331221168939308, 47.436409139059528 ], [ -121.331429397671712, 47.436932959938183 ], [ -121.331048094318902, 47.43700447440925 ], [ -121.331360439436068, 47.437790207970217 ], [ -121.330979131000163, 47.437861722462834 ], [ -121.331291479389179, 47.438647458504832 ], [ -121.329384903438452, 47.439005020743501 ], [ -121.329280793552954, 47.438743106812957 ], [ -121.326992883337354, 47.439172145292112 ], [ -121.326888782783229, 47.438910229410652 ], [ -121.326126142193374, 47.439053233267657 ], [ -121.326230239915432, 47.439315149852241 ], [ -121.320891642402458, 47.440316066042655 ], [ -121.32078756450575, 47.440054144536511 ], [ -121.317355535256752, 47.440697480544593 ], [ -121.31725147094113, 47.440435556033677 ], [ -121.316870131598222, 47.440507032293972 ], [ -121.31697419449759, 47.440768957156386 ], [ -121.31659285290327, 47.440840432734774 ], [ -121.316696915221499, 47.441102358107315 ], [ -121.316315571375782, 47.441173833003838 ], [ -121.316419633112872, 47.441435758886492 ], [ -121.316038287015687, 47.441507233101056 ], [ -121.316142348171624, 47.441769159493859 ], [ -121.315379650639187, 47.441912105525773 ], [ -121.315483709797604, 47.442174032780258 ], [ -121.315102358362338, 47.442245504597551 ], [ -121.315310476351925, 47.442769360285659 ], [ -121.314929121248753, 47.442840831772507 ], [ -121.315033180079894, 47.443102760206159 ], [ -121.314651822725182, 47.443174231010993 ], [ -121.314859940060074, 47.443698089057598 ], [ -121.314478579037399, 47.44376955953193 ], [ -121.314686696880074, 47.444293418916651 ], [ -121.314305332189335, 47.444364889060552 ], [ -121.314409390946949, 47.44462681934256 ], [ -121.314028024004571, 47.444698288804489 ], [ -121.31413208218089, 47.444960219596815 ], [ -121.31375071298686, 47.445031688376751 ], [ -121.314166948377945, 47.446079414540648 ], [ -121.313785572682605, 47.446150883693107 ], [ -121.313993692556238, 47.446674748431221 ], [ -121.313612313192579, 47.446746217253185 ], [ -121.313820433573909, 47.44727008332999 ], [ -121.313439050541831, 47.447341551821495 ], [ -121.31354311056873, 47.447603485449761 ], [ -121.313161725284829, 47.447674953259217 ], [ -121.313473906126958, 47.448460756152201 ], [ -121.313092515757901, 47.448532223982788 ], [ -121.313404699867206, 47.449318029360995 ], [ -121.313023304412852, 47.449389497212657 ], [ -121.313231428495286, 47.449913368962818 ], [ -121.312850029372228, 47.449984836484013 ], [ -121.313370347111999, 47.451294520399927 ], [ -121.3129889400699, 47.451365988645385 ], [ -121.313093004706943, 47.451627926257238 ], [ -121.311567362518275, 47.451913790309327 ], [ -121.311671422323343, 47.452175729486605 ], [ -121.310527177660802, 47.452390117727383 ], [ -121.310631234050575, 47.452652058118431 ], [ -121.309868397265419, 47.452794979147242 ], [ -121.309972451656648, 47.45305692040052 ], [ -121.309591030594291, 47.45312837971607 ], [ -121.309695084403828, 47.453390321480086 ], [ -121.309313661089277, 47.4534617801135 ], [ -121.309417714317163, 47.453723722388226 ], [ -121.308654862348376, 47.453866637257192 ], [ -121.308758913577549, 47.454128580394233 ], [ -121.307614625109167, 47.454342945999819 ], [ -121.307718672922576, 47.454604890350701 ], [ -121.307337240345632, 47.454676343836752 ], [ -121.30744128757722, 47.454938288698379 ], [ -121.307059852747997, 47.455009741502316 ], [ -121.307163899397779, 47.455271686874724 ], [ -121.306782462316278, 47.455343138996511 ], [ -121.306886508384224, 47.455605084879679 ], [ -121.306505069050417, 47.455676536319324 ], [ -121.306609114536499, 47.455938482713364 ], [ -121.305846230528999, 47.456081383194558 ], [ -121.305950274016084, 47.456343330450991 ], [ -121.305568829342377, 47.456414779492505 ], [ -121.305672872247527, 47.456676727259747 ], [ -121.305291425321471, 47.456748175619161 ], [ -121.305395467644686, 47.457010123897298 ], [ -121.305014018466238, 47.457081571574456 ], [ -121.305118060207491, 47.45734352036343 ], [ -121.304355156510567, 47.4574864133197 ], [ -121.304459196252651, 47.457748362971124 ], [ -121.304077741734162, 47.457819808250157 ], [ -121.30428582088949, 47.458343708734112 ], [ -121.303904362701303, 47.458415153682502 ], [ -121.304008402114533, 47.458677104515147 ], [ -121.303626941673869, 47.458748548781301 ], [ -121.303730980505065, 47.459010500124826 ], [ -121.30334951781191, 47.459081943708775 ], [ -121.300679255574238, 47.459582019849925 ], [ -121.300575228081641, 47.459320065693916 ], [ -121.300193760124387, 47.459391500655862 ], [ -121.300089734884267, 47.45912954630775 ], [ -121.299708267509232, 47.45920097988428 ], [ -121.299604244521603, 47.458939025344009 ], [ -121.299222777728843, 47.459010457535229 ], [ -121.298806699798519, 47.457962639562197 ], [ -121.298425237840064, 47.458034069313562 ], [ -121.298321221862452, 47.457772114867218 ], [ -121.297939760486301, 47.457843543233267 ], [ -121.297835746761081, 47.457581588594884 ], [ -121.297454285967248, 47.45765301557563 ], [ -121.297142254053526, 47.456867151562186 ], [ -121.297523710595399, 47.456795725635907 ], [ -121.297315690659872, 47.456271817793358 ], [ -121.297697143532218, 47.456200391536193 ], [ -121.297489124102, 47.455676485033919 ], [ -121.297870573304834, 47.455605058445833 ], [ -121.297766563424943, 47.455343105785083 ], [ -121.297385115639344, 47.455414532021706 ], [ -121.297073095260956, 47.45462867394096 ], [ -121.296691650892129, 47.454700098089518 ], [ -121.296587647186399, 47.454438145363063 ], [ -121.296206203399876, 47.454509568126397 ], [ -121.295478210756528, 47.452675901040884 ], [ -121.295096776055473, 47.452747320310721 ], [ -121.294888788505205, 47.452223416159569 ], [ -121.29450735580366, 47.452294833692925 ], [ -121.294403364697843, 47.452032881504792 ], [ -121.294021932578715, 47.452104297652959 ], [ -121.293813955705673, 47.451580393051763 ], [ -121.29343252558607, 47.451651807463506 ], [ -121.293328539818802, 47.451389855050337 ], [ -121.292565679909714, 47.451532680069953 ], [ -121.292461697811461, 47.451270727113389 ], [ -121.291317405939139, 47.451484955835738 ], [ -121.291421383785888, 47.451746909846293 ], [ -121.289132769002308, 47.452175341487184 ], [ -121.289236739180424, 47.452437297764824 ], [ -121.285803747913576, 47.453079878606758 ], [ -121.285907706170576, 47.453341838205247 ], [ -121.285526257106298, 47.453413231258729 ], [ -121.285318344261583, 47.452889311518661 ], [ -121.284936897197497, 47.452960702835817 ], [ -121.284728990525522, 47.452436783030471 ], [ -121.284347545461614, 47.452508172611353 ], [ -121.284243594794717, 47.452246212596386 ], [ -121.283862150313666, 47.452317600792135 ], [ -121.283550307571701, 47.451531720649349 ], [ -121.28316886650822, 47.451603106757652 ], [ -121.283064922013764, 47.451341146677471 ], [ -121.282683481533169, 47.451412531400699 ], [ -121.282579539290438, 47.451150571128586 ], [ -121.282198099392772, 47.451221954466824 ], [ -121.282094159401765, 47.450959994002773 ], [ -121.281331279937959, 47.451102756875443 ], [ -121.281227343615967, 47.45084079586826 ], [ -121.280845904049869, 47.450912175402692 ], [ -121.28074196997953, 47.450650214203613 ], [ -121.280360530996447, 47.450721592353112 ], [ -121.279944808727493, 47.449673747744846 ], [ -121.28032624204134, 47.449602371000012 ], [ -121.280118383078019, 47.449078450353625 ], [ -121.280499812723022, 47.449007073277265 ], [ -121.280291954262253, 47.448483153970081 ], [ -121.280673380238497, 47.448411776562182 ], [ -121.280049816374728, 47.446840024567663 ], [ -121.279668398901762, 47.446911399868895 ], [ -121.279564475928069, 47.446649441409093 ], [ -121.279183059038075, 47.446720815325477 ], [ -121.279079138315765, 47.446458856673758 ], [ -121.278316304867644, 47.446601600703026 ], [ -121.278212387813852, 47.446339641508274 ], [ -121.277830971255739, 47.446411011621201 ], [ -121.277727056453273, 47.44614905223456 ], [ -121.276582806025814, 47.446363155317457 ], [ -121.276478896309072, 47.446101195036825 ], [ -121.274953223064131, 47.446386649936983 ], [ -121.274849319850347, 47.446124688411295 ], [ -121.273323638929739, 47.446410125366704 ], [ -121.273219742218998, 47.446148162596145 ], [ -121.271694053623605, 47.446433581606712 ], [ -121.271590163415951, 47.446171617591396 ], [ -121.270445892464878, 47.446385669941236 ], [ -121.270342007343075, 47.446123705032171 ], [ -121.269960583442199, 47.446195053396821 ], [ -121.26964893733205, 47.445409158571906 ], [ -121.269267516849254, 47.44548050484994 ], [ -121.269059759779708, 47.444956575060658 ], [ -121.268678341297672, 47.44502791960295 ], [ -121.268574465430916, 47.4447659545962 ], [ -121.268193047532336, 47.444837297753708 ], [ -121.267985301134871, 47.444313367515754 ], [ -121.267603885237037, 47.444384708937704 ], [ -121.267500014706272, 47.444122743706522 ], [ -121.266737183243933, 47.444265422747151 ], [ -121.266529450352735, 47.443741491358672 ], [ -121.266148036205522, 47.44381282862647 ], [ -121.266044172427812, 47.443550862820103 ], [ -121.265281344466828, 47.443693533552555 ], [ -121.26517748435738, 47.443431567203561 ], [ -121.263651824100492, 47.443716894859143 ], [ -121.263547970493946, 47.44345492726594 ], [ -121.262785138198296, 47.443597584189042 ], [ -121.262681288260012, 47.443335616053318 ], [ -121.262299872279073, 47.443406942613336 ], [ -121.262196024591717, 47.443144974285914 ], [ -121.261814609194573, 47.443216299461248 ], [ -121.261710763758103, 47.442954330942172 ], [ -121.261329348944713, 47.443025654732878 ], [ -121.261121663407138, 47.442501717470527 ], [ -121.260358836949052, 47.442644360547227 ], [ -121.260254998265196, 47.442382391453201 ], [ -121.259873585203223, 47.442453711090032 ], [ -121.259769748770225, 47.442191741804379 ], [ -121.259388336292062, 47.442263060056533 ], [ -121.259284502109878, 47.442001090579268 ], [ -121.258903090215597, 47.442072407446865 ], [ -121.258799258284199, 47.441810437777939 ], [ -121.258417846973813, 47.441881753260972 ], [ -121.258210188445972, 47.441357813699057 ], [ -121.253633221733395, 47.442213510437234 ], [ -121.253529410728106, 47.441951536686346 ], [ -121.253147992836134, 47.442022837677058 ], [ -121.253044184081546, 47.441760863734629 ], [ -121.252281348632664, 47.441903461913036 ], [ -121.25217754354621, 47.441641487428448 ], [ -121.250651868319338, 47.441926669975956 ], [ -121.250755667735959, 47.442188645863268 ], [ -121.249229973507809, 47.442473813270979 ], [ -121.249333768087595, 47.442735790720057 ], [ -121.248570913139346, 47.442878368921754 ], [ -121.248674705717207, 47.443140347231363 ], [ -121.248293275575762, 47.443211635131924 ], [ -121.248397067569215, 47.443473613951454 ], [ -121.245345585103522, 47.44404388273928 ], [ -121.245241804450984, 47.443781901114775 ], [ -121.24447892833868, 47.443924457270882 ], [ -121.244582706155896, 47.444186439596685 ], [ -121.244201265432437, 47.444257716474397 ], [ -121.244097489032939, 47.443995733797962 ], [ -121.242571723479358, 47.444280829566502 ], [ -121.242675494208058, 47.444542813645256 ], [ -121.242294049319369, 47.444614085353045 ], [ -121.242709134893545, 47.445662024664152 ], [ -121.242327683500747, 47.445733296740308 ], [ -121.242535228450606, 47.446257268053344 ], [ -121.242153773389148, 47.446328539796625 ], [ -121.24246509280853, 47.447114499013644 ], [ -121.242083632660524, 47.44718577077478 ], [ -121.2421874060486, 47.447447757849957 ], [ -121.238754214467733, 47.448089160323192 ], [ -121.238857975927715, 47.448351150713357 ], [ -121.236569135546773, 47.448778707931929 ], [ -121.236465382594702, 47.448516715438224 ], [ -121.235702431973337, 47.448659225537007 ], [ -121.235598682690281, 47.448397232501726 ], [ -121.234835731573256, 47.448539737762971 ], [ -121.234731985959144, 47.448277744186029 ], [ -121.233587557291045, 47.448491493270232 ], [ -121.23348381676395, 47.448229498801282 ], [ -121.23310234029357, 47.448300746077187 ], [ -121.232998602017389, 47.448038751417158 ], [ -121.231854171863432, 47.44825248598864 ], [ -121.231750438674283, 47.447990490436624 ], [ -121.231368961708753, 47.448061732874976 ], [ -121.231265230770447, 47.447799737132023 ], [ -121.23088375439022, 47.447870978185755 ], [ -121.230780025702771, 47.447608982251836 ], [ -121.229635595819801, 47.447822698156578 ], [ -121.229531872219326, 47.447560701330801 ], [ -121.228768917636572, 47.447703172728936 ], [ -121.228665197705041, 47.447441175361739 ], [ -121.227902242627707, 47.4475836419223 ], [ -121.227798526365063, 47.447321644013719 ], [ -121.227417048995505, 47.447392875392325 ], [ -121.227313334983677, 47.447130877292885 ], [ -121.226931858199578, 47.447202107286884 ], [ -121.226828146438478, 47.446940108996493 ], [ -121.226446670239881, 47.4470113376059 ], [ -121.226239252051769, 47.446487340802953 ], [ -121.225476302829222, 47.446629793517602 ], [ -121.225372597820282, 47.446367794654613 ], [ -121.224991123378246, 47.446439019110279 ], [ -121.224887420619993, 47.446177020056446 ], [ -121.224505946763543, 47.446248243127613 ], [ -121.22440224625592, 47.445986243882892 ], [ -121.224020772985071, 47.446057465569382 ], [ -121.223917074728078, 47.44579546613388 ], [ -121.223535602042844, 47.445866686435885 ], [ -121.223328210862604, 47.44534268734261 ], [ -121.222946740181087, 47.445413905909746 ], [ -121.222843047257811, 47.445151906251951 ], [ -121.222461577161951, 47.445223123434616 ], [ -121.222254196648905, 47.444699123896925 ], [ -121.221872728556832, 47.444770339344679 ], [ -121.221769040967061, 47.444508339464811 ], [ -121.22138757346066, 47.444579553528079 ], [ -121.221283888121405, 47.444317553457395 ], [ -121.220902421200705, 47.444388766136171 ], [ -121.220798738111895, 47.444126765874543 ], [ -121.220417271776938, 47.444197977168891 ], [ -121.220313590938616, 47.44393597671656 ], [ -121.219932125189388, 47.444007186626429 ], [ -121.219828446601525, 47.44374518598319 ], [ -121.219446981438068, 47.443816394508652 ], [ -121.219343305100622, 47.443554393674638 ], [ -121.218580375112964, 47.443696806922425 ], [ -121.218476702444022, 47.443434805547355 ], [ -121.217332305474727, 47.443648416611985 ], [ -121.217228637892433, 47.443386414345674 ], [ -121.216847171989613, 47.44345761561523 ], [ -121.216743506657693, 47.443195613158096 ], [ -121.216362041340787, 47.443266813043273 ], [ -121.216154716009825, 47.442742807906988 ], [ -121.215773252696977, 47.442814006057596 ], [ -121.215565933531053, 47.442290000858691 ], [ -121.214803010081269, 47.442432392656421 ], [ -121.214699354582763, 47.442170389595759 ], [ -121.214317893027783, 47.442241583593209 ], [ -121.214110587363422, 47.441717577249875 ], [ -121.213729127812556, 47.441788769512719 ], [ -121.213625477646673, 47.441526766230098 ], [ -121.213244018681806, 47.44159795710857 ], [ -121.213140370766098, 47.441335953635246 ], [ -121.212758912387301, 47.441407143129361 ], [ -121.212551621888309, 47.440883135960682 ], [ -121.212170165513669, 47.440954323720362 ], [ -121.212066522930328, 47.440692320025022 ], [ -121.211685067141758, 47.440763506400309 ], [ -121.211477787307359, 47.440239498787669 ], [ -121.21109633352296, 47.440310683428585 ], [ -121.210681789510318, 47.439262668715898 ], [ -121.211063237622398, 47.439191485475526 ], [ -121.210855967771693, 47.438667479775916 ], [ -121.211237412215738, 47.438596296201567 ], [ -121.210822876825404, 47.437548288115224 ], [ -121.21044143805338, 47.437619470289114 ], [ -121.210234178185644, 47.437095466501866 ], [ -121.210615614121707, 47.437024285028187 ], [ -121.210408354745539, 47.436500282578422 ], [ -121.210026921645408, 47.436571463351989 ], [ -121.209508794852127, 47.435261458265103 ], [ -121.209127368009788, 47.435332636254387 ], [ -121.208816506169285, 47.434546634063558 ], [ -121.208435082748906, 47.434617809968621 ], [ -121.207709777490891, 47.432783807980528 ], [ -121.207328363163811, 47.432854980401558 ], [ -121.20577429610195, 47.428924997158234 ], [ -121.206155689162543, 47.42885382998638 ], [ -121.2060520899267, 47.42859183272644 ], [ -121.206433480738056, 47.42852066487044 ], [ -121.206122683766722, 47.427734675094754 ], [ -121.206504069493576, 47.427663507254444 ], [ -121.206400470748562, 47.427401511330586 ], [ -121.206781854226264, 47.427330342806194 ], [ -121.206678254895138, 47.42706834739122 ], [ -121.207059636123731, 47.426997178182752 ], [ -121.206956036206535, 47.426735183276698 ], [ -121.207337415186018, 47.426664013384176 ], [ -121.207233814682738, 47.426402018986991 ], [ -121.20761519141314, 47.426330848410394 ], [ -121.207407990066059, 47.425806860792811 ], [ -121.207789363129862, 47.425735689881989 ], [ -121.207582162273724, 47.425211703600056 ], [ -121.207963531670984, 47.425140532355066 ], [ -121.206098848111992, 47.420424690719038 ], [ -121.205717504228176, 47.420495855667284 ], [ -121.204370974264705, 47.417089997497094 ], [ -121.204752299724049, 47.417018837095561 ], [ -121.204648724897496, 47.416756849466474 ], [ -121.205030048108469, 47.416685688380802 ], [ -121.204926472695931, 47.416423701260079 ], [ -121.205307793658505, 47.41635253949034 ], [ -121.205204217659997, 47.416090552878018 ], [ -121.20558553637423, 47.416019390424182 ], [ -121.205481959789793, 47.41575740432021 ], [ -121.206244591890382, 47.415615077010671 ], [ -121.206141013302883, 47.415353091764729 ], [ -121.206903639244487, 47.415210761019495 ], [ -121.206696478894727, 47.414686792402392 ], [ -121.207459095843191, 47.414544458920936 ], [ -121.207355514081016, 47.414282475549705 ], [ -121.208118124870524, 47.414140138632625 ], [ -121.208014541105527, 47.41387815611948 ], [ -121.208395843836456, 47.413806986459996 ], [ -121.208188675966113, 47.413283022608695 ], [ -121.20856997503185, 47.41321185261495 ], [ -121.208259225209488, 47.412425909076191 ], [ -121.208640519193168, 47.412354739097808 ], [ -121.208536936164521, 47.412092758585018 ], [ -121.208918227900071, 47.412021587922631 ], [ -121.208814644285681, 47.411759607917972 ], [ -121.209195933773131, 47.41168843657158 ], [ -121.209092349573055, 47.411426457075152 ], [ -121.209473636812433, 47.411355285044813 ], [ -121.208955721195437, 47.410045391687902 ], [ -121.208574441040312, 47.41011656196995 ], [ -121.208160129174686, 47.409068648737787 ], [ -121.207778853855686, 47.40913981658759 ], [ -121.20726098980721, 47.407829926863585 ], [ -121.206879720741057, 47.407901091931613 ], [ -121.206776151841282, 47.407639114112399 ], [ -121.206394883360872, 47.407710277797236 ], [ -121.206187750887878, 47.407186321934674 ], [ -121.205806484409976, 47.407257483886703 ], [ -121.205599358094446, 47.406733527958487 ], [ -121.205218093619052, 47.406804688177722 ], [ -121.205114533124487, 47.406542710101576 ], [ -121.204733269234907, 47.406613868937612 ], [ -121.204629710988016, 47.406351890670273 ], [ -121.204248447684236, 47.406423048123152 ], [ -121.204144891685004, 47.406161069664641 ], [ -121.203763628967067, 47.406232225734364 ], [ -121.203660075215467, 47.405970247084618 ], [ -121.203278813083386, 47.406041401771148 ], [ -121.203175261579403, 47.40577942293023 ], [ -121.201650210409426, 47.406064029942009 ], [ -121.201546665403356, 47.405802049861343 ], [ -121.200021606607265, 47.406086638936877 ], [ -121.199710993575167, 47.405300695451203 ], [ -121.199329731049588, 47.405371839087557 ], [ -121.19901912974457, 47.40458589597867 ], [ -121.198637870638578, 47.404657037532935 ], [ -121.198327281060244, 47.403871094800756 ], [ -121.197946025373795, 47.40394223427306 ], [ -121.197738972641773, 47.403418272544329 ], [ -121.197357718958173, 47.403489410284173 ], [ -121.197254195254857, 47.403227429307854 ], [ -121.196872942157327, 47.403298565664585 ], [ -121.196769420701401, 47.403036584497166 ], [ -121.196388168190026, 47.403107719470974 ], [ -121.196181130603378, 47.402583756912136 ], [ -121.195799880094896, 47.402654890153535 ], [ -121.195696363964146, 47.402392908762174 ], [ -121.195315114041804, 47.402464040620536 ], [ -121.195211600158373, 47.402202059038068 ], [ -121.194830350822215, 47.402273189513458 ], [ -121.194726839186046, 47.402011207739882 ], [ -121.194345590436086, 47.402082336832287 ], [ -121.194138572488711, 47.40155837306132 ], [ -121.193757325741714, 47.401629500421343 ], [ -121.193343305479559, 47.400581573381245 ], [ -121.192962063568913, 47.400652698310317 ], [ -121.191616607893735, 47.397246948372093 ], [ -121.191235383568952, 47.39731806772685 ], [ -121.190821431104979, 47.396270148649599 ], [ -121.190440211616149, 47.396341265573867 ], [ -121.190233243198819, 47.395817306285508 ], [ -121.189852025712838, 47.395888421477771 ], [ -121.18964506344949, 47.395364462123432 ], [ -121.189263847966359, 47.395435575583747 ], [ -121.188953415047351, 47.394649636690311 ], [ -121.18933462628091, 47.394578524277577 ], [ -121.189127672319415, 47.394054566503996 ], [ -121.189508879889871, 47.393983453756057 ], [ -121.189198450924337, 47.393197519328595 ], [ -121.189579653415294, 47.393126406594682 ], [ -121.189269227671687, 47.392340474636931 ], [ -121.189650425083286, 47.392269361916938 ], [ -121.189340002561522, 47.391483432428579 ], [ -121.189721194893892, 47.391412319722555 ], [ -121.189100363764666, 47.38984046710533 ], [ -121.189481546769002, 47.389769355460636 ], [ -121.189378076403059, 47.389507380926318 ], [ -121.189759257161086, 47.389436268597244 ], [ -121.189655786208903, 47.389174294569926 ], [ -121.190036964720619, 47.389103181556521 ], [ -121.189830022473913, 47.388579234673664 ], [ -121.190211197323123, 47.38850812132506 ], [ -121.189900785929666, 47.387722203232101 ], [ -121.190281955700229, 47.387651089897361 ], [ -121.190075016088983, 47.387127145989453 ], [ -121.190456182197195, 47.387056032319478 ], [ -121.190249243073694, 47.386532089740903 ], [ -121.191011567135561, 47.386389860697129 ], [ -121.190908095986572, 47.386127890342685 ], [ -121.191289255356409, 47.386056774619838 ], [ -121.191082312716233, 47.385532835082472 ], [ -121.191844623301549, 47.385390601932862 ], [ -121.191741150394336, 47.385128633098972 ], [ -121.192122303025954, 47.385057515323247 ], [ -121.192018829532714, 47.38479554699618 ], [ -121.192399979918278, 47.384724428536138 ], [ -121.192296505839039, 47.384462460715795 ], [ -121.192677653978578, 47.384391341571551 ], [ -121.192470705478115, 47.383867407102201 ], [ -121.192851849955673, 47.383796287622729 ], [ -121.19264490194324, 47.383272354482258 ], [ -121.193026042758916, 47.383201234667553 ], [ -121.192819095234526, 47.382677302855882 ], [ -121.193200232388392, 47.382606182706027 ], [ -121.192993285352088, 47.382082252223029 ], [ -121.193374418844144, 47.382011131737912 ], [ -121.193167472295954, 47.381487202583507 ], [ -121.193548602126327, 47.381416081763263 ], [ -121.193445128681304, 47.381154117771537 ], [ -121.193826256265879, 47.38108299626699 ], [ -121.193619309034048, 47.380559069454286 ], [ -121.194000432957012, 47.380487947614633 ], [ -121.193793486213337, 47.379964022130231 ], [ -121.194174606474789, 47.37989289995533 ], [ -121.193967660219315, 47.379368975799238 ], [ -121.194729892589351, 47.379226729745788 ], [ -121.194626417875028, 47.378964768602017 ], [ -121.195769755958366, 47.378751392819716 ], [ -121.195666277826845, 47.378489432880585 ], [ -121.196428496234617, 47.378347177890952 ], [ -121.196325016101682, 47.378085218807371 ], [ -121.196706122644954, 47.378014090111805 ], [ -121.196602641926361, 47.37775213153467 ], [ -121.196983746224021, 47.377681002154901 ], [ -121.196776784445433, 47.377157086171117 ], [ -121.197920083864958, 47.376943693926947 ], [ -121.198023568586066, 47.37720565079303 ], [ -121.1984046681482, 47.377134517629628 ], [ -121.198301182011505, 47.376872561112535 ], [ -121.199825566297804, 47.376588019523282 ], [ -121.199722075328907, 47.376326064559755 ], [ -121.200484259660911, 47.376183788264356 ], [ -121.200380766691026, 47.375921834156358 ], [ -121.200761856196493, 47.375850694807923 ], [ -121.200658362641121, 47.375588741206315 ], [ -121.20103944990106, 47.37551760117384 ], [ -121.200935955760301, 47.375255648078642 ], [ -121.20131704077474, 47.375184507362157 ], [ -121.20121354604855, 47.374922554773299 ], [ -121.201594628817531, 47.374851413372717 ], [ -121.201491133505925, 47.374589461290213 ], [ -121.201872214029464, 47.374518319205549 ], [ -121.20176871813247, 47.374256367629386 ], [ -121.202149796410581, 47.374185224860724 ], [ -121.201839309453575, 47.373399372123188 ], [ -121.202601455027533, 47.373257085580704 ], [ -121.202497958204532, 47.372995135680817 ], [ -121.202879028331139, 47.372923991209063 ], [ -121.202775530922821, 47.372662041815403 ], [ -121.203537665855364, 47.372519750470701 ], [ -121.20343416644647, 47.372257801932349 ], [ -121.206101602657043, 47.371759752128078 ], [ -121.205998094171491, 47.37149780619027 ], [ -121.207522319512151, 47.371213184971744 ], [ -121.207418806195975, 47.370951240587324 ], [ -121.208180911055337, 47.370808924478155 ], [ -121.208077395738954, 47.370546980949058 ], [ -121.208458445508342, 47.370475821694072 ], [ -121.207940874302608, 47.369166108150552 ], [ -121.207559831608748, 47.369237265660274 ], [ -121.207145795245864, 47.368189496256925 ], [ -121.207526832279541, 47.368118340143283 ], [ -121.207423323848872, 47.367856398534151 ], [ -121.207042288230241, 47.367927554298731 ], [ -121.206731772163451, 47.36714172936648 ], [ -121.206350739959873, 47.367212883051138 ], [ -121.206247237679278, 47.366950941372174 ], [ -121.205866206060719, 47.367022093674862 ], [ -121.205659206819419, 47.366498210089937 ], [ -121.20527817720091, 47.366569360661785 ], [ -121.205071184109357, 47.366045477007006 ], [ -121.204690156490884, 47.366116625847923 ], [ -121.204276185926574, 47.365068859026465 ], [ -121.203895163138128, 47.365140005438732 ], [ -121.203584698173344, 47.364354180924217 ], [ -121.203203678799895, 47.364425325256782 ], [ -121.202893225548337, 47.363639501108104 ], [ -121.202512209589884, 47.363710643361031 ], [ -121.202305247734287, 47.363186760682176 ], [ -121.201924233775898, 47.363257901204435 ], [ -121.201820755507654, 47.362995959751558 ], [ -121.201439742134454, 47.363067098891982 ], [ -121.201336266110829, 47.362805157247166 ], [ -121.200955253322817, 47.362876295005833 ], [ -121.200851779543854, 47.36261435316905 ], [ -121.200470767341017, 47.36268548954596 ], [ -121.200367295806672, 47.362423547517231 ], [ -121.199986284189066, 47.362494682512427 ], [ -121.199882814899311, 47.362232740291788 ], [ -121.199501803866951, 47.362303873905219 ], [ -121.199398336821758, 47.362041931492612 ], [ -121.199017326374673, 47.362113063724337 ], [ -121.198913861574013, 47.361851121119891 ], [ -121.19853285171223, 47.361922251969844 ], [ -121.198325927429607, 47.361398366533905 ], [ -121.198706934461583, 47.361327236381634 ], [ -121.198500010667544, 47.360803352270949 ], [ -121.198881014040182, 47.360732221783337 ], [ -121.198777551972711, 47.360470280312107 ], [ -121.199158553100872, 47.360399149140441 ], [ -121.198951628624968, 47.359875267366142 ], [ -121.19933262609392, 47.359804135859186 ], [ -121.199125702106699, 47.359280255409899 ], [ -121.199506695916426, 47.359209123567624 ], [ -121.199403233752392, 47.358947183926958 ], [ -121.199784225317799, 47.358876051400635 ], [ -121.199473839558749, 47.358090234465884 ], [ -121.199854826050327, 47.358019101953012 ], [ -121.199337525969156, 47.356709411941061 ], [ -121.199718504557694, 47.35663828013918 ], [ -121.199511587502514, 47.356114405929077 ], [ -121.19989256243224, 47.356043273791968 ], [ -121.199685645865742, 47.35551940090614 ], [ -121.200066617136713, 47.355448268433697 ], [ -121.199859701058983, 47.35492439687215 ], [ -121.20024066867127, 47.354853264064417 ], [ -121.200137210462017, 47.354591328867329 ], [ -121.200518175830226, 47.354520195375528 ], [ -121.200311259071071, 47.353996326148888 ], [ -121.200692220780709, 47.353925192321725 ], [ -121.200485304510323, 47.353401324419067 ], [ -121.200866262561433, 47.353330190256649 ], [ -121.200762804255945, 47.353068256888982 ], [ -121.20152471504079, 47.352925986163307 ], [ -121.201421254735777, 47.352664053649612 ], [ -121.202183159373803, 47.352521779490445 ], [ -121.201976235594387, 47.351997916327718 ], [ -121.202357183840306, 47.351926778396489 ], [ -121.202046800148906, 47.351140985872732 ], [ -121.202427743322133, 47.351069847954932 ], [ -121.202220822179711, 47.350545987752454 ], [ -121.20260176169478, 47.350474849499363 ], [ -121.202498300953337, 47.350212919981558 ], [ -121.202291381958815, 47.349689061415539 ], [ -121.201910446686782, 47.34976019862254 ], [ -121.201703533838526, 47.349236339985062 ], [ -121.201322600565746, 47.349307475462055 ], [ -121.201012241756686, 47.348521687633387 ], [ -121.200631311897453, 47.348592821031744 ], [ -121.200010625157091, 47.34702124750644 ], [ -121.199629702954212, 47.347092377780314 ], [ -121.199422816836915, 47.346568520492731 ], [ -121.199041896633261, 47.346639649036767 ], [ -121.198731577919375, 47.345853863232499 ], [ -121.199112493880335, 47.345782735734176 ], [ -121.198905616055384, 47.345258880010391 ], [ -121.199286528358726, 47.345187752176663 ], [ -121.199079651022259, 47.344663897775384 ], [ -121.198698741547275, 47.344735024912005 ], [ -121.197974706887607, 47.342901536992059 ], [ -121.198355606463664, 47.342830412295264 ], [ -121.198148744052034, 47.342306560707556 ], [ -121.198529639970815, 47.342235435675292 ], [ -121.198426208594597, 47.341973510464307 ], [ -121.19880710227018, 47.341902384748003 ], [ -121.19870367030903, 47.341640460041866 ], [ -121.199084561741458, 47.341569333641473 ], [ -121.198981129195388, 47.341307409440034 ], [ -121.19936201838469, 47.341236282355588 ], [ -121.19925858525373, 47.340974358658983 ], [ -121.19963947219992, 47.340903230890525 ], [ -121.199536038484041, 47.34064130769859 ], [ -121.19991692318716, 47.340570179246114 ], [ -121.199813488886406, 47.340308256558927 ], [ -121.200194371346441, 47.340237127422405 ], [ -121.200090936460853, 47.339975205239902 ], [ -121.200471816677819, 47.339904075419398 ], [ -121.200368381207412, 47.339642153741579 ], [ -121.200749259181364, 47.339571023237099 ], [ -121.200645823126152, 47.339309102063893 ], [ -121.201026698857078, 47.339237970875381 ], [ -121.200923262217046, 47.338976050206902 ], [ -121.201304135704987, 47.338904918334386 ], [ -121.201200698480193, 47.338642998170513 ], [ -121.201581569725164, 47.338571865614071 ], [ -121.201478131915621, 47.338309945954805 ], [ -121.201859000917622, 47.338238812714366 ], [ -121.201755562523346, 47.33797689355972 ], [ -121.202136429282405, 47.337905759635284 ], [ -121.202032990303422, 47.337643840985294 ], [ -121.202413854819554, 47.337572706376882 ], [ -121.20220697652131, 47.337048870242079 ], [ -121.202587837380776, 47.336977735298234 ], [ -121.202484398061529, 47.336715817813364 ], [ -121.202865256678137, 47.336644682185579 ], [ -121.202761816774228, 47.336382765205322 ], [ -121.20314267314798, 47.336311628893505 ], [ -121.203039232659464, 47.336049712417761 ], [ -121.203420086790402, 47.335978575422061 ], [ -121.203316645717223, 47.335716659450803 ], [ -121.203697497605361, 47.335645521771177 ], [ -121.203594055947619, 47.335383606304468 ], [ -121.203974905592958, 47.335312467940916 ], [ -121.203871463350623, 47.335050552978608 ], [ -121.204252310753205, 47.334979413931137 ], [ -121.204148867926307, 47.334717499473356 ], [ -121.204529713086146, 47.334646359741917 ], [ -121.204426269674713, 47.334384445788587 ], [ -121.204807112591837, 47.334313305373264 ], [ -121.204703668595869, 47.334051391924362 ], [ -121.205084509270279, 47.333980250825114 ], [ -121.204981064689832, 47.333718337880676 ], [ -121.205361903121556, 47.333647196097537 ], [ -121.20515501362074, 47.333123371373297 ], [ -121.205535848396238, 47.33305222925479 ], [ -121.205328959384644, 47.332528405851122 ], [ -121.205709790504017, 47.332457263397181 ], [ -121.204985695184249, 47.330623888833578 ], [ -121.205366515580167, 47.330552747786456 ], [ -121.205159635837475, 47.330028928581967 ], [ -121.205540452577509, 47.329957787199433 ], [ -121.205437012536265, 47.329695878179315 ], [ -121.205817827033869, 47.329624736112855 ], [ -121.205714386408232, 47.329362827597024 ], [ -121.206095198663476, 47.329291684846673 ], [ -121.205991757453461, 47.329029776835029 ], [ -121.206372567466317, 47.328958633400887 ], [ -121.206269125671938, 47.328696725893337 ], [ -121.206649933442421, 47.32862558177532 ], [ -121.206546491063719, 47.328363674772042 ], [ -121.2069272965919, 47.32829252997012 ], [ -121.206823853628862, 47.32803062347098 ], [ -121.206443049514036, 47.328101767924437 ], [ -121.205925854200188, 47.32679223602252 ], [ -121.205545056322848, 47.32686337770167 ], [ -121.205234753321704, 47.326077659383706 ], [ -121.204853958855225, 47.326148798985521 ], [ -121.204750527592594, 47.325886892842504 ], [ -121.204369733710493, 47.325958031063678 ], [ -121.204059449135556, 47.325172312523669 ], [ -121.20367865866433, 47.325243448667536 ], [ -121.203471809251738, 47.324719636389133 ], [ -121.20309102077816, 47.324790770804043 ], [ -121.202677337551549, 47.323743146721547 ], [ -121.202296553902002, 47.323814278711069 ], [ -121.202089720087741, 47.323290466906919 ], [ -121.201708938435871, 47.323361597167626 ], [ -121.201398698169513, 47.322575879583582 ], [ -121.201017919928447, 47.322647007767195 ], [ -121.200707691359852, 47.321861290538607 ], [ -121.200326916529619, 47.321932416645225 ], [ -121.200016699658391, 47.321146699772079 ], [ -121.199635928238934, 47.321217823801753 ], [ -121.199532525685584, 47.320955918140207 ], [ -121.199151754850661, 47.321027040789446 ], [ -121.199048354539045, 47.32076513493525 ], [ -121.198667584288643, 47.320836256204117 ], [ -121.1981506022247, 47.319526727525172 ], [ -121.197769838211315, 47.319597846020756 ], [ -121.197356273126061, 47.318550224484106 ], [ -121.196975513936508, 47.318621340554856 ], [ -121.196045053676897, 47.316264198059081 ], [ -121.196425800149242, 47.316193085121519 ], [ -121.196322418405032, 47.315931181525052 ], [ -121.196703162635998, 47.315860067903522 ], [ -121.196496398806786, 47.315336261873043 ], [ -121.196877139383474, 47.315265147915575 ], [ -121.196773757298502, 47.315003245481527 ], [ -121.19715449563391, 47.314932130840056 ], [ -121.197051112964388, 47.314670228909414 ], [ -121.197431849058503, 47.314599113583981 ], [ -121.197121701781512, 47.313813409768528 ], [ -121.197502432808619, 47.31374229445526 ], [ -121.196985530183056, 47.312432792943007 ], [ -121.198127697102009, 47.312219446031861 ], [ -121.197817552751516, 47.311433750120614 ], [ -121.198198269162901, 47.311362633463624 ], [ -121.197888128029049, 47.310576939993737 ], [ -121.198268839373938, 47.31050582334889 ], [ -121.197441821493129, 47.30841065037545 ], [ -121.197061121449551, 47.308481764236049 ], [ -121.196957749354198, 47.308219867964581 ], [ -121.196577049895041, 47.308290980445122 ], [ -121.196370311014149, 47.307767187671622 ], [ -121.19598961355203, 47.307838298424187 ], [ -121.195886246766477, 47.307576401922148 ], [ -121.195505549888821, 47.307647511294704 ], [ -121.195402185344037, 47.307385614599838 ], [ -121.195021489050859, 47.307456722592413 ], [ -121.19481476527092, 47.306932928972131 ], [ -121.194434070974836, 47.307004035236744 ], [ -121.194227353332522, 47.30648024154101 ], [ -121.193846661033575, 47.306551346077782 ], [ -121.193329888481898, 47.305241862812906 ], [ -121.192949202417807, 47.305312964578071 ], [ -121.192535804931083, 47.304265379365887 ], [ -121.19215512368919, 47.304336478707427 ], [ -121.191948432738755, 47.303812686335867 ], [ -121.19156775349397, 47.303883783949587 ], [ -121.191464410673206, 47.303621887648518 ], [ -121.191083732013013, 47.303692983882499 ], [ -121.190980391432674, 47.303431087388567 ], [ -121.190599713357088, 47.303502182242688 ], [ -121.19049637501719, 47.303240285555901 ], [ -121.190115697526238, 47.303311379030198 ], [ -121.190012361426753, 47.303049482150648 ], [ -121.189251006786321, 47.303191665307665 ], [ -121.189147674339736, 47.302929767887427 ], [ -121.18800564040788, 47.303143033839618 ], [ -121.187902313026768, 47.302881135530939 ], [ -121.186379595178622, 47.303165474294879 ], [ -121.186276274275571, 47.302903574750033 ], [ -121.185514913210056, 47.30304573724451 ], [ -121.185411595959906, 47.302783837159105 ], [ -121.185030915598176, 47.302854916510533 ], [ -121.18472097305181, 47.302069216141298 ], [ -121.184340296100103, 47.302140293417423 ], [ -121.18413367469941, 47.301616493250897 ], [ -121.183752999745195, 47.301687568799537 ], [ -121.183546384480252, 47.301163768557622 ], [ -121.1831657115235, 47.301234842378811 ], [ -121.182545894066649, 47.299663443286612 ], [ -121.182926558548218, 47.299592371551782 ], [ -121.1813771240558, 47.29566390343944 ], [ -121.181757766523518, 47.295592835887575 ], [ -121.180828182481235, 47.293235774873189 ], [ -121.181208811410883, 47.293164709417916 ], [ -121.180589117473716, 47.291593344458441 ], [ -121.180208497017389, 47.291664407828264 ], [ -121.178969215434762, 47.288521690446252 ], [ -121.17934981894544, 47.288450631246711 ], [ -121.17738783987393, 47.283474714190682 ], [ -121.177768415729787, 47.283403660560836 ], [ -121.177252148011021, 47.282094219711148 ], [ -121.176871579214492, 47.282165271604043 ], [ -121.17666508073944, 47.281641495650398 ], [ -121.176284513939635, 47.281712545816873 ], [ -121.176078021595941, 47.281188769786176 ], [ -121.175697456792889, 47.281259818226246 ], [ -121.175490970580427, 47.280736042118498 ], [ -121.175110407774127, 47.280807088832198 ], [ -121.174800688892333, 47.280021424786497 ], [ -121.175181247463229, 47.279950379114759 ], [ -121.174871531787645, 47.279164717500308 ], [ -121.175252085296421, 47.279093671838844 ], [ -121.175148846979766, 47.278831785290059 ], [ -121.175529398249978, 47.278760738944243 ], [ -121.174806743301872, 47.276927539854327 ], [ -121.174426201913533, 47.276998583769164 ], [ -121.173703597357843, 47.275165389807626 ], [ -121.174084128864791, 47.275094348323584 ], [ -121.173774449363677, 47.274308697123772 ], [ -121.174154975809216, 47.274237655649763 ], [ -121.173845299513403, 47.273452006879296 ], [ -121.174225820897689, 47.273380965415356 ], [ -121.174122595707516, 47.273119083147407 ], [ -121.174503114853636, 47.273048040999079 ], [ -121.174399889078629, 47.272786159232446 ], [ -121.174780405986624, 47.272715116399809 ], [ -121.174677179626755, 47.272453235134549 ], [ -121.175057694296626, 47.272382191617488 ], [ -121.174954467351967, 47.272120310853602 ], [ -121.175334979783756, 47.272049266652203 ], [ -121.175128525551443, 47.271525506281058 ], [ -121.175509034333729, 47.271454461742529 ], [ -121.175302580585139, 47.27093070268208 ], [ -121.175683085718006, 47.270859657806419 ], [ -121.175166958755327, 47.269550264587245 ], [ -121.175547456004821, 47.269479220416009 ], [ -121.175444231680729, 47.269217342581413 ], [ -121.175824726692312, 47.269146297725833 ], [ -121.175721501783514, 47.268884420392453 ], [ -121.1761019945572, 47.268813374852449 ], [ -121.175998769063696, 47.268551498020258 ], [ -121.176379259599514, 47.268480451795945 ], [ -121.176276033521347, 47.268218575464864 ], [ -121.176656521819339, 47.268147528556312 ], [ -121.176553295156467, 47.267885652726356 ], [ -121.176933781216619, 47.267814605133466 ], [ -121.176830553969126, 47.267552729804592 ], [ -121.17721103779148, 47.267481681527435 ], [ -121.177107809959352, 47.267219806699714 ], [ -121.177488291543924, 47.267148757738219 ], [ -121.177281835536988, 47.266625009238815 ], [ -121.181086577696291, 47.265914469838606 ], [ -121.180983336821541, 47.265652599291414 ], [ -121.190494795260236, 47.263875808243405 ], [ -121.190598071408658, 47.264137670109832 ], [ -121.191358968581312, 47.263995498285674 ], [ -121.191462248378286, 47.264257359611292 ], [ -121.191842697135044, 47.264186271804938 ], [ -121.191945979169759, 47.264448132936955 ], [ -121.193087324710774, 47.264234862288333 ], [ -121.193190611804866, 47.264496722532201 ], [ -121.193571060075399, 47.264425629906093 ], [ -121.193674349407274, 47.264687489956323 ], [ -121.194054798261618, 47.264616395951599 ], [ -121.194158089831305, 47.264878255808298 ], [ -121.194918987880442, 47.264736064010386 ], [ -121.194815693489161, 47.264474204848369 ], [ -121.19595703012773, 47.264260910458951 ], [ -121.195853732331216, 47.263999052492721 ], [ -121.196614616466846, 47.263856851771514 ], [ -121.196511316675966, 47.263594994653658 ], [ -121.198033069379534, 47.263310582225628 ], [ -121.19813637481316, 47.263572437954075 ], [ -121.199277684888258, 47.263359116763013 ], [ -121.199380995380977, 47.263620971603046 ], [ -121.200902736210338, 47.263336527521666 ], [ -121.20100605317279, 47.26359838112576 ], [ -121.2013864877228, 47.263527267179974 ], [ -121.201489806923092, 47.263789120590282 ], [ -121.201870242056501, 47.263718005265915 ], [ -121.201973563494604, 47.263979858482401 ], [ -121.202353999211411, 47.263908741779396 ], [ -121.202457322887383, 47.264170594802188 ], [ -121.202837759187574, 47.264099476720517 ], [ -121.203147739410937, 47.264885035668385 ], [ -121.203528179115764, 47.264813915513201 ], [ -121.203631508922101, 47.265075768455709 ], [ -121.20667500806158, 47.264506767311026 ], [ -121.206571666970461, 47.264244917148247 ], [ -121.209615101872984, 47.263675852787507 ], [ -121.209718454248318, 47.263937700170352 ], [ -121.210098881298165, 47.263866562137508 ], [ -121.210202235911467, 47.264128409326347 ], [ -121.210582663544315, 47.264057269914829 ], [ -121.210686020395556, 47.264319116909739 ], [ -121.212588153199576, 47.263963402647349 ], [ -121.212484789296056, 47.263701557390142 ], [ -121.212865211963816, 47.263630411791759 ], [ -121.212761847477381, 47.263368567035663 ], [ -121.21390310628415, 47.263155125096503 ], [ -121.213799738394087, 47.262893281536591 ], [ -121.21418015493083, 47.262822132508845 ], [ -121.214076786457966, 47.262560289449965 ], [ -121.214457200756826, 47.26248913973869 ], [ -121.21435383170116, 47.262227297180907 ], [ -121.214734243762095, 47.262156146786083 ], [ -121.214837614228088, 47.262417988996361 ], [ -121.215218026871781, 47.262346837222871 ], [ -121.215321399575672, 47.262608679239065 ], [ -121.215701812802109, 47.262537526086902 ], [ -121.215805187743939, 47.262799367909061 ], [ -121.216185601553107, 47.262728213378317 ], [ -121.216288978732877, 47.262990055006355 ], [ -121.216669393124732, 47.262918899096867 ], [ -121.216772772542484, 47.263180740530863 ], [ -121.217533601663888, 47.263038424923494 ], [ -121.217636984729921, 47.263300265815793 ], [ -121.218017399459441, 47.263229106117898 ], [ -121.218120784763514, 47.263490946816091 ], [ -121.218881614560047, 47.263348623631799 ], [ -121.218985003512444, 47.263610463788268 ], [ -121.219365418579471, 47.263539300301858 ], [ -121.219468809769907, 47.263801140264214 ], [ -121.21984922541948, 47.263729975399073 ], [ -121.219952618847955, 47.263991815167273 ], [ -121.220333035080074, 47.263920648923438 ], [ -121.220436430746673, 47.264182488497525 ], [ -121.220816847561295, 47.264111320874974 ], [ -121.22092024546599, 47.26437316025492 ], [ -121.221300662863129, 47.264301991253653 ], [ -121.221404063005949, 47.264563830439428 ], [ -121.222164898137365, 47.26442148864831 ], [ -121.222268301928608, 47.264683327292182 ], [ -121.223029136569238, 47.264540980681417 ], [ -121.223132544008934, 47.264802818783558 ], [ -121.22351296149769, 47.26473164358385 ], [ -121.223616371175581, 47.264993481491736 ], [ -121.22399678924674, 47.264922304913263 ], [ -121.224100201162827, 47.265184142626957 ], [ -121.224480619816362, 47.265112964669811 ], [ -121.224584033970643, 47.265374802189243 ], [ -121.225344871614467, 47.265232442486145 ], [ -121.225551708048044, 47.265756116594851 ], [ -121.226312548021141, 47.265613751376527 ], [ -121.226415970300451, 47.265875587965667 ], [ -121.226796390455263, 47.265804403462155 ], [ -121.226899814972882, 47.266066239857125 ], [ -121.227280235709969, 47.265995053974713 ], [ -121.227383662465883, 47.266256890175399 ], [ -121.227764083785175, 47.266185702914242 ], [ -121.22786751277944, 47.266447538920723 ], [ -121.22862835575441, 47.266305160609654 ], [ -121.228731788397255, 47.26656699607409 ], [ -121.229112210052904, 47.266495805024149 ], [ -121.229215644934115, 47.266757640294294 ], [ -121.22997648858157, 47.266615254405743 ], [ -121.230079927111433, 47.266877089133814 ], [ -121.230460349103225, 47.266805894295132 ], [ -121.230563789871496, 47.267067728828913 ], [ -121.230944212445394, 47.266996532611387 ], [ -121.231047655452073, 47.267258366950827 ], [ -121.231428078608033, 47.267187169354408 ], [ -121.231531523853178, 47.267449003499685 ], [ -121.2319119475912, 47.267377804524308 ], [ -121.232118843386587, 47.267901472579709 ], [ -121.232499269116914, 47.267830271877621 ], [ -121.232602719667213, 47.268092105787751 ], [ -121.232983145979574, 47.268020903706748 ], [ -121.233086598768409, 47.268282737422616 ], [ -121.233467025662762, 47.268211533962742 ], [ -121.233570480690119, 47.268473367484248 ], [ -121.233950908166435, 47.268402162645351 ], [ -121.234054365432371, 47.26866399597256 ], [ -121.234434793490649, 47.26859278975482 ], [ -121.234538252995137, 47.268854622887616 ], [ -121.234918681635378, 47.268783415290926 ], [ -121.235022143378458, 47.269045248229482 ], [ -121.236543855296958, 47.268760406140416 ], [ -121.236647323509402, 47.269022237840808 ], [ -121.237788602980984, 47.268808594404298 ], [ -121.237892076252479, 47.269070425214494 ], [ -121.2382725024964, 47.268999208325681 ], [ -121.238375978006545, 47.269261038941472 ], [ -121.23875640483223, 47.269189820673645 ], [ -121.238963361158355, 47.269713481669996 ], [ -121.239343789976004, 47.269642261675195 ], [ -121.241310067162402, 47.274617065172677 ], [ -121.240929611548808, 47.274688291779782 ], [ -121.241136602674857, 47.275211959228855 ], [ -121.240756143411744, 47.275283185500932 ], [ -121.241066632084639, 47.276068688871774 ], [ -121.24144709557909, 47.275997461555505 ], [ -121.241654094992086, 47.276521130541916 ], [ -121.242034560478757, 47.276449901498346 ], [ -121.242241566027644, 47.276973570403662 ], [ -121.242622033506507, 47.276902339632628 ], [ -121.242725538934565, 47.277164173967904 ], [ -121.243106006995134, 47.277092941817692 ], [ -121.243313023158578, 47.277616610253169 ], [ -121.243693493211325, 47.277545376375549 ], [ -121.243797003946753, 47.277807210475821 ], [ -121.244177474581136, 47.277735975218953 ], [ -121.244280987555882, 47.277997809124898 ], [ -121.24466145877193, 47.277926572488717 ], [ -121.244868490028949, 47.278450240065659 ], [ -121.245248963237117, 47.278379001702028 ], [ -121.245352481519447, 47.278640835373039 ], [ -121.245732955309222, 47.278569595630024 ], [ -121.245836475830941, 47.278831429106702 ], [ -121.246216950202296, 47.278760187984432 ], [ -121.246320472963433, 47.279022021266663 ], [ -121.246700947916381, 47.278950778765058 ], [ -121.246804472916935, 47.279212611852948 ], [ -121.247565423156956, 47.279070123059874 ], [ -121.247772481286944, 47.279593788304346 ], [ -121.248152957984473, 47.279522541664662 ], [ -121.248256489703451, 47.279784374169346 ], [ -121.248636966982474, 47.279713126150327 ], [ -121.249154645065275, 47.281022289240184 ], [ -121.249535128567828, 47.280951038448805 ], [ -121.249845749597853, 47.281736537104251 ], [ -121.25022623650294, 47.28166528423683 ], [ -121.250329779915049, 47.281927117081473 ], [ -121.250710267401573, 47.28185586283459 ], [ -121.250813813053355, 47.282117695484835 ], [ -121.251194301121288, 47.282046439858547 ], [ -121.251297849012772, 47.282308272314324 ], [ -121.251678337662099, 47.282237015308631 ], [ -121.2517818877933, 47.282498847569997 ], [ -121.252162377024007, 47.282427589184735 ], [ -121.252369482595071, 47.282951253472511 ], [ -121.2527499738177, 47.282879993359501 ], [ -121.252853529257607, 47.283141825385911 ], [ -121.253234021061559, 47.283070563893389 ], [ -121.253337578741267, 47.283332395725388 ], [ -121.253718071126556, 47.283261132853333 ], [ -121.253925191794835, 47.283784796282298 ], [ -121.254305686171989, 47.283713531682444 ], [ -121.254512812978575, 47.284237195030315 ], [ -121.254893309347537, 47.284165928702514 ], [ -121.254996875405382, 47.284427760258978 ], [ -121.255377372355611, 47.284356492551623 ], [ -121.255584509780434, 47.284880155429597 ], [ -121.255965008722498, 47.284808885994359 ], [ -121.256172152285941, 47.285332548791224 ], [ -121.256552653219799, 47.285261277627967 ], [ -121.256759802921991, 47.28578494034381 ], [ -121.257140305847656, 47.285713667452569 ], [ -121.257347461688738, 47.286237330087438 ], [ -121.257727966606197, 47.286166055468129 ], [ -121.258245877777497, 47.287475213007632 ], [ -121.258626388918628, 47.287403935614883 ], [ -121.258833562014914, 47.287927599011745 ], [ -121.259214075147867, 47.287856319890835 ], [ -121.259421254383597, 47.288379983206838 ], [ -121.259801769508329, 47.288308702357732 ], [ -121.260008954883659, 47.28883236559281 ], [ -121.26038947200017, 47.288761083015515 ], [ -121.260493067342907, 47.289022914515598 ], [ -121.260873585040471, 47.288951630558543 ], [ -121.261184380278408, 47.289737124937524 ], [ -121.261564901378421, 47.289665838903666 ], [ -121.262082917088321, 47.290974997540516 ], [ -121.261702388934665, 47.291046285317073 ], [ -121.262013204084681, 47.291831783393903 ], [ -121.261632670869034, 47.29190307118494 ], [ -121.262047097041972, 47.292950405506204 ], [ -121.262427635900835, 47.292879116320847 ], [ -121.262531245929267, 47.293140949937907 ], [ -121.263672861759645, 47.292927075148462 ], [ -121.263776476850296, 47.293188907873855 ], [ -121.264537552743164, 47.293046318827344 ], [ -121.264641171485223, 47.293308151009697 ], [ -121.265021709597704, 47.29323685459093 ], [ -121.265125330580389, 47.293498686578779 ], [ -121.265505869273809, 47.293427388780138 ], [ -121.267682131251149, 47.298925888824471 ], [ -121.268062698743236, 47.298854582671908 ], [ -121.26826998370089, 47.299378252193421 ], [ -121.268650553184884, 47.299306944312008 ], [ -121.268961491080162, 47.300092448705357 ], [ -121.269342063967017, 47.30002113874631 ], [ -121.269860317450551, 47.301330314078285 ], [ -121.269479737508505, 47.301401625781402 ], [ -121.269687041891103, 47.301925297692407 ], [ -121.269306458296725, 47.301996609061796 ], [ -121.269617416863881, 47.302782119132893 ], [ -121.269236828205976, 47.302853430517303 ], [ -121.269444135246275, 47.303377105367851 ], [ -121.269063542935854, 47.303448416418561 ], [ -121.269478161334646, 47.304495769368479 ], [ -121.269097562549291, 47.304567080783194 ], [ -121.269304873907814, 47.305090758882763 ], [ -121.268924271469771, 47.305162069963764 ], [ -121.269027926983199, 47.305423909594161 ], [ -121.270169736040188, 47.3052099722102 ], [ -121.270273396617611, 47.305471810948539 ], [ -121.271415202435492, 47.305257863235219 ], [ -121.271518868076896, 47.305519701081373 ], [ -121.271899469766694, 47.305448382765221 ], [ -121.273247217016575, 47.308852284292058 ], [ -121.273627836222303, 47.308780960408342 ], [ -121.273731516312154, 47.309042799720359 ], [ -121.274112136098694, 47.308971474456229 ], [ -121.274215818430349, 47.30923331357387 ], [ -121.274596438797687, 47.309161986929304 ], [ -121.27470012337119, 47.309423825852512 ], [ -121.275080744319311, 47.309352497827476 ], [ -121.275184431134676, 47.3096143365564 ], [ -121.275565052663538, 47.309543007150936 ], [ -121.275668741720779, 47.309804845685406 ], [ -121.276049363830381, 47.30973351489942 ], [ -121.276153055129541, 47.309995353239529 ], [ -121.276533677819828, 47.309924021073151 ], [ -121.27663737136092, 47.310185859218834 ], [ -121.277017994631919, 47.310114525671949 ], [ -121.277951286583018, 47.312471072800584 ], [ -121.278331921725496, 47.31239973508071 ], [ -121.278435626396032, 47.312661574074845 ], [ -121.278054989842161, 47.312732912143765 ], [ -121.278366104604032, 47.313518431101642 ], [ -121.277985462985157, 47.313589769186308 ], [ -121.278089168155859, 47.313851609497448 ], [ -121.277708524294809, 47.313922946899744 ], [ -121.277812228884784, 47.314184787714737 ], [ -121.277431582781517, 47.31425612443465 ], [ -121.277742697301591, 47.315041648855356 ], [ -121.277362046133064, 47.315112985591114 ], [ -121.277569457143969, 47.31563667001037 ], [ -121.2783307642963, 47.315493994110952 ], [ -121.278538184276485, 47.316017677752853 ], [ -121.27891883942948, 47.315946337557541 ], [ -121.279022552077336, 47.316208179261551 ], [ -121.279403207811029, 47.31613683768559 ], [ -121.280440394103678, 47.318755259749636 ], [ -121.280059724254201, 47.318826604817318 ], [ -121.280267168660586, 47.319350291786826 ], [ -121.279886495156887, 47.319421636521405 ], [ -121.279990217194893, 47.319683480587678 ], [ -121.279609541448565, 47.319754824639872 ], [ -121.279713262905815, 47.320016669210325 ], [ -121.279332584916872, 47.320088012580115 ], [ -121.279436305793382, 47.320349857654655 ], [ -121.278674944499187, 47.320492541997844 ], [ -121.278882383098264, 47.321016234008667 ], [ -121.278501698381248, 47.321087575331269 ], [ -121.279642654562323, 47.323967896314265 ], [ -121.280023354809146, 47.323896551150028 ], [ -121.280127084496371, 47.324158399093065 ], [ -121.280507785323991, 47.324087052547803 ], [ -121.281337664036727, 47.326181838880281 ], [ -121.281718375328282, 47.326110488508938 ], [ -121.281925856141825, 47.326634185944435 ], [ -121.282306569426069, 47.326562833842743 ], [ -121.282617801116203, 47.32734838011141 ], [ -121.282998517805055, 47.327277025930009 ], [ -121.283206012578574, 47.327800723519402 ], [ -121.283586731260044, 47.327729367607624 ], [ -121.283794232182586, 47.328253065118886 ], [ -121.284174952856688, 47.328181707476574 ], [ -121.284486214711151, 47.328967253859169 ], [ -121.284866938789889, 47.328895894136991 ], [ -121.285074453673502, 47.329419591802456 ], [ -121.285455179744858, 47.32934823034968 ], [ -121.285662700777934, 47.329871927937084 ], [ -121.286043428841907, 47.329800564753789 ], [ -121.286250956024574, 47.33032426226319 ], [ -121.286631686081165, 47.33025289734924 ], [ -121.286735452331641, 47.33051474598733 ], [ -121.287116182968802, 47.330443379692191 ], [ -121.287427490944992, 47.33122892548937 ], [ -121.287808224986762, 47.331157557114089 ], [ -121.288327095303728, 47.332466801466886 ], [ -121.287946354201694, 47.332538171589597 ], [ -121.288361459774464, 47.333585571264763 ], [ -121.287980712192464, 47.333656941753731 ], [ -121.288188267143951, 47.33418064322219 ], [ -121.287807515906067, 47.334252013378439 ], [ -121.288118850333632, 47.335037567794792 ], [ -121.287738094027659, 47.33510893796786 ], [ -121.28804943170293, 47.335894494831095 ], [ -121.287668670328742, 47.335965865020974 ], [ -121.287876230112502, 47.336489571072491 ], [ -121.287495465082188, 47.336560940929651 ], [ -121.287599244809243, 47.336822794538115 ], [ -121.28836077686276, 47.336680053092827 ], [ -121.28846456024597, 47.336941906157548 ], [ -121.28922609179746, 47.336799159885842 ], [ -121.289329878836824, 47.337061012406878 ], [ -121.290091409886088, 47.336918261308767 ], [ -121.290195200581678, 47.337180113285939 ], [ -121.290575966270978, 47.337108735839607 ], [ -121.290679759210519, 47.337370587622637 ], [ -121.29220281929932, 47.337085066120665 ], [ -121.292306618719536, 47.337346916660636 ], [ -121.293068146597747, 47.337204149019605 ], [ -121.293171949674147, 47.337465999015748 ], [ -121.293933477049578, 47.337323226548257 ], [ -121.29403728378216, 47.337585076000529 ], [ -121.294418047634323, 47.337513687869439 ], [ -121.294521856610984, 47.337775537127463 ], [ -121.295283384644108, 47.337632757070608 ], [ -121.295387197276966, 47.337894605784747 ], [ -121.295767961457926, 47.337823213858911 ], [ -121.295871776334877, 47.338085062378724 ], [ -121.296252541096095, 47.338013669071536 ], [ -121.296460176170072, 47.338537365878018 ], [ -121.296840942923737, 47.338465970839557 ], [ -121.297048584149849, 47.338989667568327 ], [ -121.297429352895946, 47.338918270798743 ], [ -121.297740825211534, 47.339703816008445 ], [ -121.298121597362282, 47.339632417157901 ], [ -121.298329252557082, 47.340156114042081 ], [ -121.298710026700249, 47.340084713460257 ], [ -121.299644528973957, 47.342441353987283 ], [ -121.300025314995423, 47.342369949225713 ], [ -121.300129154154192, 47.34263179860087 ], [ -121.299748366720436, 47.342703203712297 ], [ -121.299852205299047, 47.342965053592764 ], [ -121.300232994145119, 47.342893648131586 ], [ -121.300440676623467, 47.343417347659553 ], [ -121.300821467462058, 47.343345940466918 ], [ -121.301029156093747, 47.343869639917457 ], [ -121.301409948924814, 47.343798230993286 ], [ -121.301721492350978, 47.3445837802863 ], [ -121.302102288586866, 47.344512369280807 ], [ -121.302206139472446, 47.344774219006418 ], [ -121.302586936288407, 47.344702806619154 ], [ -121.302690789418619, 47.344964656150495 ], [ -121.303071586814667, 47.344893242381545 ], [ -121.303279298396632, 47.345416941211276 ], [ -121.303660097785141, 47.345345525710712 ], [ -121.303971675637612, 47.346131074072531 ], [ -121.304352478430886, 47.346059656490468 ], [ -121.3044563407921, 47.346321505905728 ], [ -121.304837144165433, 47.346250086941843 ], [ -121.304941008771422, 47.346511936162827 ], [ -121.305321812724728, 47.346440515817157 ], [ -121.305529547258672, 47.34696421402608 ], [ -121.305910353204354, 47.34689279194869 ], [ -121.306014223132351, 47.347154640936679 ], [ -121.306395029657992, 47.34708321747749 ], [ -121.306498901830835, 47.347345066271167 ], [ -121.306879708936407, 47.347273641430135 ], [ -121.306983583354096, 47.347535490029514 ], [ -121.308126003913188, 47.347321208265498 ], [ -121.308229883400514, 47.347583055970581 ], [ -121.308610690000918, 47.3475116263022 ], [ -121.308714571733134, 47.347773473812943 ], [ -121.309095378913398, 47.347702042762727 ], [ -121.30919926289053, 47.347963890079086 ], [ -121.309580070650611, 47.347892457647028 ], [ -121.309683956872661, 47.348154304769011 ], [ -121.310064765212559, 47.348082870955139 ], [ -121.310272542979178, 47.348606564966026 ], [ -121.310653353311224, 47.348535129420249 ], [ -121.311068924485355, 47.349582517909774 ], [ -121.310688108503697, 47.349653954855654 ], [ -121.310895896261755, 47.350177650734537 ], [ -121.310515076622579, 47.350249087348644 ], [ -121.310722864886344, 47.350772784550443 ], [ -121.310342041589578, 47.350844220832769 ], [ -121.310549830359065, 47.351367919357557 ], [ -121.310930656480778, 47.351296482375091 ], [ -121.311034553527051, 47.351558331520998 ], [ -121.31141538022861, 47.351486893156583 ], [ -121.311519279520056, 47.351748742108207 ], [ -121.311900106801389, 47.3516773023618 ], [ -121.312004008338064, 47.351939151119048 ], [ -121.312384836199143, 47.351867709990692 ], [ -121.312488739981063, 47.3521295585536 ], [ -121.312869568421888, 47.352058116043196 ], [ -121.313077381309, 47.352581812936045 ], [ -121.313458211742059, 47.352510368693615 ], [ -121.314289507902998, 47.354605159695005 ], [ -121.314670348803574, 47.354533711619446 ], [ -121.31477426598407, 47.354795560845595 ], [ -121.315155107464321, 47.354724111388037 ], [ -121.315259026890288, 47.354985960419789 ], [ -121.3156398689502, 47.354914509580119 ], [ -121.315743790621667, 47.355176358417552 ], [ -121.316124633261211, 47.35510490619572 ], [ -121.316332481928114, 47.35562860363769 ], [ -121.316713326559878, 47.355557149683591 ], [ -121.318688081922602, 47.360532299825863 ], [ -121.318307210450115, 47.360603760434685 ], [ -121.319242713143197, 47.362960433305588 ], [ -121.318861828122223, 47.363031896035238 ], [ -121.319069723949141, 47.363555603534792 ], [ -121.318688835269214, 47.363627065933116 ], [ -121.318896731603317, 47.364150774757697 ], [ -121.31851583926435, 47.364222236824659 ], [ -121.318723736105611, 47.364745946974367 ], [ -121.318342840107533, 47.36481740870996 ], [ -121.318862589728155, 47.366126688568421 ], [ -121.318481685831927, 47.366198151023774 ], [ -121.318585636842911, 47.366460007814332 ], [ -121.318204730700387, 47.366531469588004 ], [ -121.318308681131654, 47.366793326885073 ], [ -121.318689588687207, 47.366721864761026 ], [ -121.318793541364798, 47.366983721863953 ], [ -121.321078977676223, 47.366554925343266 ], [ -121.321182939665192, 47.36681678049986 ], [ -121.321944747928001, 47.366673839368708 ], [ -121.322048713576308, 47.366935693980679 ], [ -121.322810521331405, 47.366792748020316 ], [ -121.322914490639093, 47.367054602087563 ], [ -121.323295394679462, 47.366983127208883 ], [ -121.323399366233559, 47.367244981081804 ], [ -121.324161174639784, 47.367102027527196 ], [ -121.324265149853233, 47.367363880855365 ], [ -121.324646054219073, 47.367292402179459 ], [ -121.324750031679002, 47.367554255313394 ], [ -121.325892744014254, 47.367339812041784 ], [ -121.325996726546521, 47.367601664280407 ], [ -121.326377630404139, 47.367530180775248 ], [ -121.326585600795198, 47.368053885019997 ], [ -121.326966506645107, 47.367982399781795 ], [ -121.327070494503943, 47.368244251787857 ], [ -121.327832306528819, 47.368101277514143 ], [ -121.327936298047121, 47.368363128975439 ], [ -121.328698109563362, 47.368220149872393 ], [ -121.329010097597745, 47.369005703089947 ], [ -121.329391006344181, 47.368934210938676 ], [ -121.329599005361374, 47.369457913163565 ], [ -121.330741735076018, 47.369243428414045 ], [ -121.330845740073997, 47.369505278708999 ], [ -121.331226649724343, 47.369433781377815 ], [ -121.331330656968987, 47.369695631478415 ], [ -121.332092476594255, 47.369552633018579 ], [ -121.332196487498521, 47.369814482574185 ], [ -121.332958306614458, 47.369671479284897 ], [ -121.333062321178346, 47.369933328295453 ], [ -121.33344323089851, 47.369861824752178 ], [ -121.33354724770912, 47.370123673568322 ], [ -121.334309067473711, 47.369980662684263 ], [ -121.334413087944, 47.370242510955272 ], [ -121.334793997988399, 47.370171003614551 ], [ -121.334898020705424, 47.370432851691156 ], [ -121.335278931328872, 47.370361342967705 ], [ -121.33538295629269, 47.370623190849848 ], [ -121.335763867495089, 47.370551680743738 ], [ -121.335971922750289, 47.371075376275201 ], [ -121.336352835944595, 47.37100386443575 ], [ -121.336456866235991, 47.371265712085155 ], [ -121.336837780009219, 47.371194198862867 ], [ -121.337045845919747, 47.371717893928924 ], [ -121.33742676168481, 47.371646378973296 ], [ -121.338259069990727, 47.373741162681164 ], [ -121.337878142922051, 47.373812680442526 ], [ -121.338918589241246, 47.376431177650574 ], [ -121.3392995304403, 47.376359656381531 ], [ -121.339507632539963, 47.376883356997631 ], [ -121.339888575730981, 47.376811833994857 ], [ -121.340200739376229, 47.377597385039408 ], [ -121.340581685972381, 47.377525859952044 ], [ -121.341518234675988, 47.379882518374103 ] ] ] } }
]
}
