{
"type": "FeatureCollection",
"name": "KeechelusBasin",
"bbox": [ -121.466212303088, 47.2850780451089, -121.303349517812, 47.4797522904551 ],                                              
"features": [
{ "type": "Feature", "id": "globalwatershedpoint", "properties": { }, "geometry": { "type": "Point", "coordinates": [ -121.338784692345271, 47.322013320754053 ] } },
{ "type": "Feature", "id": "globalwatershed", "properties": { "id": "KEECHELUS", "area": 34843, "acres": 34843 }, "geometry": { "type": "MultiPolygon", "coordinates": [ [ [ [ -121.464068921610206, 47.354559149334172 ], [ -121.463688244393907, 47.354631008972468 ], [ -121.463792758785544, 47.354892745927259 ], [ -121.463412079321969, 47.354964604886732 ], [ -121.463516593140966, 47.355226342348288 ], [ -121.463135911430086, 47.355298200628944 ], [ -121.463449453680994, 47.356083414998146 ], [ -121.463068766902794, 47.356155273304047 ], [ -121.463277796436671, 47.356678751028092 ], [ -121.462897106001051, 47.356750609007243 ], [ -121.463001620613966, 47.357012348453445 ], [ -121.462620927930928, 47.357084205753736 ], [ -121.462725441971116, 47.35734594570684 ], [ -121.462344747040646, 47.3574178023283 ], [ -121.46244926050808, 47.357679542788254 ], [ -121.462068563330192, 47.357751398730898 ], [ -121.462277589956884, 47.358274880819401 ], [ -121.461896889121363, 47.358346736435223 ], [ -121.462001402280606, 47.35860847806385 ], [ -121.461620699197596, 47.358680333000834 ], [ -121.461725211784028, 47.358942075136298 ], [ -121.461344506453486, 47.35901392939445 ], [ -121.46176255953219, 47.360060900893615 ], [ -121.461381847723459, 47.360132755529051 ], [ -121.46169539209437, 47.360917986836206 ], [ -121.461314675217523, 47.360989841496995 ], [ -121.461419190272352, 47.361251585927953 ], [ -121.461038471147816, 47.361323439909867 ], [ -121.461142985629763, 47.361585184847982 ], [ -121.461523706164584, 47.361513330513944 ], [ -121.461628222894262, 47.361775075254855 ], [ -121.46238966427218, 47.361631362789787 ], [ -121.462598705885043, 47.362154851328114 ], [ -121.462979428138382, 47.362082992844883 ], [ -121.463188475921726, 47.362606481298847 ], [ -121.463569200158176, 47.362534621080378 ], [ -121.464405436074955, 47.364628578278911 ], [ -121.46478617075654, 47.364556714212213 ], [ -121.465204314458248, 47.365603695123468 ], [ -121.465585053943755, 47.365531828617009 ], [ -121.466212303088142, 47.367102302522788 ], [ -121.465831555140127, 47.367174171142565 ], [ -121.46604064206889, 47.367697664389802 ], [ -121.46565989046222, 47.367769532683013 ], [ -121.465868977920849, 47.368293027255291 ], [ -121.465488222655495, 47.368364895221973 ], [ -121.465592766230884, 47.368626643093059 ], [ -121.465212008717259, 47.368698510380995 ], [ -121.465316551719852, 47.368960258759529 ], [ -121.464935791957984, 47.369032125368577 ], [ -121.465040334387751, 47.369293874254566 ], [ -121.464659572377613, 47.369365740184882 ], [ -121.464555031358429, 47.369103990946655 ], [ -121.464174269921145, 47.36917585549363 ], [ -121.464069731150218, 47.368914106058355 ], [ -121.462927446043963, 47.369129692456085 ], [ -121.463031980583153, 47.36939144294805 ], [ -121.462651215795134, 47.369463303370715 ], [ -121.462755749761371, 47.369725054370122 ], [ -121.462374982725066, 47.369796914113884 ], [ -121.462584050349264, 47.370320417282933 ], [ -121.46220327965402, 47.37039227670008 ], [ -121.462307813311995, 47.370654028869701 ], [ -121.461927040368408, 47.370725887607918 ], [ -121.462031573453359, 47.370987640285122 ], [ -121.461650798261431, 47.371059498344472 ], [ -121.461755330773386, 47.371321251529132 ], [ -121.461374553333044, 47.371393108909672 ], [ -121.461583618048564, 47.371916616449269 ], [ -121.461202836949099, 47.37198847350318 ], [ -121.461307369152635, 47.372250227858217 ], [ -121.457118706254917, 47.373040591269245 ], [ -121.457014189570216, 47.372778833039668 ], [ -121.456252606430624, 47.372922521368302 ], [ -121.456148093405247, 47.372660762589689 ], [ -121.454244127953629, 47.373019963604378 ], [ -121.454139622820193, 47.372758203220222 ], [ -121.453378033598824, 47.372901875703278 ], [ -121.453273532124697, 47.372640114770128 ], [ -121.452892737668734, 47.372711949112684 ], [ -121.452788238442992, 47.372450187982828 ], [ -121.451265057888378, 47.372737513632188 ], [ -121.451160565143795, 47.372475751249141 ], [ -121.450018175167955, 47.372691233601898 ], [ -121.450122663679636, 47.372952997041345 ], [ -121.44517220169115, 47.373886651230301 ], [ -121.445067731523011, 47.373624883213594 ], [ -121.444306112249208, 47.373768506146277 ], [ -121.444201645740506, 47.37350673758089 ], [ -121.443440025940063, 47.373650355684255 ], [ -121.443335563090798, 47.373388586570286 ], [ -121.44295475334593, 47.373460393722922 ], [ -121.442850292744993, 47.373198624412375 ], [ -121.442469483574044, 47.373270430181684 ], [ -121.442365025221378, 47.373008660674572 ], [ -121.441984216624405, 47.373080465060603 ], [ -121.44177530525279, 47.372556925808745 ], [ -121.441394498640946, 47.372628728459418 ], [ -121.441185593439982, 47.372105189125506 ], [ -121.440804788813267, 47.372176990040835 ], [ -121.440700338879523, 47.371915220255055 ], [ -121.440319534826855, 47.37198701978712 ], [ -121.440215087141283, 47.371725249804832 ], [ -121.438691868204529, 47.372012436212124 ], [ -121.43963187670758, 47.374368384322139 ], [ -121.440012695397954, 47.374296586099327 ], [ -121.440221598206719, 47.374820131130619 ], [ -121.439840776693899, 47.374891930057423 ], [ -121.440571953015876, 47.37672434503169 ], [ -121.440191120786935, 47.376796145391481 ], [ -121.440504490391447, 47.377581469485079 ], [ -121.440123653091291, 47.377653269869732 ], [ -121.440854868258214, 47.379485700667502 ], [ -121.441235715438097, 47.379413897818253 ], [ -121.441653576741814, 47.380461003148255 ], [ -121.441272723916171, 47.380532807405991 ], [ -121.44179506232814, 47.381841694333403 ], [ -121.441414201607699, 47.381913499320412 ], [ -121.441623140010847, 47.382437055886022 ], [ -121.441242275629975, 47.382508860545919 ], [ -121.441555685280349, 47.383294197619463 ], [ -121.441174815827409, 47.383366002304328 ], [ -121.441383756958047, 47.383889561836824 ], [ -121.441002883844519, 47.38396136619459 ], [ -121.441211825501469, 47.384484927054899 ], [ -121.440830948727296, 47.384556731085524 ], [ -121.440935419400262, 47.38481851210161 ], [ -121.440554540377036, 47.384890315452893 ], [ -121.440763481411807, 47.385413878657275 ], [ -121.440382598727822, 47.385485681681374 ], [ -121.440487069089627, 47.385747463869613 ], [ -121.434011911345507, 47.386967963439517 ], [ -121.433907464984017, 47.386706175264514 ], [ -121.433526567228114, 47.386777959720597 ], [ -121.433422123115733, 47.386516171349484 ], [ -121.431898529367345, 47.386803297449049 ], [ -121.43179409173969, 47.386541507825456 ], [ -121.429508684473149, 47.386972163913761 ], [ -121.429717543622445, 47.38749574754204 ], [ -121.429336636657425, 47.387567520650222 ], [ -121.429441066075796, 47.387829313050545 ], [ -121.428679246810404, 47.387972856876125 ], [ -121.428783674241899, 47.388234650136653 ], [ -121.428021848803937, 47.388378190539811 ], [ -121.428126274248513, 47.388639984660657 ], [ -121.426983525577072, 47.388855288584026 ], [ -121.427087947622567, 47.389117083917213 ], [ -121.42670702831245, 47.389188850180354 ], [ -121.42681144978296, 47.389450646021757 ], [ -121.426430528223662, 47.389522411605363 ], [ -121.426743793421508, 47.390307801122624 ], [ -121.426362866788679, 47.390379566730743 ], [ -121.426571711615196, 47.3909031612273 ], [ -121.42619078132094, 47.39097492650788 ], [ -121.426295203577723, 47.391236724342562 ], [ -121.425914271034131, 47.391308488943523 ], [ -121.426018692715843, 47.391570287286534 ], [ -121.4256377579229, 47.391642051207874 ], [ -121.425742179029541, 47.391903850059151 ], [ -121.425361241987247, 47.391975613300879 ], [ -121.425465662518789, 47.392237412660492 ], [ -121.425084723227101, 47.392309175222529 ], [ -121.427068845559361, 47.397283399443026 ], [ -121.427449811685619, 47.397211630190093 ], [ -121.427554248961783, 47.397473432676229 ], [ -121.42793521566314, 47.397401662039279 ], [ -121.428144095552412, 47.397925266776305 ], [ -121.428525064241271, 47.397853494403059 ], [ -121.428629506854421, 47.398115296654012 ], [ -121.42901047611835, 47.398043522896678 ], [ -121.429114920981291, 47.398305324951814 ], [ -121.43101976180202, 47.397946438926766 ], [ -121.431124214564534, 47.39820823937702 ], [ -121.431505181628751, 47.398136458724345 ], [ -121.431609636641156, 47.398398258978659 ], [ -121.431990604280315, 47.398326476941875 ], [ -121.432095061542555, 47.398588277000428 ], [ -121.432476029756629, 47.39851649357955 ], [ -121.432580489268801, 47.398778293442156 ], [ -121.432961458057761, 47.398706508637162 ], [ -121.433065919819853, 47.398968308303942 ], [ -121.432684949618491, 47.399040093461267 ], [ -121.432789410805725, 47.399301893636682 ], [ -121.432408438354386, 47.399373678114443 ], [ -121.432930749791453, 47.400682683099994 ], [ -121.432549769440286, 47.40075446830749 ], [ -121.432654232827886, 47.401016270126362 ], [ -121.432273250226643, 47.401088054654323 ], [ -121.43237771303933, 47.401349856981952 ], [ -121.431615742499091, 47.401493423646954 ], [ -121.431720203324275, 47.401755226835753 ], [ -121.430958226608666, 47.401898790077979 ], [ -121.431062685446278, 47.402160594127928 ], [ -121.430681694419562, 47.402232374553506 ], [ -121.43078615268216, 47.402494179112345 ], [ -121.430405159405282, 47.402565958858403 ], [ -121.430614075617925, 47.403089569150303 ], [ -121.42947108228627, 47.403304904310986 ], [ -121.429262174549436, 47.402781291905093 ], [ -121.42888117792242, 47.402853067523509 ], [ -121.42877672672293, 47.402591261203149 ], [ -121.428395730671056, 47.402663035437385 ], [ -121.428291281721741, 47.402401228921292 ], [ -121.427529289930817, 47.402544773589391 ], [ -121.42742484464425, 47.402282966525327 ], [ -121.426662852328818, 47.402426506361223 ], [ -121.426767294790054, 47.402688314129918 ], [ -121.426386295963496, 47.402760082852275 ], [ -121.426490737849491, 47.403021891129825 ], [ -121.426109736772801, 47.403093659172548 ], [ -121.426214178083555, 47.403355467958932 ], [ -121.42583317475669, 47.403427235322027 ], [ -121.425937615492131, 47.403689044617352 ], [ -121.425175603500662, 47.403832576952162 ], [ -121.425280042248062, 47.404094387108636 ], [ -121.424899033583415, 47.404166152080457 ], [ -121.42500347175546, 47.404427962745814 ], [ -121.424622460840581, 47.404499727037923 ], [ -121.424726898437271, 47.404761538212341 ], [ -121.424345885272189, 47.404833301824723 ], [ -121.424450322293509, 47.405095113508033 ], [ -121.423307273535158, 47.405310399210165 ], [ -121.423411707155395, 47.405572212107053 ], [ -121.423030687814929, 47.405643972296033 ], [ -121.423135120859683, 47.405905785701883 ], [ -121.4227540992689, 47.405977545211137 ], [ -121.422962965044931, 47.406501173197576 ], [ -121.422581939790945, 47.406572932379376 ], [ -121.422790806090816, 47.407096561697344 ], [ -121.422409777173542, 47.407168320551754 ], [ -121.42282751417082, 47.408215582478107 ], [ -121.422446478764201, 47.408287341709652 ], [ -121.422655349461635, 47.408810974318229 ], [ -121.422274310391515, 47.408882733222342 ], [ -121.422587618479682, 47.409668184368371 ], [ -121.422206574332961, 47.409739943297367 ], [ -121.423042088113959, 47.411834489407482 ], [ -121.422661031824902, 47.411906250123216 ], [ -121.422974359072924, 47.412691708560565 ], [ -121.422593297706797, 47.412763469301289 ], [ -121.423324414042412, 47.414596213615397 ], [ -121.42370548530107, 47.414524450407917 ], [ -121.424123290145417, 47.415571734917464 ], [ -121.424504366219452, 47.41549996926809 ], [ -121.424608820938033, 47.415761790435639 ], [ -121.42498989758765, 47.415690023401687 ], [ -121.425094354557231, 47.415951844373787 ], [ -121.425475431782388, 47.415880075955215 ], [ -121.425579891003011, 47.416141896731922 ], [ -121.425960968803679, 47.416070126928716 ], [ -121.42606543027533, 47.416331947510002 ], [ -121.426446508651523, 47.416260176322176 ], [ -121.426550972374216, 47.416521996708035 ], [ -121.426932051325892, 47.416450224135609 ], [ -121.427036517299683, 47.416712044325962 ], [ -121.427417596826828, 47.416640270368866 ], [ -121.427522065051704, 47.416902090363799 ], [ -121.427903145154289, 47.416830315022111 ], [ -121.428216559095844, 47.417615774891757 ], [ -121.427835474753351, 47.417687551290989 ], [ -121.428044418743767, 47.41821119269445 ], [ -121.427663330736792, 47.418282968766619 ], [ -121.427767802575474, 47.418544790056593 ], [ -121.427386712317258, 47.418616565449021 ], [ -121.427595655681557, 47.41914020920521 ], [ -121.427214561758731, 47.419211984270589 ], [ -121.427527978849213, 47.419997452141018 ], [ -121.427146879848308, 47.420069227231721 ], [ -121.427355825937966, 47.420592873969518 ], [ -121.423544761576011, 47.421310575154962 ], [ -121.423440302247116, 47.421048748182173 ], [ -121.418866931383505, 47.421909849115671 ], [ -121.418762489855467, 47.421648018070265 ], [ -121.417619132531584, 47.421863269019596 ], [ -121.417514696082179, 47.421601437074095 ], [ -121.412941208363975, 47.422462343732676 ], [ -121.413045627848661, 47.422724179907256 ], [ -121.410758830278382, 47.423154579603796 ], [ -121.410863242117699, 47.423416418050159 ], [ -121.410482104844164, 47.423488148071925 ], [ -121.410586516107116, 47.423749987028039 ], [ -121.410205376582198, 47.423821716369801 ], [ -121.410309787268758, 47.424083555835757 ], [ -121.409928645492485, 47.424155284497495 ], [ -121.410033055602639, 47.424417124473216 ], [ -121.409270766709753, 47.424560579404236 ], [ -121.409375174829577, 47.424822420242208 ], [ -121.408994027712936, 47.424894146511541 ], [ -121.409098435256283, 47.425155987859291 ], [ -121.408717285888201, 47.425227713448542 ], [ -121.408821692855085, 47.425489555306207 ], [ -121.408440541235549, 47.425561280215341 ], [ -121.408544947625913, 47.425823122582862 ], [ -121.408163793754866, 47.425894846811993 ], [ -121.408268199568738, 47.426156689689392 ], [ -121.407887043446195, 47.426228413238412 ], [ -121.407991448683518, 47.42649025662574 ], [ -121.404942158241809, 47.427064010668239 ], [ -121.405046553003942, 47.427325857032201 ], [ -121.403521882028102, 47.427612710683057 ], [ -121.403626271971049, 47.427874558614 ], [ -121.403245100719403, 47.427946269797758 ], [ -121.403349490085574, 47.428208118238679 ], [ -121.400300078613128, 47.428781773356398 ], [ -121.400404457502788, 47.429043624773762 ], [ -121.400023275886369, 47.429115327369296 ], [ -121.400127654199053, 47.429377179296658 ], [ -121.399365285625635, 47.429520582094717 ], [ -121.399469661947009, 47.429782434884416 ], [ -121.397944909095031, 47.430069229498841 ], [ -121.398049280596325, 47.430331083855634 ], [ -121.396524508690106, 47.430617863357668 ], [ -121.396941980437575, 47.431665287999301 ], [ -121.396560779710072, 47.431736981702571 ], [ -121.396665148325695, 47.431998838609708 ], [ -121.395902741529824, 47.432142223623003 ], [ -121.396007108153768, 47.432404081392612 ], [ -121.395244695179713, 47.432547462979933 ], [ -121.39534905981192, 47.432809321612005 ], [ -121.394205429827707, 47.433024387304926 ], [ -121.394309791053516, 47.433286247151862 ], [ -121.392403717261843, 47.433644671081339 ], [ -121.3925080722519, 47.433906532847693 ], [ -121.392126853567234, 47.433978214887794 ], [ -121.39202249999181, 47.433716352769096 ], [ -121.391260062940148, 47.433859713046559 ], [ -121.391364413686276, 47.434121575869852 ], [ -121.390220747585857, 47.434336609597516 ], [ -121.390116401083773, 47.434074745717375 ], [ -121.389353955660368, 47.434218095667539 ], [ -121.389249612824841, 47.433956231240707 ], [ -121.388487166882285, 47.434099576355436 ], [ -121.388382827713272, 47.433837711381955 ], [ -121.388001604901035, 47.433909382037903 ], [ -121.387897267983831, 47.433647516870138 ], [ -121.387516045749237, 47.433719186141083 ], [ -121.387411711083814, 47.433457320778999 ], [ -121.387030489426849, 47.433528988664975 ], [ -121.387134822677538, 47.433790854379303 ], [ -121.385228694763327, 47.434149180079295 ], [ -121.385333021777328, 47.434411047712771 ], [ -121.384951792268609, 47.434482710106721 ], [ -121.385056118704838, 47.434744578250459 ], [ -121.384674886944296, 47.434816239963816 ], [ -121.384779212802741, 47.435078108617674 ], [ -121.384397978790375, 47.435149769650558 ], [ -121.384502304070992, 47.435411638814671 ], [ -121.384121067806774, 47.435483299166961 ], [ -121.384225392509578, 47.435745168841265 ], [ -121.383844153993465, 47.435816828512991 ], [ -121.383948478118455, 47.4360786986976 ], [ -121.383567237350434, 47.436150357688739 ], [ -121.383671560897554, 47.436412228383546 ], [ -121.383290317877623, 47.436483886694141 ], [ -121.383394640846845, 47.436745757899232 ], [ -121.383013395574991, 47.436817415529241 ], [ -121.3831177179663, 47.437079287244615 ], [ -121.382355222081657, 47.437222600110559 ], [ -121.382459542480092, 47.437484472688539 ], [ -121.382078291867273, 47.437556127924495 ], [ -121.382182611687767, 47.437818001012786 ], [ -121.381801358822926, 47.437889655568078 ], [ -121.381905678065465, 47.438151529166689 ], [ -121.381524422948644, 47.438223183041444 ], [ -121.381837381453252, 47.439008805842661 ], [ -121.382218640815154, 47.43893715091118 ], [ -121.382635936200188, 47.439984648784247 ], [ -121.383017200385254, 47.439912991410772 ], [ -121.383330184958638, 47.440698615419286 ], [ -121.383711452551807, 47.44062695595607 ], [ -121.384024448904697, 47.441412580331253 ], [ -121.383643177066219, 47.441484240851445 ], [ -121.38374750944304, 47.441746116311897 ], [ -121.384128782696621, 47.441674455439404 ], [ -121.384441789095547, 47.442460081713008 ], [ -121.384823065757374, 47.442388418750582 ], [ -121.385240425004184, 47.443435921254483 ], [ -121.384859142681748, 47.443507585626278 ], [ -121.385380853502568, 47.444816969078765 ], [ -121.384999563266803, 47.44488863417952 ], [ -121.38520825062561, 47.445412389373395 ], [ -121.384826956722023, 47.445484054145936 ], [ -121.38493130024213, 47.445745932332699 ], [ -121.38455000408598, 47.445817596424725 ], [ -121.384654347028089, 47.446079475122239 ], [ -121.384273048619335, 47.446151138533608 ], [ -121.384377390983431, 47.446413017741847 ], [ -121.383614788823408, 47.446556342170545 ], [ -121.383719129194134, 47.446818222241994 ], [ -121.382956520854265, 47.446961543243468 ], [ -121.383060859231549, 47.447223424178013 ], [ -121.3826795523903, 47.447295083481649 ], [ -121.382783890189515, 47.447556964927053 ], [ -121.38087733634724, 47.447915247711897 ], [ -121.380981667906582, 47.448177131077614 ], [ -121.380600353210909, 47.448248784887895 ], [ -121.380809016010431, 47.448772552799475 ], [ -121.380427697646539, 47.448844206281493 ], [ -121.380532028886705, 47.449106090827314 ], [ -121.380150708270079, 47.449177743628645 ], [ -121.380255038931978, 47.449439628685383 ], [ -121.379873716062562, 47.449511280806057 ], [ -121.379978046146178, 47.449773166373703 ], [ -121.379596721023972, 47.449844817813663 ], [ -121.379701050529292, 47.450106703892168 ], [ -121.379319723154282, 47.45017835465147 ], [ -121.379528381845589, 47.450702127988905 ], [ -121.379147050802132, 47.45077377841988 ], [ -121.379251379988091, 47.451035665678774 ], [ -121.378870046691759, 47.451107315429091 ], [ -121.379078704744231, 47.451631091127446 ], [ -121.378697367779395, 47.451702740549436 ], [ -121.378906026349654, 47.452226517586872 ], [ -121.378524685716215, 47.452298166680571 ], [ -121.379359342164136, 47.454393283994229 ], [ -121.378215281262555, 47.454608233534884 ], [ -121.378319612839249, 47.454870124970377 ], [ -121.377175540154241, 47.455085066269774 ], [ -121.377279868320826, 47.45534695892129 ], [ -121.376517146179239, 47.455490248659878 ], [ -121.376621472351459, 47.455752142174973 ], [ -121.375096012357176, 47.456038710663456 ], [ -121.375200333703177, 47.456300605747053 ], [ -121.374437595850509, 47.456443884496828 ], [ -121.374541915201917, 47.45670578044404 ], [ -121.374160543603736, 47.456777418621542 ], [ -121.374264862376478, 47.457039315079925 ], [ -121.373883488525081, 47.457110952576635 ], [ -121.373987806719114, 47.457372849546246 ], [ -121.373225053672527, 47.457516122144717 ], [ -121.373329369871882, 47.457778019978051 ], [ -121.372947990676707, 47.457849655079805 ], [ -121.373052306297296, 47.458111553424359 ], [ -121.372289542563081, 47.458254821232991 ], [ -121.372393856188864, 47.458516720441231 ], [ -121.372012471649825, 47.458588353148066 ], [ -121.372116784696786, 47.458850252867649 ], [ -121.371354010274814, 47.458993515886242 ], [ -121.371458321326855, 47.459255416469531 ], [ -121.371076931443866, 47.45932704678129 ], [ -121.371181241917057, 47.459588947875893 ], [ -121.370799849780738, 47.459660577506845 ], [ -121.371008470406579, 47.460184380877578 ], [ -121.370245677957584, 47.460327638449229 ], [ -121.370349986694052, 47.460589541077852 ], [ -121.369968587797501, 47.460661168666121 ], [ -121.370072895955033, 47.460923071806072 ], [ -121.368928689993339, 47.4611379494281 ], [ -121.36903299473947, 47.461399853784378 ], [ -121.368270183746375, 47.461543101070504 ], [ -121.368374486497231, 47.461805006290589 ], [ -121.366467437281983, 47.462163108184129 ], [ -121.366571733788561, 47.46242501532533 ], [ -121.366190320017594, 47.462496632956302 ], [ -121.366294615945009, 47.462758540608966 ], [ -121.365531783058898, 47.462901773475565 ], [ -121.365636076990768, 47.463163681992079 ], [ -121.36487323792322, 47.463306911429832 ], [ -121.364977529859459, 47.463568820810167 ], [ -121.36459610765354, 47.46364043433141 ], [ -121.364700399010545, 47.463902344223314 ], [ -121.36431897455104, 47.463973957063459 ], [ -121.364423265328782, 47.464235867466869 ], [ -121.364041838615691, 47.464307479625994 ], [ -121.364146128814127, 47.464569390540859 ], [ -121.363764699847394, 47.464641002018965 ], [ -121.363868989466553, 47.464902913445428 ], [ -121.363487558246177, 47.464974524242557 ], [ -121.363383270043499, 47.464712612463693 ], [ -121.359187486950816, 47.465500259146253 ], [ -121.359083215167161, 47.465238343650263 ], [ -121.358320337465173, 47.465381537998034 ], [ -121.358216069351769, 47.465119621956489 ], [ -121.357453191134937, 47.465262811465479 ], [ -121.357348926691685, 47.465000894878443 ], [ -121.356204607338938, 47.465215670333635 ], [ -121.356100347982533, 47.464953752848764 ], [ -121.355718907941011, 47.46502534224782 ], [ -121.355614650838149, 47.464763424569888 ], [ -121.354470329941961, 47.464978185509011 ], [ -121.354366077925931, 47.464716266933273 ], [ -121.353603195977342, 47.46485943502045 ], [ -121.353498947631479, 47.464597515899349 ], [ -121.35197317935868, 47.464883838262352 ], [ -121.351868937516372, 47.464621917891336 ], [ -121.349580268503288, 47.465051368315955 ], [ -121.349684501845303, 47.465313290800438 ], [ -121.349303052664368, 47.465384862606015 ], [ -121.349198820739105, 47.465122939769209 ], [ -121.347673021315074, 47.465409215246844 ], [ -121.347777247573234, 47.465671139492542 ], [ -121.347395794208666, 47.46574270613025 ], [ -121.347500019886709, 47.466004630887468 ], [ -121.347118564268598, 47.466076196843836 ], [ -121.34743124207256, 47.466861973127926 ], [ -121.347049781367218, 47.466933539107316 ], [ -121.347154007558444, 47.467195465206217 ], [ -121.346772544599503, 47.46726703050431 ], [ -121.346876770210571, 47.467528957114752 ], [ -121.346495304998015, 47.467600521731413 ], [ -121.346599530028897, 47.46786244885346 ], [ -121.346218062562698, 47.467934012788781 ], [ -121.346322287013408, 47.468195940422447 ], [ -121.345177875343651, 47.468410627083188 ], [ -121.345282096380231, 47.468672555933004 ], [ -121.344900622733263, 47.46874411643816 ], [ -121.345004843189542, 47.469006045799603 ], [ -121.344241890551501, 47.469149164413501 ], [ -121.344346109010473, 47.469411094638751 ], [ -121.3439646300194, 47.469482652747487 ], [ -121.344068847898058, 47.469744583484456 ], [ -121.343687366653214, 47.469816140911654 ], [ -121.343791583951528, 47.470078072160334 ], [ -121.343410100452942, 47.470149628906121 ], [ -121.343514317170872, 47.470411560666449 ], [ -121.343132831418515, 47.470483116730783 ], [ -121.343237047556045, 47.470745049002844 ], [ -121.342855559549903, 47.470816604385789 ], [ -121.342959775107033, 47.471078537169518 ], [ -121.342578284847065, 47.471150091870946 ], [ -121.342786715637175, 47.471673958621516 ], [ -121.342405221706244, 47.471745512993706 ], [ -121.342509436939196, 47.472007446960539 ], [ -121.342127940754381, 47.472079000651242 ], [ -121.342336370896092, 47.472602869767982 ], [ -121.341954871040159, 47.472674423129455 ], [ -121.34216330169437, 47.473198293588915 ], [ -121.341781798167304, 47.473269846621221 ], [ -121.342094446172382, 47.474055654563976 ], [ -121.341712937556792, 47.474127207619311 ], [ -121.341817153814716, 47.474389144271704 ], [ -121.341435642945115, 47.474460696645544 ], [ -121.341539858622482, 47.474722633809812 ], [ -121.341158345498854, 47.474794185502212 ], [ -121.341262560595652, 47.475056123178369 ], [ -121.340118011952285, 47.475270773109465 ], [ -121.34022222363383, 47.475532712002178 ], [ -121.338696141392347, 47.475818898846093 ], [ -121.338800348241065, 47.476080839307521 ], [ -121.338418824171526, 47.476152383786243 ], [ -121.338314618740213, 47.475890442972506 ], [ -121.337551570925839, 47.476033528123828 ], [ -121.33734316824291, 47.475509645566412 ], [ -121.336961645915594, 47.475581185886803 ], [ -121.336753249414073, 47.475057303263668 ], [ -121.336371729084945, 47.47512884184583 ], [ -121.336267533506529, 47.474866900421517 ], [ -121.335122971751744, 47.475081508908218 ], [ -121.334914591609177, 47.474557624425337 ], [ -121.334533072185934, 47.474629157815457 ], [ -121.334324698224378, 47.474105273266865 ], [ -121.333561662538031, 47.474248335536899 ], [ -121.333457479646853, 47.473986392797741 ], [ -121.33307596196633, 47.474057922029878 ], [ -121.332971781329064, 47.473795979098185 ], [ -121.332208746293432, 47.473939033756501 ], [ -121.332104569327484, 47.473677090280212 ], [ -121.331341533780886, 47.47382014009888 ], [ -121.331445707911953, 47.474082084279459 ], [ -121.330682666184742, 47.474225130667058 ], [ -121.330786838317309, 47.47448707571165 ], [ -121.330405314781586, 47.474558597706789 ], [ -121.330509486333114, 47.474820543263256 ], [ -121.329746433917379, 47.474963584856226 ], [ -121.329850603470277, 47.475225531276664 ], [ -121.329469074590264, 47.475297050874524 ], [ -121.329573243562038, 47.475558997806829 ], [ -121.329191712428084, 47.475630516722887 ], [ -121.329295880818719, 47.475892464167117 ], [ -121.328532813206394, 47.476035499601807 ], [ -121.328636979598286, 47.476297447910127 ], [ -121.328255443119929, 47.476368964428772 ], [ -121.328359608930612, 47.476630913249004 ], [ -121.327214990224292, 47.476845457657866 ], [ -121.327319152618472, 47.477107407694248 ], [ -121.32617452213168, 47.4773219438542 ], [ -121.326278681109216, 47.477583895106847 ], [ -121.325134038842037, 47.477798423017681 ], [ -121.325238194402814, 47.478060375486578 ], [ -121.324856643889987, 47.478131883074397 ], [ -121.325064954685075, 47.478655789195976 ], [ -121.32468340050039, 47.47872729645411 ], [ -121.324787555734687, 47.47898925010692 ], [ -121.322879765177078, 47.479346772648285 ], [ -121.322775617031766, 47.479084817234899 ], [ -121.320104685051064, 47.479585302899899 ], [ -121.320000547667078, 47.479323345181719 ], [ -121.319237419553502, 47.479466331075656 ], [ -121.319133285841474, 47.479204372813228 ], [ -121.318370157218894, 47.479347353866871 ], [ -121.318474288095089, 47.479609312833411 ], [ -121.317711153291896, 47.479752290455053 ], [ -121.317607025251561, 47.479490330784351 ], [ -121.316843889939577, 47.479633303565691 ], [ -121.316739765571285, 47.479371343350842 ], [ -121.315976629750651, 47.479514311291901 ], [ -121.315664270170174, 47.478728429495042 ], [ -121.315282705259506, 47.478799910858378 ], [ -121.315074472555494, 47.47827598975622 ], [ -121.314692909644663, 47.478347469381504 ], [ -121.31448468312071, 47.477823548215078 ], [ -121.314103122209687, 47.477895026102317 ], [ -121.313790792947657, 47.477109144496225 ], [ -121.313409235454358, 47.477180620293467 ], [ -121.313305128790233, 47.476918659725982 ], [ -121.312923571878869, 47.476990134137203 ], [ -121.3128194674686, 47.476728173377637 ], [ -121.31243791113917, 47.476799646402888 ], [ -121.312333808982757, 47.47653768545127 ], [ -121.311952253235305, 47.476609157090557 ], [ -121.311639956035279, 47.475823274139344 ], [ -121.311258403705594, 47.475894743688755 ], [ -121.31063384038147, 47.474322979991427 ], [ -121.31101538420404, 47.474251512553401 ], [ -121.310703109572287, 47.473465633918387 ], [ -121.311084648305609, 47.473394166502054 ], [ -121.310876466561254, 47.472870248914766 ], [ -121.31125800162323, 47.472798781168287 ], [ -121.311153910586995, 47.472536822966191 ], [ -121.310772376942765, 47.472608290360867 ], [ -121.310251941386895, 47.471298499987789 ], [ -121.309870413995554, 47.471369964589229 ], [ -121.309662248458821, 47.470846048854533 ], [ -121.309280723067189, 47.470917511718376 ], [ -121.308864407692838, 47.469869680758478 ], [ -121.309245927413713, 47.469798219301929 ], [ -121.309037771905224, 47.469274305483843 ], [ -121.308656255019613, 47.469345766236792 ], [ -121.308344032277063, 47.468559895651907 ], [ -121.307962518808736, 47.468631354315598 ], [ -121.307858447650062, 47.468369397421519 ], [ -121.307476934763784, 47.468440854699473 ], [ -121.307372865858326, 47.468178897613313 ], [ -121.306991353554125, 47.468250353505596 ], [ -121.306679156103925, 47.467464482149765 ], [ -121.306297647217008, 47.46753593595286 ], [ -121.305985461539365, 47.466750064978577 ], [ -121.305603956069731, 47.466821516692583 ], [ -121.305187725866631, 47.465773689554673 ], [ -121.304806225231829, 47.465845138828016 ], [ -121.303973816266378, 47.463749489398815 ], [ -121.30359232613641, 47.463820934824795 ], [ -121.30338423508374, 47.46329702335975 ], [ -121.303765722378742, 47.463225578637022 ], [ -121.303453587812285, 47.462439713690692 ], [ -121.303835070019588, 47.462368268989067 ], [ -121.303731025417292, 47.46210631467757 ], [ -121.304112505371876, 47.462034869293646 ], [ -121.303904415838389, 47.461510961852369 ], [ -121.304285892122877, 47.461439516137851 ], [ -121.303869717409825, 47.460391704575166 ], [ -121.304251187189564, 47.460320259233271 ], [ -121.304043102010027, 47.459796355111656 ], [ -121.303661635064927, 47.459867799750405 ], [ -121.30334951781191, 47.459081943708775 ], [ -121.303730980505065, 47.459010500124826 ], [ -121.303626941673869, 47.458748548781301 ], [ -121.304008402114533, 47.458677104515147 ], [ -121.303904362701303, 47.458415153682502 ], [ -121.30428582088949, 47.458343708734112 ], [ -121.304077741734162, 47.457819808250157 ], [ -121.304459196252651, 47.457748362971124 ], [ -121.304355156510567, 47.4574864133197 ], [ -121.305118060207491, 47.45734352036343 ], [ -121.305014018466238, 47.457081571574456 ], [ -121.305395467644686, 47.457010123897298 ], [ -121.305291425321471, 47.456748175619161 ], [ -121.305672872247527, 47.456676727259747 ], [ -121.305568829342377, 47.456414779492505 ], [ -121.305950274016084, 47.456343330450991 ], [ -121.305846230528999, 47.456081383194558 ], [ -121.306609114536499, 47.455938482713364 ], [ -121.306505069050417, 47.455676536319324 ], [ -121.306886508384224, 47.455605084879679 ], [ -121.306782462316278, 47.455343138996511 ], [ -121.307163899397779, 47.455271686874724 ], [ -121.307059852747997, 47.455009741502316 ], [ -121.30744128757722, 47.454938288698379 ], [ -121.307337240345632, 47.454676343836752 ], [ -121.307718672922576, 47.454604890350701 ], [ -121.307614625109167, 47.454342945999819 ], [ -121.308758913577549, 47.454128580394233 ], [ -121.308654862348376, 47.453866637257192 ], [ -121.309417714317163, 47.453723722388226 ], [ -121.309313661089277, 47.4534617801135 ], [ -121.309695084403828, 47.453390321480086 ], [ -121.309591030594291, 47.45312837971607 ], [ -121.309972451656648, 47.45305692040052 ], [ -121.309868397265419, 47.452794979147242 ], [ -121.310631234050575, 47.452652058118431 ], [ -121.310527177660802, 47.452390117727383 ], [ -121.311671422323343, 47.452175729486605 ], [ -121.311567362518275, 47.451913790309327 ], [ -121.313093004706943, 47.451627926257238 ], [ -121.3129889400699, 47.451365988645385 ], [ -121.313370347111999, 47.451294520399927 ], [ -121.312850029372228, 47.449984836484013 ], [ -121.313231428495286, 47.449913368962818 ], [ -121.313023304412852, 47.449389497212657 ], [ -121.313404699867206, 47.449318029360995 ], [ -121.313092515757901, 47.448532223982788 ], [ -121.313473906126958, 47.448460756152201 ], [ -121.313161725284829, 47.447674953259217 ], [ -121.31354311056873, 47.447603485449761 ], [ -121.313439050541831, 47.447341551821495 ], [ -121.313820433573909, 47.44727008332999 ], [ -121.313612313192579, 47.446746217253185 ], [ -121.313993692556238, 47.446674748431221 ], [ -121.313785572682605, 47.446150883693107 ], [ -121.314166948377945, 47.446079414540648 ], [ -121.31375071298686, 47.445031688376751 ], [ -121.31413208218089, 47.444960219596815 ], [ -121.314028024004571, 47.444698288804489 ], [ -121.314409390946949, 47.44462681934256 ], [ -121.314305332189335, 47.444364889060552 ], [ -121.314686696880074, 47.444293418916651 ], [ -121.314478579037399, 47.44376955953193 ], [ -121.314859940060074, 47.443698089057598 ], [ -121.314651822725182, 47.443174231010993 ], [ -121.315033180079894, 47.443102760206159 ], [ -121.314929121248753, 47.442840831772507 ], [ -121.315310476351925, 47.442769360285659 ], [ -121.315102358362338, 47.442245504597551 ], [ -121.315483709797604, 47.442174032780258 ], [ -121.315379650639187, 47.441912105525773 ], [ -121.316142348171624, 47.441769159493859 ], [ -121.316038287015687, 47.441507233101056 ], [ -121.316419633112872, 47.441435758886492 ], [ -121.316315571375782, 47.441173833003838 ], [ -121.316696915221499, 47.441102358107315 ], [ -121.31659285290327, 47.440840432734774 ], [ -121.31697419449759, 47.440768957156386 ], [ -121.316870131598222, 47.440507032293972 ], [ -121.31725147094113, 47.440435556033677 ], [ -121.317355535256752, 47.440697480544593 ], [ -121.32078756450575, 47.440054144536511 ], [ -121.320891642402458, 47.440316066042655 ], [ -121.326230239915432, 47.439315149852241 ], [ -121.326126142193374, 47.439053233267657 ], [ -121.326888782783229, 47.438910229410652 ], [ -121.326992883337354, 47.439172145292112 ], [ -121.329280793552954, 47.438743106812957 ], [ -121.329384903438452, 47.439005020743501 ], [ -121.331291479389179, 47.438647458504832 ], [ -121.330979131000163, 47.437861722462834 ], [ -121.331360439436068, 47.437790207970217 ], [ -121.331048094318902, 47.43700447440925 ], [ -121.331429397671712, 47.436932959938183 ], [ -121.331221168939308, 47.436409139059528 ], [ -121.331602468624993, 47.436337624258449 ], [ -121.331290127544946, 47.435551895183401 ], [ -121.331671422147778, 47.435480380403888 ], [ -121.331359084339439, 47.434694653809082 ], [ -121.330977793983934, 47.434766167533922 ], [ -121.330873684467761, 47.434504258634171 ], [ -121.331254973407539, 47.434432745260843 ], [ -121.331046754049979, 47.433908928639433 ], [ -121.330665467941643, 47.433980441309643 ], [ -121.330457254757093, 47.433456624618557 ], [ -121.330838538033987, 47.43338511265145 ], [ -121.330526220275303, 47.432599389856797 ], [ -121.330907498469799, 47.432527877911092 ], [ -121.330699287976117, 47.432004064209124 ], [ -121.331080562503956, 47.431932551933393 ], [ -121.330872352520359, 47.431408739567573 ], [ -121.331253623381627, 47.431337226961659 ], [ -121.331149518227235, 47.431075321367672 ], [ -121.331530786837575, 47.431003808080135 ], [ -121.331322576203604, 47.430479998069806 ], [ -121.331703841147458, 47.430408484452229 ], [ -121.331495631023643, 47.429884675777735 ], [ -121.331876892301096, 47.429813161830062 ], [ -121.331668682687479, 47.42928935449136 ], [ -121.332049940298589, 47.429217840213575 ], [ -121.33194583532925, 47.428955937132969 ], [ -121.332327090689574, 47.428884422173532 ], [ -121.331806571294763, 47.427574910900319 ], [ -121.33218781874254, 47.427503396665195 ], [ -121.331979614000659, 47.426979593965712 ], [ -121.332360857782376, 47.426908079400455 ], [ -121.332152653550708, 47.426384278036281 ], [ -121.33253389366638, 47.426312763140913 ], [ -121.332325689944952, 47.425788963111863 ], [ -121.332706926394721, 47.425717447886399 ], [ -121.332602824371492, 47.42545554846037 ], [ -121.333365291934655, 47.425312515613243 ], [ -121.333157084732704, 47.424788718641175 ], [ -121.333538314430839, 47.424717201370981 ], [ -121.33343421066742, 47.424455303473401 ], [ -121.334196664727443, 47.424312266536937 ], [ -121.333988454045326, 47.42378847262151 ], [ -121.334369676992011, 47.423716953306673 ], [ -121.334161466820362, 47.423193160726001 ], [ -121.3345426861014, 47.423121641081131 ], [ -121.334438580853231, 47.422859745379121 ], [ -121.334819797883853, 47.422788225052678 ], [ -121.33461158706281, 47.422264434825415 ], [ -121.334992800427912, 47.422192914168853 ], [ -121.33468048621495, 47.421407231066517 ], [ -121.335061694499473, 47.421335710431308 ], [ -121.334645281581047, 47.420288136577597 ], [ -121.335026483370072, 47.420216616314988 ], [ -121.334714178205303, 47.419430938636374 ], [ -121.335095374914076, 47.419359418395075 ], [ -121.334887172816522, 47.418835634767873 ], [ -121.335268365860145, 47.418764114196442 ], [ -121.335060164273173, 47.418240331903178 ], [ -121.335441353651731, 47.418168811001642 ], [ -121.335233152575299, 47.417645030042173 ], [ -121.335614338288806, 47.41757350881047 ], [ -121.335510237588338, 47.417311618918809 ], [ -121.335891421051826, 47.417240097005561 ], [ -121.335787319771541, 47.416978207622975 ], [ -121.336168500985039, 47.416906685028209 ], [ -121.33606439912495, 47.416644796154735 ], [ -121.337207933510058, 47.416430223227671 ], [ -121.337103828240515, 47.416168335565992 ], [ -121.337485003283803, 47.416096809542694 ], [ -121.337276792420397, 47.415573035394999 ], [ -121.337657963798918, 47.415501509041626 ], [ -121.337449753446379, 47.414977736227364 ], [ -121.33783092116019, 47.414906209543858 ], [ -121.337726815821796, 47.41464432372458 ], [ -121.338107981285731, 47.414572796359636 ], [ -121.338003875367704, 47.41431091104937 ], [ -121.338385038581762, 47.414239383002979 ], [ -121.337864514444377, 47.412929960572356 ], [ -121.338245669749796, 47.412858433249902 ], [ -121.338141566012865, 47.412596549587846 ], [ -121.33852271906855, 47.412525021583939 ], [ -121.33841861475203, 47.412263138430802 ], [ -121.33879976555798, 47.412191609745491 ], [ -121.33807104882122, 47.410358434543916 ], [ -121.338452188889903, 47.410286907284991 ], [ -121.338348088424482, 47.410025026094701 ], [ -121.338729226243586, 47.409953498154223 ], [ -121.338833328123584, 47.410215378993293 ], [ -121.339595604085872, 47.410072319311851 ], [ -121.339699709629954, 47.410334199605821 ], [ -121.34046198508112, 47.410191135090976 ], [ -121.340566094289358, 47.410453014839781 ], [ -121.340947232176873, 47.410381480681991 ], [ -121.341051343634703, 47.410643360236946 ], [ -121.341432482101652, 47.410571824695154 ], [ -121.341536595809131, 47.410833704056323 ], [ -121.343823417560102, 47.410404467011318 ], [ -121.343719295365631, 47.410142589758244 ], [ -121.344100427986589, 47.410071046987724 ], [ -121.343892183274249, 47.409547293656637 ], [ -121.343511053482175, 47.409618835724416 ], [ -121.342990463388446, 47.408309453394914 ], [ -121.342609339833359, 47.408380992673479 ], [ -121.34229700004154, 47.407595364110612 ], [ -121.342678119353451, 47.407523825885974 ], [ -121.342261672331034, 47.406476324743878 ], [ -121.342642785150503, 47.406404786891834 ], [ -121.34191402510946, 47.404571668409098 ], [ -121.341532922190012, 47.404643203802372 ], [ -121.34142881836695, 47.40438133001139 ], [ -121.341047716026821, 47.404452864020847 ], [ -121.340943614452939, 47.404190990035879 ], [ -121.340562512692145, 47.404262522661476 ], [ -121.340458413367443, 47.404000648482572 ], [ -121.340077312186011, 47.404072179724437 ], [ -121.33997321511049, 47.403810305351548 ], [ -121.339592114508363, 47.40388183520956 ], [ -121.339488019682008, 47.403619960642807 ], [ -121.33834471710928, 47.403834542967779 ], [ -121.338240627360591, 47.403572667504655 ], [ -121.337859526247598, 47.403644192529939 ], [ -121.337547266253267, 47.402858566030659 ], [ -121.337166168548279, 47.402930088969867 ], [ -121.336853920309835, 47.402144462832396 ], [ -121.336472826012852, 47.402215983685529 ], [ -121.336368746350459, 47.401954108269734 ], [ -121.336749839233221, 47.401882587767737 ], [ -121.336021295069301, 47.400049466716908 ], [ -121.336402377217965, 47.399977947640167 ], [ -121.336090152282821, 47.399192327743684 ], [ -121.336471229354402, 47.399120808687726 ], [ -121.336159007688835, 47.39833519125871 ], [ -121.336540079683473, 47.398263672223521 ], [ -121.336019719863259, 47.396954314739368 ], [ -121.33640078395301, 47.396882796426986 ], [ -121.336088573834132, 47.396097184874527 ], [ -121.335707513986392, 47.3961687021337 ], [ -121.335395315620687, 47.3953830909415 ], [ -121.335014259180369, 47.395454606115145 ], [ -121.33459801203206, 47.394407125319674 ], [ -121.334216960413073, 47.39447863805681 ], [ -121.334008844673804, 47.393954897899057 ], [ -121.335151988543743, 47.393740358696242 ], [ -121.335047927684059, 47.393478489905881 ], [ -121.335428972557821, 47.39340697512435 ], [ -121.335324911118732, 47.393145106841871 ], [ -121.335705953744153, 47.393073591378915 ], [ -121.335185651996539, 47.39176425407549 ], [ -121.33556668671828, 47.391692739335092 ], [ -121.333901838686359, 47.387502891933295 ], [ -121.334282849953993, 47.387431381775386 ], [ -121.333658578525942, 47.385860201453468 ], [ -121.334039580477594, 47.385788692368465 ], [ -121.333935536745926, 47.385526829880881 ], [ -121.334316536449762, 47.385455320114417 ], [ -121.334212492138775, 47.38519345813436 ], [ -121.334593489594823, 47.385121947686457 ], [ -121.334489444704516, 47.384860086213976 ], [ -121.335251434286761, 47.384717062923002 ], [ -121.33514738740368, 47.384455202308914 ], [ -121.338576286505415, 47.383811549559482 ], [ -121.338472227735494, 47.383549692259912 ], [ -121.339615174844795, 47.383335123815407 ], [ -121.339511112669044, 47.383073267725109 ], [ -121.339892091956742, 47.383001743196694 ], [ -121.339788029202012, 47.382739887613944 ], [ -121.340169006241993, 47.382668362404168 ], [ -121.34006494290827, 47.38240650732881 ], [ -121.340445917700563, 47.382334981437779 ], [ -121.340341853787876, 47.382073126869862 ], [ -121.340722826332524, 47.382001600297485 ], [ -121.340618761840872, 47.381739746236967 ], [ -121.340999732137874, 47.381668218983314 ], [ -121.340687539429183, 47.380882658793652 ], [ -121.341068504652029, 47.380811131560421 ], [ -121.340964440671229, 47.380549278827715 ], [ -121.341345403646514, 47.380477750913215 ], [ -121.341137275361461, 47.379954046619041 ], [ -121.341518234675988, 47.379882518374103 ], [ -121.340581685972381, 47.377525859952044 ], [ -121.340200739376229, 47.377597385039408 ], [ -121.339888575730981, 47.376811833994857 ], [ -121.339507632539963, 47.376883356997631 ], [ -121.3392995304403, 47.376359656381531 ], [ -121.338918589241246, 47.376431177650574 ], [ -121.337878142922051, 47.373812680442526 ], [ -121.338259069990727, 47.373741162681164 ], [ -121.33742676168481, 47.371646378973296 ], [ -121.337045845919747, 47.371717893928924 ], [ -121.336837780009219, 47.371194198862867 ], [ -121.336456866235991, 47.371265712085155 ], [ -121.336352835944595, 47.37100386443575 ], [ -121.335971922750289, 47.371075376275201 ], [ -121.335763867495089, 47.370551680743738 ], [ -121.33538295629269, 47.370623190849848 ], [ -121.335278931328872, 47.370361342967705 ], [ -121.334898020705424, 47.370432851691156 ], [ -121.334793997988399, 47.370171003614551 ], [ -121.334413087944, 47.370242510955272 ], [ -121.334309067473711, 47.369980662684263 ], [ -121.33354724770912, 47.370123673568322 ], [ -121.33344323089851, 47.369861824752178 ], [ -121.333062321178346, 47.369933328295453 ], [ -121.332958306614458, 47.369671479284897 ], [ -121.332196487498521, 47.369814482574185 ], [ -121.332092476594255, 47.369552633018579 ], [ -121.331330656968987, 47.369695631478415 ], [ -121.331226649724343, 47.369433781377815 ], [ -121.330845740073997, 47.369505278708999 ], [ -121.330741735076018, 47.369243428414045 ], [ -121.329599005361374, 47.369457913163565 ], [ -121.329391006344181, 47.368934210938676 ], [ -121.329010097597745, 47.369005703089947 ], [ -121.328698109563362, 47.368220149872393 ], [ -121.327936298047121, 47.368363128975439 ], [ -121.327832306528819, 47.368101277514143 ], [ -121.327070494503943, 47.368244251787857 ], [ -121.326966506645107, 47.367982399781795 ], [ -121.326585600795198, 47.368053885019997 ], [ -121.326377630404139, 47.367530180775248 ], [ -121.325996726546521, 47.367601664280407 ], [ -121.325892744014254, 47.367339812041784 ], [ -121.324750031679002, 47.367554255313394 ], [ -121.324646054219073, 47.367292402179459 ], [ -121.324265149853233, 47.367363880855365 ], [ -121.324161174639784, 47.367102027527196 ], [ -121.323399366233559, 47.367244981081804 ], [ -121.323295394679462, 47.366983127208883 ], [ -121.322914490639093, 47.367054602087563 ], [ -121.322810521331405, 47.366792748020316 ], [ -121.322048713576308, 47.366935693980679 ], [ -121.321944747928001, 47.366673839368708 ], [ -121.321182939665192, 47.36681678049986 ], [ -121.321078977676223, 47.366554925343266 ], [ -121.318793541364798, 47.366983721863953 ], [ -121.318689588687207, 47.366721864761026 ], [ -121.318308681131654, 47.366793326885073 ], [ -121.318204730700387, 47.366531469588004 ], [ -121.318585636842911, 47.366460007814332 ], [ -121.318481685831927, 47.366198151023774 ], [ -121.318862589728155, 47.366126688568421 ], [ -121.318342840107533, 47.36481740870996 ], [ -121.318723736105611, 47.364745946974367 ], [ -121.31851583926435, 47.364222236824659 ], [ -121.318896731603317, 47.364150774757697 ], [ -121.318688835269214, 47.363627065933116 ], [ -121.319069723949141, 47.363555603534792 ], [ -121.318861828122223, 47.363031896035238 ], [ -121.319242713143197, 47.362960433305588 ], [ -121.318307210450115, 47.360603760434685 ], [ -121.318688081922602, 47.360532299825863 ], [ -121.318272318959131, 47.359484895118207 ], [ -121.316713326559878, 47.355557149683591 ], [ -121.316332481928114, 47.35562860363769 ], [ -121.316124633261211, 47.35510490619572 ], [ -121.315743790621667, 47.355176358417552 ], [ -121.3156398689502, 47.354914509580119 ], [ -121.315259026890288, 47.354985960419789 ], [ -121.315155107464321, 47.354724111388037 ], [ -121.31477426598407, 47.354795560845595 ], [ -121.314670348803574, 47.354533711619446 ], [ -121.314289507902998, 47.354605159695005 ], [ -121.313458211742059, 47.352510368693615 ], [ -121.313077381309, 47.352581812936045 ], [ -121.312869568421888, 47.352058116043196 ], [ -121.312488739981063, 47.3521295585536 ], [ -121.312384836199143, 47.351867709990692 ], [ -121.312004008338064, 47.351939151119048 ], [ -121.311900106801389, 47.3516773023618 ], [ -121.311519279520056, 47.351748742108207 ], [ -121.31141538022861, 47.351486893156583 ], [ -121.311034553527051, 47.351558331520998 ], [ -121.310930656480778, 47.351296482375091 ], [ -121.310549830359065, 47.351367919357557 ], [ -121.310342041589578, 47.350844220832769 ], [ -121.310722864886344, 47.350772784550443 ], [ -121.310515076622579, 47.350249087348644 ], [ -121.310895896261755, 47.350177650734537 ], [ -121.310688108503697, 47.349653954855654 ], [ -121.311068924485355, 47.349582517909774 ], [ -121.310653353311224, 47.348535129420249 ], [ -121.310272542979178, 47.348606564966026 ], [ -121.310064765212559, 47.348082870955139 ], [ -121.309683956872661, 47.348154304769011 ], [ -121.309580070650611, 47.347892457647028 ], [ -121.30919926289053, 47.347963890079086 ], [ -121.309095378913398, 47.347702042762727 ], [ -121.308714571733134, 47.347773473812943 ], [ -121.308610690000918, 47.3475116263022 ], [ -121.316607436281956, 47.346011364914631 ], [ -121.316711347671884, 47.346273205074908 ], [ -121.320899988513148, 47.345487168427262 ], [ -121.320796061589917, 47.34522533211792 ], [ -121.321557619001368, 47.345082403651318 ], [ -121.321453690086884, 47.344820568197626 ], [ -121.322596015721629, 47.344606168810273 ], [ -121.322492083403958, 47.344344334562329 ], [ -121.323253626838849, 47.344201397179162 ], [ -121.323149692530109, 47.34393956378684 ], [ -121.323911229809553, 47.343796622977102 ], [ -121.323807293509773, 47.34353479044038 ], [ -121.324188059488264, 47.343463318838126 ], [ -121.32408412260942, 47.343201486806926 ], [ -121.326368692518173, 47.34277263762921 ], [ -121.326264748000938, 47.342510807854076 ], [ -121.326645505325331, 47.342439329730517 ], [ -121.326541560229188, 47.342177500460856 ], [ -121.326922315308849, 47.342106021655688 ], [ -121.326818369633813, 47.341844192891479 ], [ -121.327199122468741, 47.3417727134049 ], [ -121.327095176214812, 47.3415108851461 ], [ -121.327475926805008, 47.341439404977997 ], [ -121.327371979972256, 47.341177577224585 ], [ -121.327752728317762, 47.341106096374979 ], [ -121.327648780906117, 47.340844269126968 ], [ -121.328029527006976, 47.340772787595938 ], [ -121.327925579016537, 47.340510960853329 ], [ -121.32830632287272, 47.340439478640803 ], [ -121.328202374303473, 47.340177652403497 ], [ -121.328583115915009, 47.340106169509511 ], [ -121.328479166766996, 47.339844343777642 ], [ -121.328859906133928, 47.339772860202196 ], [ -121.328755956407136, 47.339511034975622 ], [ -121.329136693529463, 47.339439550718694 ], [ -121.329032743223948, 47.33917772599743 ], [ -121.329413478101699, 47.339106241059092 ], [ -121.329309527217447, 47.338844416843173 ], [ -121.329690259850636, 47.338772931223389 ], [ -121.329586308387675, 47.338511107512737 ], [ -121.329967038776317, 47.338439621211535 ], [ -121.329863086734676, 47.338177798006143 ], [ -121.330243814878799, 47.338106311023481 ], [ -121.330139862258477, 47.337844488323412 ], [ -121.330520588158123, 47.337773000659311 ], [ -121.330416634959164, 47.337511178464482 ], [ -121.330797358614319, 47.337439690118991 ], [ -121.330693404836708, 47.337177868429386 ], [ -121.332597003560792, 47.336820412979726 ], [ -121.332493043558586, 47.336558593195775 ], [ -121.332873759393081, 47.336487099361506 ], [ -121.33276979881235, 47.336225280082708 ], [ -121.333150512402426, 47.33615378556707 ], [ -121.3330465512432, 47.335891966793511 ], [ -121.333427262588856, 47.335820471596463 ], [ -121.333323300851148, 47.335558653328079 ], [ -121.333704009952442, 47.335487157449691 ], [ -121.333600047636281, 47.335225339686481 ], [ -121.333980754493211, 47.335153843126768 ], [ -121.333876791598598, 47.334892025868697 ], [ -121.33425749621118, 47.334820528627581 ], [ -121.334153532738171, 47.334558711874656 ], [ -121.334534235106418, 47.334487213952244 ], [ -121.334430271055012, 47.334225397704408 ], [ -121.334810971178953, 47.334153899100677 ], [ -121.334707006549138, 47.333892083357945 ], [ -121.335087704428815, 47.333820584072832 ], [ -121.334983739220647, 47.333558768835218 ], [ -121.335364434856047, 47.333487268868808 ], [ -121.335260469069553, 47.33322545413624 ], [ -121.335641162460703, 47.333153953488484 ], [ -121.335537196095871, 47.332892139260977 ], [ -121.3359178872428, 47.332820637932031 ], [ -121.335813920299643, 47.332558824209528 ], [ -121.33619460920238, 47.332487322199214 ], [ -121.33609064168094, 47.332225508981779 ], [ -121.336471328339471, 47.332154006290153 ], [ -121.336367360239777, 47.331892193577723 ], [ -121.336748044654144, 47.331820690204843 ], [ -121.336644075976196, 47.331558877997367 ], [ -121.337024758146427, 47.331487373943226 ], [ -121.336608886119365, 47.330440128062605 ], [ -121.33698956181199, 47.330368624377414 ], [ -121.336365770292133, 47.328797762302344 ], [ -121.33674643668526, 47.328726259686213 ], [ -121.336538510019579, 47.328202640933078 ], [ -121.336919172757746, 47.32813113798575 ], [ -121.336711246601439, 47.327607520551851 ], [ -121.337472563935023, 47.327464512963353 ], [ -121.337368599284147, 47.327202705178642 ], [ -121.337749255290646, 47.327131200187452 ], [ -121.337645290061658, 47.326869392907454 ], [ -121.338025943824348, 47.326797887235116 ], [ -121.337818013043005, 47.326274273839424 ], [ -121.338198663150933, 47.326202767835802 ], [ -121.337990732879135, 47.325679155759012 ], [ -121.338371379332372, 47.325607649424185 ], [ -121.338163449570132, 47.325084038666141 ], [ -121.338544092368736, 47.325012532000073 ], [ -121.338232199738997, 47.324227118073047 ], [ -121.338612837472198, 47.324155611425809 ], [ -121.338404910394786, 47.323632003614264 ], [ -121.338024275483249, 47.323703509561504 ], [ -121.337920314604574, 47.323441705537725 ], [ -121.337539680271078, 47.323513210103734 ], [ -121.33743572163597, 47.323251405884541 ], [ -121.337816354558669, 47.323179901668524 ], [ -121.337712395345505, 47.322918097953938 ], [ -121.338093026024623, 47.32284659305661 ], [ -121.337989066233476, 47.322584789846609 ], [ -121.338369694669041, 47.322513284268084 ], [ -121.338265734299839, 47.322251481562638 ], [ -121.338646360491879, 47.322179975302888 ], [ -121.338542399544735, 47.321918173101984 ], [ -121.339303646609011, 47.321775158188835 ], [ -121.339199683673158, 47.321513356842473 ], [ -121.339580304545422, 47.32144184818911 ], [ -121.339476341031641, 47.321180047347234 ], [ -121.339856959660437, 47.321108538012687 ], [ -121.339752995568745, 47.320846737675218 ], [ -121.340133611954087, 47.32077522765951 ], [ -121.340029647284481, 47.320513427826619 ], [ -121.340790874735546, 47.32037040540159 ], [ -121.341171487211909, 47.320298892642327 ], [ -121.341067519143166, 47.320037094013834 ], [ -121.341448129376118, 47.319965580573424 ], [ -121.341240192915805, 47.319441984479852 ], [ -121.342001405240964, 47.319298955905467 ], [ -121.341897435438824, 47.319037158790294 ], [ -121.342658641611678, 47.318894126791477 ], [ -121.342554669821254, 47.318632330530697 ], [ -121.344077066531199, 47.318346255559518 ], [ -121.343973089931552, 47.318084460853051 ], [ -121.345495467674311, 47.317798370784359 ], [ -121.345391486265669, 47.317536577632318 ], [ -121.347294432652575, 47.31717894359732 ], [ -121.347190445024808, 47.316917152349582 ], [ -121.34795161492859, 47.316774092218282 ], [ -121.347743636530282, 47.316250511585778 ], [ -121.348124217412135, 47.31617898067357 ], [ -121.348020228051965, 47.315917190938826 ], [ -121.348400806690634, 47.315845659345584 ], [ -121.348296816753077, 47.315583870115084 ], [ -121.348677393148535, 47.315512337840879 ], [ -121.348573402633562, 47.315250549114687 ], [ -121.348953976785864, 47.315179016159469 ], [ -121.34874599543403, 47.314655439869796 ], [ -121.34912656593292, 47.314583906583564 ], [ -121.34891858509215, 47.314060331610918 ], [ -121.349299151937728, 47.313988797993638 ], [ -121.349091171607995, 47.313465224337833 ], [ -121.349471734800289, 47.313393690389567 ], [ -121.349367744474549, 47.313131904142928 ], [ -121.349748305423816, 47.313060369513686 ], [ -121.349644314520759, 47.312798583771219 ], [ -121.350024873226985, 47.312727048461007 ], [ -121.349920881746669, 47.312465263222691 ], [ -121.350301438209911, 47.312393727231452 ], [ -121.350197446152308, 47.312131942497288 ], [ -121.350578000372565, 47.312060405825129 ], [ -121.350474007737702, 47.311798621595059 ], [ -121.350854559715003, 47.311727084241923 ], [ -121.350542582577361, 47.310941733526441 ], [ -121.351684220821511, 47.310727118431217 ], [ -121.351580225877854, 47.310465336217511 ], [ -121.351960768883515, 47.310393796140609 ], [ -121.351856773362698, 47.31013201443092 ], [ -121.352617854055438, 47.309988931884291 ], [ -121.352409859872466, 47.309465370327061 ], [ -121.352790396149615, 47.309393828207355 ], [ -121.352478406891734, 47.30860848807658 ], [ -121.352858938106195, 47.308536945975938 ], [ -121.352754941942678, 47.308275166590313 ], [ -121.353135470914395, 47.308203623808687 ], [ -121.353031474173818, 47.307941844927107 ], [ -121.353412000902807, 47.307870301464561 ], [ -121.353308003585212, 47.307608523086842 ], [ -121.353688528071501, 47.307536978943482 ], [ -121.353584530176846, 47.307275201069693 ], [ -121.353965052420463, 47.307203656245441 ], [ -121.353861053948805, 47.306941878875485 ], [ -121.35424157394975, 47.30687033337032 ], [ -121.354137574901117, 47.306608556504372 ], [ -121.354518092659418, 47.306537010318323 ], [ -121.354414093033824, 47.306275233956185 ], [ -121.354794608549483, 47.30620368708928 ], [ -121.354690608346957, 47.30594191123101 ], [ -121.355071121620014, 47.305870363683248 ], [ -121.354967120840556, 47.305608588328809 ], [ -121.355347631871012, 47.305537040100219 ], [ -121.355243630514664, 47.305275265249577 ], [ -121.355624139302549, 47.305203716340102 ], [ -121.355416136268857, 47.304680167800505 ], [ -121.355796641404496, 47.30460861856006 ], [ -121.35548463887109, 47.303823297954366 ], [ -121.355865138944864, 47.303751748732928 ], [ -121.355137152313773, 47.301919341819392 ], [ -121.355517641687456, 47.301847794016545 ], [ -121.355413645518794, 47.301586022565346 ], [ -121.355794132650146, 47.301514474081671 ], [ -121.355690135904638, 47.301252703134118 ], [ -121.356070620793702, 47.30118115396963 ], [ -121.35586262698186, 47.300657613235494 ], [ -121.356243108219118, 47.300586063740113 ], [ -121.355931119518331, 47.299800754841456 ], [ -121.356311595694379, 47.299729205364905 ], [ -121.355479651188688, 47.297635057862763 ], [ -121.355099186288129, 47.297706604540515 ], [ -121.354995198381317, 47.297444836444356 ], [ -121.355375661872472, 47.29737329011644 ], [ -121.355271673388913, 47.297111522523693 ], [ -121.355652134638035, 47.29703997551492 ], [ -121.355548145577714, 47.296778208425586 ], [ -121.355928604584889, 47.296706660736 ], [ -121.355824614947835, 47.296444894150063 ], [ -121.356205071713021, 47.296373345779671 ], [ -121.356101081499261, 47.296111579697168 ], [ -121.356481536022486, 47.296040030645926 ], [ -121.356377545232064, 47.295778265066808 ], [ -121.356757997513355, 47.295706715334781 ], [ -121.356550015611774, 47.295183185336874 ], [ -121.356930464241884, 47.29511163527377 ], [ -121.356722482852248, 47.294588106589636 ], [ -121.357102927831235, 47.294516556195575 ], [ -121.356998936976083, 47.294254792433584 ], [ -121.357379379713265, 47.294183241358766 ], [ -121.357275388281508, 47.293921478100053 ], [ -121.357655828776856, 47.293849926344379 ], [ -121.357551836768508, 47.293588163588986 ], [ -121.358312712443009, 47.293445057685631 ], [ -121.358208718448907, 47.293183295783273 ], [ -121.359730454169778, 47.292897073008902 ], [ -121.359626455371796, 47.292635312659243 ], [ -121.360767744192387, 47.29242063580719 ], [ -121.360663741999758, 47.292158876660366 ], [ -121.361424594232034, 47.292015754305908 ], [ -121.367511292178406, 47.29087062707854 ], [ -121.367407265456862, 47.290608874382301 ], [ -121.370070118906028, 47.290107800716832 ], [ -121.369966083155404, 47.289846050623048 ], [ -121.370346486050735, 47.289774464898969 ], [ -121.370242449724174, 47.289512715308341 ], [ -121.370622850377828, 47.28944112890381 ], [ -121.370518813475371, 47.289179379816247 ], [ -121.370899211887377, 47.289107792731222 ], [ -121.370691137763586, 47.28858429571568 ], [ -121.371071532525193, 47.288512708299962 ], [ -121.370863458915423, 47.287989212597054 ], [ -121.370483066971246, 47.288060799313051 ], [ -121.370066935380606, 47.287013808346025 ], [ -121.369686548238406, 47.287085392632157 ], [ -121.36958251883145, 47.286823644923473 ], [ -121.369202132265158, 47.286895227829397 ], [ -121.369098105099681, 47.286633479924042 ], [ -121.369478490257322, 47.286561897368017 ], [ -121.369374462515935, 47.286300149965662 ], [ -121.375080118812917, 47.285226293230963 ], [ -121.375184167683216, 47.285488035385342 ], [ -121.375564539515281, 47.285416436343894 ], [ -121.375668590627015, 47.285678178301453 ], [ -121.376048963034691, 47.285606577879811 ], [ -121.376153016387889, 47.285868319640578 ], [ -121.376533389371119, 47.285796717838679 ], [ -121.376637444965795, 47.28605845940254 ], [ -121.377017818524564, 47.28598685622044 ], [ -121.377121876360775, 47.28624859758758 ], [ -121.37750225049507, 47.286176993025244 ], [ -121.377606310572773, 47.286438734195471 ], [ -121.377986685282593, 47.286367128252905 ], [ -121.37809074760186, 47.286628869226334 ], [ -121.382274829921229, 47.285841132009431 ], [ -121.382378908566764, 47.286102869286239 ], [ -121.383900373686686, 47.285816387081042 ], [ -121.383796289407556, 47.285554651204244 ], [ -121.384557014151696, 47.28541140462012 ], [ -121.384452927889001, 47.285149669596294 ], [ -121.38483328760293, 47.285078045108946 ], [ -121.384937375273992, 47.285339779782731 ], [ -121.385317735563049, 47.285268153915119 ], [ -121.385421825475632, 47.285529888391871 ], [ -121.386182546370819, 47.285386632865951 ], [ -121.386286639933303, 47.285648366795684 ], [ -121.386667000539376, 47.285576737137269 ], [ -121.386771096343466, 47.285838470869962 ], [ -121.387151457524581, 47.285766839831403 ], [ -121.387255555570277, 47.286028573367062 ], [ -121.387635917326463, 47.285956940948168 ], [ -121.38774001761378, 47.286218674286786 ], [ -121.388120379944993, 47.286147040487585 ], [ -121.388224482473973, 47.286408773629162 ], [ -121.3886048453802, 47.286337138449731 ], [ -121.388708950150829, 47.286598871394219 ], [ -121.390991118537499, 47.286169036582237 ], [ -121.391095232591354, 47.286430767579205 ], [ -121.39147559248056, 47.286359124488072 ], [ -121.391579708776121, 47.28662085528795 ], [ -121.391960069240156, 47.286549210816496 ], [ -121.39206418777745, 47.286810941419226 ], [ -121.392444548816343, 47.286739295567386 ], [ -121.392756913653855, 47.287524487243346 ], [ -121.39313727808414, 47.287452839310959 ], [ -121.39355378183636, 47.288499762287266 ], [ -121.393934151066389, 47.288428111923984 ], [ -121.394142410760395, 47.288951573629973 ], [ -121.394903152353081, 47.28880826841209 ], [ -121.394799019272639, 47.288546538182949 ], [ -121.395179387410295, 47.2884748843788 ], [ -121.39528352189906, 47.288736614257814 ], [ -121.396044258490178, 47.288593302858644 ], [ -121.39614839662913, 47.288855032190284 ], [ -121.396909132702376, 47.288711715969825 ], [ -121.39701327449157, 47.288973444754134 ], [ -121.397774010046817, 47.288830123712437 ], [ -121.397878155486211, 47.289091851949259 ], [ -121.398638890523287, 47.288948526086365 ], [ -121.398743039612967, 47.289210253775771 ], [ -121.399503774131745, 47.289066923091553 ], [ -121.399607926871653, 47.289328650233514 ], [ -121.404172280846751, 47.28846857539029 ], [ -121.404276451318921, 47.288730298481916 ], [ -121.405037168124224, 47.288586937551862 ], [ -121.405141342246537, 47.28884866009588 ], [ -121.405521700806531, 47.288776977735338 ], [ -121.405625877170877, 47.289038700082017 ], [ -121.40638659460538, 47.288895331569812 ], [ -121.406490774619911, 47.289157053368811 ], [ -121.406871133494391, 47.28908536721714 ], [ -121.406975315751026, 47.289347088818765 ], [ -121.407355675199682, 47.289275401286687 ], [ -121.40745985969842, 47.289537122690859 ], [ -121.407840219721223, 47.289465433778304 ], [ -121.40794440646205, 47.289727154985137 ], [ -121.408324767059, 47.289655464692032 ], [ -121.408220578910019, 47.289393743835575 ], [ -121.409361651472452, 47.289178667826612 ], [ -121.409465843845737, 47.289440387632027 ], [ -121.410226557533406, 47.28929699777467 ], [ -121.41033075355692, 47.289558717032172 ], [ -121.410711110557756, 47.289487020207972 ], [ -121.410815308823402, 47.28974873926812 ], [ -121.411195666398243, 47.289677041063385 ], [ -121.411299866906063, 47.289938759926052 ], [ -121.41168022505488, 47.289867060340782 ], [ -121.411888631389019, 47.290390497824198 ], [ -121.412268991519866, 47.290318796507904 ], [ -121.412477404006751, 47.29084223390236 ], [ -121.412857766119643, 47.290770530855184 ], [ -121.413066184759359, 47.29129396816063 ], [ -121.413446548854296, 47.29122226338243 ], [ -121.413967617092709, 47.292530857571371 ], [ -121.414347987394052, 47.292459150010643 ], [ -121.414556423345388, 47.29298258805639 ], [ -121.414936795628762, 47.292910878764616 ], [ -121.415041016264027, 47.29317259766654 ], [ -121.415421389121235, 47.293100886994118 ], [ -121.415525611998945, 47.293362605698555 ], [ -121.415905985430001, 47.293290893645398 ], [ -121.416010210550184, 47.293552612152403 ], [ -121.41639058455506, 47.293480898718663 ], [ -121.41649481191773, 47.293742617028144 ], [ -121.417255560240775, 47.293599186369178 ], [ -121.417151330061813, 47.293337468760768 ], [ -121.417531701563661, 47.293265752236586 ], [ -121.417427470810949, 47.293004035131673 ], [ -121.417807840070296, 47.292932317927985 ], [ -121.417599378251793, 47.292408884878355 ], [ -121.418360108635056, 47.292265448782608 ], [ -121.418255876161183, 47.292003733188317 ], [ -121.418636238693225, 47.291932013945825 ], [ -121.418532005645687, 47.291670298855038 ], [ -121.418912365935313, 47.291598578932991 ], [ -121.418808132314098, 47.291336864345695 ], [ -121.41918849036135, 47.291265143744106 ], [ -121.419084256166499, 47.291003429660279 ], [ -121.419464611971392, 47.290931708379098 ], [ -121.419151910169063, 47.290146568096816 ], [ -121.419532260915673, 47.290074846837143 ], [ -121.419011100892149, 47.288766284510601 ], [ -121.419391443764823, 47.288694563973351 ], [ -121.419182982779816, 47.288171140813866 ], [ -121.419563322002446, 47.288099419947571 ], [ -121.419250632558558, 47.287314287406069 ], [ -121.419630966723332, 47.287242566561197 ], [ -121.419422508449784, 47.286719146331841 ], [ -121.419802838964685, 47.286647425157874 ], [ -121.419907069092119, 47.286909134845679 ], [ -121.420667730434658, 47.286765688706822 ], [ -121.420980434269538, 47.287550816584108 ], [ -121.421360767912731, 47.287479090918239 ], [ -121.421465005600794, 47.287740800165736 ], [ -121.42184533981748, 47.287669073119304 ], [ -121.421949579747718, 47.287930782169241 ], [ -121.422329914537841, 47.287859053742295 ], [ -121.422434156710239, 47.28812076259446 ], [ -121.422814492073783, 47.288049032787036 ], [ -121.422918736488398, 47.288310741441478 ], [ -121.423299072425351, 47.288239010253527 ], [ -121.423507566573434, 47.288762427319831 ], [ -121.423887904491565, 47.288690694400799 ], [ -121.424096404793033, 47.289214111377355 ], [ -121.424476744692342, 47.289142376727199 ], [ -121.424580997502602, 47.289404085094183 ], [ -121.424961337975262, 47.289332349063471 ], [ -121.425065593027838, 47.289594057232698 ], [ -121.425445934073835, 47.289522319821401 ], [ -121.425550191368728, 47.289784027792926 ], [ -121.425930532988033, 47.289712289001066 ], [ -121.426034792525272, 47.289973996774833 ], [ -121.426415134717871, 47.289902256602325 ], [ -121.426519396497469, 47.290163964178412 ], [ -121.426899739263334, 47.290092222625312 ], [ -121.427004003285319, 47.290353930003604 ], [ -121.42738434662445, 47.290282187069892 ], [ -121.427488612888837, 47.290543894250433 ], [ -121.427868956801177, 47.290472149936114 ], [ -121.427973225308008, 47.29073385691887 ], [ -121.428353569793558, 47.290662111223931 ], [ -121.428457840542833, 47.29092381800892 ], [ -121.428838185601563, 47.290852070933347 ], [ -121.428942458593284, 47.291113777520607 ], [ -121.429322804225208, 47.291042029064343 ], [ -121.429531355528283, 47.29156544199617 ], [ -121.429911703141187, 47.291493691808597 ], [ -121.43012026059867, 47.292017104650569 ], [ -121.430500610192539, 47.291945352731688 ], [ -121.431126311045688, 47.293515592823177 ], [ -121.43150666825197, 47.293443837770063 ], [ -121.431610956057057, 47.293705544636538 ], [ -121.431991313836406, 47.293633788202698 ], [ -121.432095603884207, 47.293895494871371 ], [ -121.432475962236637, 47.293823737056769 ], [ -121.432684547652471, 47.294347150151445 ], [ -121.433064907985823, 47.294275390605321 ], [ -121.433899294307309, 47.296369046296469 ], [ -121.433518922710491, 47.296440808648669 ], [ -121.433727524824079, 47.296964224802949 ], [ -121.433347149576335, 47.297035986826657 ], [ -121.433555752213664, 47.297559404294589 ], [ -121.433175373314967, 47.297631165989849 ], [ -121.43348827930906, 47.298416294392119 ], [ -121.433107895351256, 47.298488056109619 ], [ -121.433212197611155, 47.298749766234046 ], [ -121.432831811410281, 47.298821527272246 ], [ -121.433249023167363, 47.299868370704118 ], [ -121.432868630499087, 47.299940132115466 ], [ -121.433181543859973, 47.300725267349726 ], [ -121.432801146132221, 47.30079702878345 ], [ -121.432905450847741, 47.301058741185351 ], [ -121.432525050876805, 47.301130501939774 ], [ -121.432837965808858, 47.301915641117048 ], [ -121.432457560778275, 47.30198740189384 ], [ -121.432874786745415, 47.303034257678476 ], [ -121.432494375246748, 47.303106018828558 ], [ -121.433224542981904, 47.304938024807704 ], [ -121.432844120789966, 47.305009787383781 ], [ -121.432948432398533, 47.305271503487717 ], [ -121.433328855998823, 47.305199740560695 ], [ -121.4334331698509, 47.305461456466972 ], [ -121.4338135940244, 47.305389692158904 ], [ -121.433917910119973, 47.305651407867579 ], [ -121.434298334866682, 47.305579642178316 ], [ -121.434402653205808, 47.305841357689403 ], [ -121.434783078525669, 47.305769590618986 ], [ -121.434991720526241, 47.306293021399249 ], [ -121.435372147827621, 47.306221252596771 ], [ -121.435580795985828, 47.306744683288422 ], [ -121.435961225268727, 47.306672912753776 ], [ -121.436065552009069, 47.306934627978713 ], [ -121.4368264108858, 47.306791083116842 ], [ -121.436930741278189, 47.307052797793062 ], [ -121.438452454641507, 47.306765694302868 ], [ -121.438556791502606, 47.307027407728469 ], [ -121.439698071979066, 47.306812068240639 ], [ -121.439802413900495, 47.30707378076665 ], [ -121.441324115140318, 47.306786645622701 ], [ -121.4414284635304, 47.307048356897909 ], [ -121.441808888160097, 47.306976570185405 ], [ -121.441913238793887, 47.307238281262812 ], [ -121.442293663996452, 47.307166493169142 ], [ -121.442398016873952, 47.307428204048797 ], [ -121.442778442649342, 47.307356414573867 ], [ -121.442882797770636, 47.307618125255765 ], [ -121.443263224118809, 47.307546334399618 ], [ -121.443367581483869, 47.307808044883764 ], [ -121.443748008404825, 47.30773625264635 ], [ -121.443852368013708, 47.30799796293276 ], [ -121.444232795507432, 47.307926169314079 ], [ -121.444441520048358, 47.308449589644638 ], [ -121.444821949523103, 47.308377794293548 ], [ -121.445448151649558, 47.309948056858843 ], [ -121.445067713724853, 47.310019854316558 ], [ -121.445276451635181, 47.310543277100791 ], [ -121.44489601005813, 47.310615074230533 ], [ -121.445000378858367, 47.310876786203906 ], [ -121.444619935037281, 47.310948582654575 ], [ -121.444724303264749, 47.311210295132447 ], [ -121.444343857199641, 47.311282090904065 ], [ -121.444448224854312, 47.311543803886494 ], [ -121.444067776545126, 47.311615598978996 ], [ -121.444172143626986, 47.311877312466038 ], [ -121.443791693073734, 47.311949106879439 ], [ -121.443896059582798, 47.312210820871073 ], [ -121.443515606785439, 47.312282614605358 ], [ -121.443619972721621, 47.312544329101534 ], [ -121.443239517680169, 47.312616122156726 ], [ -121.443343883043497, 47.312877837157565 ], [ -121.442963425757895, 47.312949629533612 ], [ -121.443067790548341, 47.313211345039086 ], [ -121.44268733101859, 47.313283136735969 ], [ -121.442791695236124, 47.313544852746134 ], [ -121.442030770852625, 47.313688433751402 ], [ -121.442135133088684, 47.313950150617266 ], [ -121.441754668234907, 47.314021939925624 ], [ -121.441963392396772, 47.314545374820348 ], [ -121.441582923890167, 47.314617163800676 ], [ -121.441687285815917, 47.314878881829515 ], [ -121.441306815065076, 47.314950670130699 ], [ -121.441411176417844, 47.315212388664314 ], [ -121.440650229591981, 47.315355962877945 ], [ -121.44075458896306, 47.31561768226743 ], [ -121.439993635977331, 47.315761253062071 ], [ -121.440097993366663, 47.316022973307433 ], [ -121.439717514211708, 47.316094757510392 ], [ -121.439821871027931, 47.316356478260559 ], [ -121.439441389628612, 47.316428261784303 ], [ -121.439545745871769, 47.316689983039176 ], [ -121.439165262228087, 47.316761765883747 ], [ -121.439269617898134, 47.317023487643475 ], [ -121.438889132010047, 47.317095269808817 ], [ -121.438993487106927, 47.317356992073314 ], [ -121.438612998974506, 47.317428773559449 ], [ -121.43892606505247, 47.31821394232847 ], [ -121.438545571858, 47.318285723837732 ], [ -121.438649927479773, 47.318547447419306 ], [ -121.438269432040826, 47.318619228249268 ], [ -121.438373787089404, 47.318880952335697 ], [ -121.437993289405952, 47.318952732486466 ], [ -121.438097643881321, 47.31921445707782 ], [ -121.437717143953364, 47.319286236549353 ], [ -121.437821497855467, 47.319547961645561 ], [ -121.437440995682977, 47.319619740437858 ], [ -121.437545349011842, 47.31988146603905 ], [ -121.437164844594804, 47.319953244152067 ], [ -121.437269197350389, 47.320214970258192 ], [ -121.436888690688789, 47.320286747691959 ], [ -121.436993042871052, 47.320548474303017 ], [ -121.436612533964876, 47.320620251057512 ], [ -121.436716885573816, 47.320881978173581 ], [ -121.436336374423036, 47.320953754248805 ], [ -121.436440725458667, 47.321215481869778 ], [ -121.436060212063225, 47.321287257265709 ], [ -121.436164562525491, 47.321548985391743 ], [ -121.435784046885416, 47.321620760108381 ], [ -121.435888396774331, 47.321882488739405 ], [ -121.435507878889595, 47.321954262776806 ], [ -121.435612228205088, 47.322215991912863 ], [ -121.435231708075662, 47.322287765270929 ], [ -121.435440406395514, 47.322811224706975 ], [ -121.435059882612308, 47.322882997736976 ], [ -121.435164231616639, 47.32314472803693 ], [ -121.434783705588657, 47.323216500387623 ], [ -121.43499240328606, 47.323739962151741 ], [ -121.434611873604226, 47.323811734174285 ], [ -121.434716222297283, 47.324073465638364 ], [ -121.434335690370631, 47.324145236981614 ], [ -121.434440038490209, 47.324406968950804 ], [ -121.434059504318753, 47.324478739614783 ], [ -121.43416385186481, 47.324740472089154 ], [ -121.433783315448508, 47.324812242073733 ], [ -121.433887662421043, 47.325073975053257 ], [ -121.433507123759867, 47.325145744358487 ], [ -121.433611470158894, 47.325407477843143 ], [ -121.433230929252815, 47.32547924646903 ], [ -121.433335275078278, 47.32574098045891 ], [ -121.43295473192731, 47.325812748405504 ], [ -121.43305907717918, 47.326074482900538 ], [ -121.43267853178331, 47.326146250167753 ], [ -121.432782876461545, 47.326407985168011 ], [ -121.432402328820743, 47.32647975175589 ], [ -121.432506672925385, 47.326741487261387 ], [ -121.432126123039623, 47.326813253169831 ], [ -121.432230466570616, 47.327074989180552 ], [ -121.431849914439866, 47.327146754409689 ], [ -121.431954257397223, 47.327408490925727 ], [ -121.431573703021471, 47.327480255475429 ], [ -121.431678045405135, 47.32774199249674 ], [ -121.431297488784381, 47.327813756367 ], [ -121.431401830594368, 47.328075493893607 ], [ -121.431021271728554, 47.32814725708451 ], [ -121.43112561296482, 47.328408995116384 ], [ -121.430745051853961, 47.328480757627929 ], [ -121.430849392516507, 47.328742496165113 ], [ -121.430468829160546, 47.328814257997202 ], [ -121.430677510173822, 47.329337736236333 ], [ -121.43105807634862, 47.329265973701801 ], [ -121.431162419518202, 47.329527712701328 ], [ -121.431542986266749, 47.329455948784855 ], [ -121.431751677931956, 47.329979426543737 ], [ -121.431371108364502, 47.330051191162738 ], [ -121.431892845105565, 47.331359890013843 ], [ -121.431512267654981, 47.331431655358486 ], [ -121.431616616100953, 47.331693395942494 ], [ -121.431236036405039, 47.331765160607738 ], [ -121.431340384277249, 47.332026901697226 ], [ -121.430959802336048, 47.332098665683063 ], [ -121.431168497768653, 47.33262214902723 ], [ -121.430787912172562, 47.332693912684952 ], [ -121.432040138060984, 47.335834829923172 ], [ -121.432420740572752, 47.335763062049608 ], [ -121.433568735550665, 47.338642251841513 ], [ -121.433949352733606, 47.338570479072075 ], [ -121.434158092780521, 47.339093969429278 ], [ -121.434538711947042, 47.339022194926237 ], [ -121.43474745815773, 47.339545685198274 ], [ -121.435128079307773, 47.33947390896153 ], [ -121.43544120912378, 47.340259144473549 ], [ -121.435821833667191, 47.340187366151682 ], [ -121.436239357433394, 47.341234347590799 ], [ -121.435858727250604, 47.341306127318589 ], [ -121.43627625875574, 47.342353112635251 ], [ -121.435895622097263, 47.342424892738102 ], [ -121.436000005654051, 47.342686639805052 ], [ -121.435619366749464, 47.342758419228609 ], [ -121.435723749732503, 47.343020166801516 ], [ -121.435343108581804, 47.343091945545737 ], [ -121.435447490991066, 47.343353693624714 ], [ -121.435066847594243, 47.343425471689635 ], [ -121.435171229429713, 47.343687220274639 ], [ -121.434790583786722, 47.343758997660125 ], [ -121.4348949650484, 47.344020746751255 ], [ -121.434514317159227, 47.344092523457405 ], [ -121.434618697847071, 47.34435427305462 ], [ -121.434238047711702, 47.344426049081413 ], [ -121.434342427825698, 47.344687799184705 ], [ -121.433961775444132, 47.344759574532112 ], [ -121.434066154984251, 47.345021325141531 ], [ -121.433685500356432, 47.345093099809567 ], [ -121.43389425912514, 47.34561660219525 ], [ -121.434274916573116, 47.345544826824202 ], [ -121.434483681506791, 47.34606832912538 ], [ -121.434864340938688, 47.345996552020367 ], [ -121.435073112037472, 47.346520054237082 ], [ -121.435453773453361, 47.346448275398117 ], [ -121.435558161667203, 47.346710026386894 ], [ -121.435938823656926, 47.346638246165448 ], [ -121.436147605413709, 47.347161747903918 ], [ -121.436528269387352, 47.347089965948491 ], [ -121.436632662930279, 47.347351716698114 ], [ -121.437393991188827, 47.347208148991328 ], [ -121.437498388388306, 47.347469899192525 ], [ -121.437879052673154, 47.347398113441173 ], [ -121.437983452119099, 47.347659863445458 ], [ -121.438364116977695, 47.347588076311602 ], [ -121.438468518670106, 47.347849826118917 ], [ -121.438849184102423, 47.347778037602595 ], [ -121.439162398428365, 47.348563286897821 ], [ -121.43954306725459, 47.348491496295786 ], [ -121.439647475112864, 47.348753246018603 ], [ -121.440028144512766, 47.348681454033965 ], [ -121.440132554617605, 47.348943203559877 ], [ -121.44089389372823, 47.348799615794583 ], [ -121.440998307489792, 47.349061364771899 ], [ -121.441759646074658, 47.348917772179725 ], [ -121.441864063492929, 47.349179520608409 ], [ -121.442244732940708, 47.349107722414288 ], [ -121.442349152605587, 47.349369470645989 ], [ -121.442729822626916, 47.349297671069351 ], [ -121.442834244538432, 47.349559419104025 ], [ -121.443214915133296, 47.349487618144813 ], [ -121.443319339291492, 47.349749365982532 ], [ -121.443700010459878, 47.349677563640689 ], [ -121.443804436864738, 47.349939311281425 ], [ -121.444185108606618, 47.349867507556965 ], [ -121.444080680791672, 47.349605760267927 ], [ -121.444842018945465, 47.349462150429879 ], [ -121.444737589146968, 47.349200403998942 ], [ -121.445498921134174, 47.349056790740725 ], [ -121.445394489352211, 47.348795045167918 ], [ -121.446155815172901, 47.348651428489674 ], [ -121.446051381407528, 47.348389683774876 ], [ -121.447193359633786, 47.348174252081236 ], [ -121.447088922475146, 47.34791250857625 ], [ -121.448230888941652, 47.347697068660224 ], [ -121.448126448389843, 47.347435326365016 ], [ -121.448887752364357, 47.347291695303653 ], [ -121.448992195735983, 47.34755343689536 ], [ -121.449372847878109, 47.347481619466677 ], [ -121.449477293496372, 47.347743360861358 ], [ -121.449857946211679, 47.347671542050087 ], [ -121.449962394076536, 47.347933283247592 ], [ -121.451104351431795, 47.347717819573823 ], [ -121.451208804363063, 47.347979559870616 ], [ -121.451970107902511, 47.347835911563905 ], [ -121.452074564490331, 47.348097651311697 ], [ -121.452455216414748, 47.348025825260336 ], [ -121.452559675249205, 47.348287564810946 ], [ -121.452940327746688, 47.348215737376997 ], [ -121.453044788827839, 47.34847747673043 ], [ -121.453425441898361, 47.34840564791385 ], [ -121.453529905226233, 47.348667387070051 ], [ -121.453910558869779, 47.348595556870947 ], [ -121.454015024444374, 47.348857295829916 ], [ -121.454395678660902, 47.348785464248159 ], [ -121.45450014648226, 47.349047203009896 ], [ -121.454880801271784, 47.348975370045501 ], [ -121.454985271339908, 47.349237108610069 ], [ -121.455365926702356, 47.349165274263058 ], [ -121.455470399017273, 47.349427012630308 ], [ -121.455851054952689, 47.349355176900708 ], [ -121.455955529514398, 47.349616915070698 ], [ -121.456336186022725, 47.349545077958432 ], [ -121.456440662831255, 47.349806815931231 ], [ -121.456821319912507, 47.349734977436285 ], [ -121.457134759589636, 47.350520191226771 ], [ -121.457515420063487, 47.350448350645394 ], [ -121.457724386853059, 47.350971826575012 ], [ -121.45810504930968, 47.350899984259065 ], [ -121.458314022267217, 47.351423460103533 ], [ -121.458694686706565, 47.351351616052966 ], [ -121.458903665832224, 47.351875091812168 ], [ -121.459284332254299, 47.351803246026925 ], [ -121.459493317548166, 47.352326721700898 ], [ -121.459873985952981, 47.352254874181 ], [ -121.459978481265523, 47.352516611898054 ], [ -121.460359150243121, 47.352444762995404 ], [ -121.460463647802726, 47.352706500515168 ], [ -121.460844317353079, 47.352634650229781 ], [ -121.460948817159775, 47.352896387552235 ], [ -121.461329487282882, 47.352824535884068 ], [ -121.461433989336697, 47.353086273009232 ], [ -121.46257599891247, 47.352870710763845 ], [ -121.462680506033237, 47.353132446987779 ], [ -121.463061175627274, 47.353060590492397 ], [ -121.46316568499519, 47.353322326519013 ], [ -121.463546355161881, 47.353250468640816 ], [ -121.464068921610206, 47.354559149334172 ] ] ], [ [ [ -121.308610690000918, 47.3475116263022 ], [ -121.308229883400514, 47.347583055970581 ], [ -121.308126003913188, 47.347321208265498 ], [ -121.308506809101218, 47.347249778947081 ], [ -121.308610690000918, 47.3475116263022 ] ] ] ] } }
]
}
